{
"type": "FeatureCollection",
"name": "boundary",
"crs": { "type": "name", "properties": { "name": "urn:ogc:def:crs:OGC:1.3:CRS84" } },
"features": [
{ "type": "Feature", "properties": { "Y": 56.7850346, "X": 105.5745485 }, "geometry": { "type": "MultiPolygon", "coordinates": [ [ [ [ 105.572375, 56.783589 ], [ 105.5720415, 56.7836987 ], [ 105.5720571, 56.7837212 ], [ 105.5713744, 56.7840221 ], [ 105.571026, 56.7838355 ], [ 105.5699722, 56.7842995 ], [ 105.5700446, 56.7843602 ], [ 105.5686614, 56.7850435 ], [ 105.5685649, 56.7851189 ], [ 105.5687011, 56.7852161 ], [ 105.5680866, 56.7854913 ], [ 105.5738489, 56.7895337 ], [ 105.5717601, 56.7913472 ], [ 105.570567, 56.7919324 ], [ 105.5708163, 56.7930012 ], [ 105.5717632, 56.7947643 ], [ 105.5679886, 56.7975864 ], [ 105.5672852, 56.7986705 ], [ 105.5662098, 56.8008956 ], [ 105.5654053, 56.8013319 ], [ 105.5651591, 56.8018 ], [ 105.5656086, 56.8022421 ], [ 105.5668049, 56.8026505 ], [ 105.5682288, 56.8027038 ], [ 105.5709835, 56.8020208 ], [ 105.573284, 56.803633 ], [ 105.5744918, 56.8041195 ], [ 105.575661, 56.8043343 ], [ 105.5823625, 56.804067 ], [ 105.5828257, 56.8046506 ], [ 105.585176, 56.8077161 ], [ 105.5856288, 56.8120251 ], [ 105.588018, 56.813805 ], [ 105.5880336, 56.8138361 ], [ 105.5880662, 56.8138384 ], [ 105.5898653, 56.8151222 ], [ 105.5898256, 56.8151447 ], [ 105.5900073, 56.8152954 ], [ 105.5899945, 56.8153055 ], [ 105.5905551, 56.81584 ], [ 105.6036188, 56.8140523 ], [ 105.604456, 56.8113586 ], [ 105.6192698, 56.8113592 ], [ 105.6192215, 56.8113367 ], [ 105.6202585, 56.8113607 ], [ 105.6295483, 56.8123568 ], [ 105.637849, 56.8081347 ], [ 105.630142, 56.8042602 ], [ 105.6276239, 56.8026529 ], [ 105.6278402, 56.8011962 ], [ 105.6285049, 56.7975359 ], [ 105.632413, 56.7936442 ], [ 105.6327583, 56.7907627 ], [ 105.6345496, 56.7896931 ], [ 105.6358205, 56.7888792 ], [ 105.6370944, 56.7869656 ], [ 105.6379498, 56.7853045 ], [ 105.6394473, 56.782486 ], [ 105.6408766, 56.782714 ], [ 105.6412616, 56.7820071 ], [ 105.6401146, 56.7816132 ], [ 105.6407761, 56.7810037 ], [ 105.6421419, 56.7792531 ], [ 105.6437138, 56.7763453 ], [ 105.6493894, 56.773256 ], [ 105.6524945, 56.7721385 ], [ 105.6544122, 56.7716997 ], [ 105.6560067, 56.7719744 ], [ 105.6659131, 56.771422 ], [ 105.6702331, 56.7713348 ], [ 105.6698596, 56.7708329 ], [ 105.6744256, 56.7706962 ], [ 105.6784368, 56.7731315 ], [ 105.6807961, 56.7717607 ], [ 105.6903613, 56.7766674 ], [ 105.690722, 56.7769273 ], [ 105.6944324, 56.7796468 ], [ 105.6951871, 56.7801965 ], [ 105.6962223, 56.7817483 ], [ 105.6965588, 56.781928 ], [ 105.6969635, 56.7822345 ], [ 105.698101, 56.7828693 ], [ 105.6992255, 56.7828898 ], [ 105.700239, 56.7829536 ], [ 105.7018452, 56.7828822 ], [ 105.7025597, 56.7829242 ], [ 105.7033648, 56.7829118 ], [ 105.7046568, 56.7830655 ], [ 105.7076511, 56.7837395 ], [ 105.708793, 56.7839991 ], [ 105.7117239, 56.7850413 ], [ 105.7172428, 56.7890769 ], [ 105.7178304, 56.7896055 ], [ 105.7176341, 56.7931392 ], [ 105.7169757, 56.7947253 ], [ 105.7179698, 56.794947 ], [ 105.7185303, 56.7946221 ], [ 105.7190912, 56.7945156 ], [ 105.7208698, 56.7941025 ], [ 105.7211316, 56.7937003 ], [ 105.7209527, 56.7931808 ], [ 105.7213792, 56.7922882 ], [ 105.7211581, 56.7912606 ], [ 105.7234236, 56.789153 ], [ 105.7238693, 56.7880844 ], [ 105.7273162, 56.7863738 ], [ 105.7307382, 56.7856827 ], [ 105.7333733, 56.7862114 ], [ 105.7353485, 56.7867597 ], [ 105.743504, 56.7895892 ], [ 105.7454977, 56.7902666 ], [ 105.7506962, 56.7926106 ], [ 105.7511918, 56.7926269 ], [ 105.7518506, 56.7921074 ], [ 105.7534003, 56.7928275 ], [ 105.7537046, 56.7930318 ], [ 105.7552433, 56.7938758 ], [ 105.7564411, 56.7943203 ], [ 105.7567408, 56.794521 ], [ 105.7572684, 56.7946355 ], [ 105.7578412, 56.7949019 ], [ 105.7586808, 56.7971696 ], [ 105.7585203, 56.7973578 ], [ 105.758509, 56.797378 ], [ 105.7583428, 56.7974876 ], [ 105.7574802, 56.7988055 ], [ 105.7566287, 56.8000424 ], [ 105.7563491, 56.8003943 ], [ 105.7561475, 56.8008173 ], [ 105.7561099, 56.8010405 ], [ 105.7554362, 56.8018535 ], [ 105.7555242, 56.801894 ], [ 105.7554561, 56.8019414 ], [ 105.7553581, 56.8019064 ], [ 105.7527957, 56.802578 ], [ 105.7529888, 56.8028859 ], [ 105.7512078, 56.8029784 ], [ 105.7512116, 56.8031293 ], [ 105.7512414, 56.8031433 ], [ 105.7521141, 56.8040005 ], [ 105.7521879, 56.8040028 ], [ 105.7522532, 56.804037 ], [ 105.7522589, 56.8040572 ], [ 105.7523299, 56.8040976 ], [ 105.7538579, 56.8044934 ], [ 105.7540042, 56.804495 ], [ 105.7553326, 56.8039678 ], [ 105.7543652, 56.8038772 ], [ 105.7550055, 56.8036625 ], [ 105.7587432, 56.8039309 ], [ 105.7590528, 56.8040048 ], [ 105.7590073, 56.8040538 ], [ 105.7593813, 56.8042536 ], [ 105.7596383, 56.8042777 ], [ 105.759651, 56.8042798 ], [ 105.7598289, 56.8041968 ], [ 105.7604158, 56.8040075 ], [ 105.7668554, 56.803056 ], [ 105.7684125, 56.8030151 ], [ 105.7728465, 56.8033504 ], [ 105.7728509, 56.8033672 ], [ 105.7729607, 56.8033865 ], [ 105.7731298, 56.8033684 ], [ 105.7761453, 56.804574 ], [ 105.7801728, 56.8059964 ], [ 105.784317, 56.8068286 ], [ 105.7855271, 56.8071725 ], [ 105.7866807, 56.8077037 ], [ 105.7872232, 56.807896 ], [ 105.7874779, 56.8080138 ], [ 105.7874494, 56.8080367 ], [ 105.7876514, 56.8081317 ], [ 105.7877195, 56.8081052 ], [ 105.7904516, 56.8088771 ], [ 105.7907393, 56.8089047 ], [ 105.7912312, 56.8089973 ], [ 105.792052, 56.8091245 ], [ 105.7941189, 56.8095638 ], [ 105.7941189, 56.8095638 ], [ 105.800678, 56.8103672 ], [ 105.8024613, 56.810473 ], [ 105.8037658, 56.8106882 ], [ 105.8045784, 56.8107615 ], [ 105.8058149, 56.8109491 ], [ 105.8092035, 56.8117491 ], [ 105.8132612, 56.8129532 ], [ 105.8134984, 56.8129977 ], [ 105.8138432, 56.8130278 ], [ 105.8141617, 56.8129652 ], [ 105.8151851, 56.8131035 ], [ 105.8165336, 56.8131492 ], [ 105.8201338, 56.8130084 ], [ 105.8211946, 56.8128701 ], [ 105.8215921, 56.8128388 ], [ 105.8218183, 56.8128016 ], [ 105.8227675, 56.8125469 ], [ 105.823255, 56.8124495 ], [ 105.8235558, 56.8123289 ], [ 105.8261705, 56.8118394 ], [ 105.8284716, 56.812127 ], [ 105.830587, 56.813496 ], [ 105.8294757, 56.8144719 ], [ 105.8291056, 56.8150422 ], [ 105.8289227, 56.8170085 ], [ 105.8287971, 56.8173757 ], [ 105.8270426, 56.8195891 ], [ 105.8274661, 56.8199234 ], [ 105.831217, 56.8213254 ], [ 105.8320444, 56.8206556 ], [ 105.8323036, 56.8206772 ], [ 105.8324156, 56.8203467 ], [ 105.8327758, 56.8200414 ], [ 105.8349441, 56.8177937 ], [ 105.83613, 56.8177071 ], [ 105.8362684, 56.8177432 ], [ 105.8365956, 56.8177528 ], [ 105.8367801, 56.8177588 ], [ 105.8369097, 56.817742 ], [ 105.8370239, 56.8177432 ], [ 105.8370876, 56.81776 ], [ 105.8373753, 56.8177733 ], [ 105.8374609, 56.8177444 ], [ 105.8376454, 56.817748 ], [ 105.8377684, 56.8178069 ], [ 105.8380429, 56.8178249 ], [ 105.8382889, 56.8178045 ], [ 105.8385414, 56.8178249 ], [ 105.8386917, 56.8177761 ], [ 105.8387203, 56.8177364 ], [ 105.8387972, 56.8177076 ], [ 105.8388872, 56.8177124 ], [ 105.8390102, 56.8176583 ], [ 105.8391156, 56.8176499 ], [ 105.8394648, 56.8175495 ], [ 105.8400731, 56.8175471 ], [ 105.8423176, 56.8170746 ], [ 105.849807, 56.8149218 ], [ 105.8515486, 56.814209 ], [ 105.851772, 56.8153335 ], [ 105.8530194, 56.8154573 ], [ 105.8534875, 56.8172559 ], [ 105.8570107, 56.8171582 ], [ 105.8571345, 56.8170842 ], [ 105.8571301, 56.8167441 ], [ 105.8572316, 56.8166326 ], [ 105.8572138, 56.8158875 ], [ 105.8582944, 56.8158346 ], [ 105.8583453, 56.8150243 ], [ 105.8603318, 56.815059 ], [ 105.8616254, 56.8144026 ], [ 105.8645005, 56.8141152 ], [ 105.8678697, 56.812501 ], [ 105.8693566, 56.8120971 ], [ 105.8701911, 56.8120827 ], [ 105.887213, 56.8137275 ], [ 105.8897961, 56.8138417 ], [ 105.8919157, 56.8140232 ], [ 105.8946275, 56.8135308 ], [ 105.8955499, 56.8132904 ], [ 105.8970609, 56.8130536 ], [ 105.8977138, 56.8136633 ], [ 105.8974919, 56.8163499 ], [ 105.8966163, 56.8176914 ], [ 105.89635, 56.8183234 ], [ 105.8974835, 56.8184605 ], [ 105.8978828, 56.8196786 ], [ 105.9028966, 56.8202499 ], [ 105.906479, 56.8206877 ], [ 105.905216, 56.8174572 ], [ 105.9059385, 56.817141 ], [ 105.907909, 56.815289 ], [ 105.9101876, 56.8161167 ], [ 105.9107799, 56.8145661 ], [ 105.9103614, 56.8136084 ], [ 105.9106645, 56.8132093 ], [ 105.913033, 56.8139444 ], [ 105.9158346, 56.8139072 ], [ 105.9201724, 56.8140444 ], [ 105.9210204, 56.8145496 ], [ 105.9246705, 56.8139583 ], [ 105.9238163, 56.8130888 ], [ 105.9243068, 56.8119029 ], [ 105.9308272, 56.8099568 ], [ 105.9345033, 56.8095466 ], [ 105.9370392, 56.8099183 ], [ 105.9399714, 56.8099765 ], [ 105.940079, 56.8099993 ], [ 105.9401567, 56.8101256 ], [ 105.9405389, 56.8101437 ], [ 105.9415654, 56.8103483 ], [ 105.9415894, 56.8118605 ], [ 105.9420946, 56.8121093 ], [ 105.9445419, 56.8135911 ], [ 105.945563, 56.8140869 ], [ 105.9475774, 56.8154042 ], [ 105.9479391, 56.8158157 ], [ 105.9593329, 56.8204877 ], [ 105.9615986, 56.8211215 ], [ 105.9629982, 56.8213057 ], [ 105.9646221, 56.822833 ], [ 105.9646573, 56.8227946 ], [ 105.9654097, 56.8234499 ], [ 105.9652867, 56.8234608 ], [ 105.9665482, 56.824673 ], [ 105.9691945, 56.8246673 ], [ 105.9698402, 56.8245507 ], [ 105.9705666, 56.8222164 ], [ 105.9719897, 56.8223197 ], [ 105.9731546, 56.8221562 ], [ 105.9744064, 56.8218774 ], [ 105.9751553, 56.8218762 ], [ 105.9769783, 56.8219751 ], [ 105.9891427, 56.8232399 ], [ 105.989169, 56.8231714 ], [ 105.9947078, 56.8237056 ], [ 105.9947451, 56.8236347 ], [ 105.9956961, 56.8237332 ], [ 105.9956732, 56.8238076 ], [ 105.997659, 56.8239858 ], [ 106.0022813, 56.8239786 ], [ 106.0038759, 56.8237834 ], [ 106.0038606, 56.8235767 ], [ 106.0053101, 56.823501 ], [ 106.0063348, 56.8234099 ], [ 106.0071647, 56.8231925 ], [ 106.007896, 56.8229351 ], [ 106.0082724, 56.8227373 ], [ 106.0093042, 56.8222304 ], [ 106.0084101, 56.8218977 ], [ 106.0073988, 56.8224423 ], [ 106.0063697, 56.8228266 ], [ 106.0050034, 56.8231324 ], [ 106.0038394, 56.8232763 ], [ 106.0022883, 56.8232604 ], [ 106.0022847, 56.8232174 ], [ 106.0017497, 56.8231852 ], [ 106.0017139, 56.823239 ], [ 105.9995902, 56.8231347 ], [ 105.9995598, 56.823075 ], [ 105.9992808, 56.8230505 ], [ 105.9990394, 56.8231493 ], [ 105.9927225, 56.8226993 ], [ 105.9898296, 56.8222569 ], [ 105.9898368, 56.8221776 ], [ 105.990434, 56.8222314 ], [ 105.9904751, 56.8222128 ], [ 105.9905109, 56.8222197 ], [ 105.9905216, 56.8221933 ], [ 105.9885926, 56.8219791 ], [ 105.9852496, 56.8214131 ], [ 105.9847011, 56.821315 ], [ 105.984049, 56.8212257 ], [ 105.9827022, 56.8209931 ], [ 105.983033, 56.8209187 ], [ 105.9830938, 56.8208394 ], [ 105.983977, 56.8199891 ], [ 105.9829791, 56.8200684 ], [ 105.9831028, 56.8194948 ], [ 105.9857921, 56.8177778 ], [ 105.9842736, 56.8171698 ], [ 105.9763786, 56.8134864 ], [ 105.9741534, 56.8128583 ], [ 105.9722386, 56.8117325 ], [ 105.9705229, 56.81116 ], [ 105.9664261, 56.8092739 ], [ 105.9547401, 56.8048334 ], [ 105.9523768, 56.8037448 ], [ 105.9505897, 56.8028152 ], [ 105.9484603, 56.8020129 ], [ 105.9455497, 56.8007339 ], [ 105.9350419, 56.7971054 ], [ 105.9302084, 56.7956492 ], [ 105.9235622, 56.7936645 ], [ 105.9218466, 56.7932114 ], [ 105.9208079, 56.7928917 ], [ 105.918844, 56.7928337 ], [ 105.9170201, 56.7928809 ], [ 105.9164211, 56.7928024 ], [ 105.9160489, 56.7926205 ], [ 105.9152871, 56.7925862 ], [ 105.9131734, 56.7926354 ], [ 105.9110628, 56.7924819 ], [ 105.9091084, 56.792543 ], [ 105.9080744, 56.7926065 ], [ 105.906042, 56.7926804 ], [ 105.903878, 56.7929245 ], [ 105.9026565, 56.7932607 ], [ 105.9018175, 56.7934889 ], [ 105.8994939, 56.794311 ], [ 105.897226, 56.7953726 ], [ 105.8956788, 56.7961625 ], [ 105.8947285, 56.7965498 ], [ 105.8947553, 56.7965703 ], [ 105.8945622, 56.796634 ], [ 105.8945533, 56.7966262 ], [ 105.8930429, 56.7972406 ], [ 105.8932628, 56.7974198 ], [ 105.8892537, 56.7986692 ], [ 105.8888933, 56.7987762 ], [ 105.8865771, 56.7993702 ], [ 105.8840625, 56.7998158 ], [ 105.8796897, 56.800251 ], [ 105.8750278, 56.8003395 ], [ 105.866018, 56.8000988 ], [ 105.8560076, 56.7992384 ], [ 105.8550446, 56.7991217 ], [ 105.8555388, 56.7984124 ], [ 105.8546157, 56.798112 ], [ 105.8528632, 56.7975466 ], [ 105.8507555, 56.7966408 ], [ 105.84867, 56.7960893 ], [ 105.8387586, 56.7929749 ], [ 105.8348872, 56.7919164 ], [ 105.834195, 56.7918459 ], [ 105.8293597, 56.7918322 ], [ 105.8273597, 56.7916654 ], [ 105.8248852, 56.7916658 ], [ 105.8222256, 56.7919587 ], [ 105.8218678, 56.7918155 ], [ 105.8179216, 56.7903189 ], [ 105.8178176, 56.7873681 ], [ 105.8176277, 56.7871697 ], [ 105.8174874, 56.7868276 ], [ 105.8173165, 56.7866062 ], [ 105.8180108, 56.7832227 ], [ 105.8148719, 56.7830942 ], [ 105.7978204, 56.7820279 ], [ 105.7924554, 56.7805166 ], [ 105.7919367, 56.7801832 ], [ 105.7908516, 56.7706604 ], [ 105.7895295, 56.7696344 ], [ 105.7853487, 56.7695414 ], [ 105.7821829, 56.7719391 ], [ 105.7789706, 56.7736855 ], [ 105.7761976, 56.7731 ], [ 105.7755608, 56.7734565 ], [ 105.7741377, 56.7732929 ], [ 105.7716019, 56.7746687 ], [ 105.7686515, 56.7748054 ], [ 105.7517703, 56.7739106 ], [ 105.7511847, 56.7741693 ], [ 105.7488511, 56.7736497 ], [ 105.7483626, 56.7737552 ], [ 105.7475037, 56.773525 ], [ 105.7446393, 56.7740012 ], [ 105.7395489, 56.7741748 ], [ 105.7335804, 56.7741567 ], [ 105.7252629, 56.7738574 ], [ 105.7220875, 56.7736425 ], [ 105.7204894, 56.7733522 ], [ 105.7170131, 56.7725725 ], [ 105.7132162, 56.7720387 ], [ 105.7106345, 56.771888 ], [ 105.7090775, 56.7718468 ], [ 105.7030758, 56.7704889 ], [ 105.6966701, 56.7664769 ], [ 105.6949253, 56.7648413 ], [ 105.6948752, 56.7646869 ], [ 105.696875, 56.7631105 ], [ 105.6970341, 56.7624315 ], [ 105.6936584, 56.7617698 ], [ 105.6918823, 56.7621874 ], [ 105.6890799, 56.7607094 ], [ 105.6888133, 56.7605118 ], [ 105.6811767, 56.7582498 ], [ 105.6758381, 56.7557747 ], [ 105.675511, 56.7552091 ], [ 105.6750842, 56.7547771 ], [ 105.6736537, 56.7538744 ], [ 105.6707487, 56.7527063 ], [ 105.6707487, 56.7527063 ], [ 105.6659868, 56.7512104 ], [ 105.6635789, 56.7505437 ], [ 105.6607079, 56.749946 ], [ 105.6612113, 56.7495834 ], [ 105.6598634, 56.7491108 ], [ 105.6582962, 56.7497633 ], [ 105.6577378, 56.7498622 ], [ 105.657796, 56.7497323 ], [ 105.6573287, 56.7496561 ], [ 105.6572067, 56.7498701 ], [ 105.6556104, 56.7502777 ], [ 105.6547311, 56.7490543 ], [ 105.6532588, 56.7480591 ], [ 105.6473862, 56.7453362 ], [ 105.6461312, 56.745003 ], [ 105.6450557, 56.7452239 ], [ 105.6432584, 56.7438564 ], [ 105.641747, 56.7445708 ], [ 105.6417343, 56.7445312 ], [ 105.6372462, 56.746286 ], [ 105.6367414, 56.7465145 ], [ 105.6369345, 56.7467239 ], [ 105.6368621, 56.7467604 ], [ 105.6365101, 56.7465254 ], [ 105.636344, 56.7465597 ], [ 105.6361721, 56.7468008 ], [ 105.6359606, 56.7466397 ], [ 105.6356483, 56.7467527 ], [ 105.6353204, 56.7471341 ], [ 105.6368936, 56.7487912 ], [ 105.6423146, 56.7531474 ], [ 105.6439284, 56.7550549 ], [ 105.6436481, 56.7573631 ], [ 105.6417244, 56.7600836 ], [ 105.6353318, 56.7632046 ], [ 105.6280401, 56.7739052 ], [ 105.6276165, 56.7736624 ], [ 105.6257936, 56.7737214 ], [ 105.6249202, 56.7742786 ], [ 105.6258293, 56.7750276 ], [ 105.6255737, 56.775227 ], [ 105.6255705, 56.77527 ], [ 105.6262667, 56.7755627 ], [ 105.6263922, 56.775414 ], [ 105.6269054, 56.7757572 ], [ 105.6268364, 56.7766939 ], [ 105.6264396, 56.776736 ], [ 105.6264474, 56.7766612 ], [ 105.6242685, 56.7770521 ], [ 105.6210616, 56.7777519 ], [ 105.6185831, 56.7778589 ], [ 105.6146205, 56.7775243 ], [ 105.6044244, 56.7762735 ], [ 105.6023856, 56.7779749 ], [ 105.5948349, 56.7798979 ], [ 105.5915029, 56.7830495 ], [ 105.5900512, 56.7852336 ], [ 105.5897027, 56.7877667 ], [ 105.5881239, 56.7871763 ], [ 105.5850903, 56.7871943 ], [ 105.5809429, 56.7856995 ], [ 105.5795746, 56.7868348 ], [ 105.5782275, 56.7876706 ], [ 105.5771756, 56.7869928 ], [ 105.5745485, 56.7850346 ], [ 105.572375, 56.783589 ] ] ] ] } }
]
}
