{
"type": "FeatureCollection",
"name": "business_zones",
"crs": { "type": "name", "properties": { "name": "urn:ogc:def:crs:OGC:1.3:CRS84" } },
"features": [
{ "type": "Feature", "properties": { "type": 2 }, "geometry": { "type": "MultiPolygon", "coordinates": [ [ [ [ 105.5782762, 56.7921957 ], [ 105.5797854, 56.7926268 ], [ 105.5800558, 56.7926374 ], [ 105.580674, 56.7928172 ], [ 105.5814153, 56.7930632 ], [ 105.5808068, 56.7935604 ], [ 105.580517, 56.7935128 ], [ 105.5802949, 56.7936979 ], [ 105.5792614, 56.7934282 ], [ 105.578199, 56.7931372 ], [ 105.5783366, 56.7930526 ], [ 105.5776074, 56.792841 ], [ 105.5782762, 56.7921957 ] ] ] ] } },
{ "type": "Feature", "properties": { "type": null }, "geometry": { "type": "MultiPolygon", "coordinates": [ [ [ [ 105.5773225, 56.7926956 ], [ 105.5771534, 56.7928992 ], [ 105.576912, 56.7930817 ], [ 105.5761538, 56.7928304 ], [ 105.5762552, 56.7927194 ], [ 105.5764194, 56.7927511 ], [ 105.5766464, 56.7924972 ], [ 105.5773225, 56.7926956 ] ] ] ] } },
{ "type": "Feature", "properties": { "type": 1 }, "geometry": { "type": "MultiPolygon", "coordinates": [ [ [ [ 105.5767164, 56.7933442 ], [ 105.5767067, 56.79345 ], [ 105.5776557, 56.7937118 ], [ 105.5783732, 56.7939097 ], [ 105.5793145, 56.7941694 ], [ 105.5790151, 56.794418 ], [ 105.578595, 56.7943148 ], [ 105.5780479, 56.7941729 ], [ 105.5769337, 56.7938282 ], [ 105.5758664, 56.7934659 ], [ 105.5761176, 56.7932014 ], [ 105.5767164, 56.7933442 ] ] ] ] } },
{ "type": "Feature", "properties": { "type": 1 }, "geometry": { "type": "MultiPolygon", "coordinates": [ [ [ [ 105.5815408, 56.7935128 ], [ 105.5816181, 56.7933541 ], [ 105.5818885, 56.7932007 ], [ 105.5826612, 56.7933911 ], [ 105.5822749, 56.7937191 ], [ 105.5815408, 56.7935128 ] ] ] ] } },
{ "type": "Feature", "properties": { "type": 2 }, "geometry": { "type": "MultiPolygon", "coordinates": [ [ [ [ 105.5835015, 56.7943909 ], [ 105.5842018, 56.7937383 ], [ 105.5847233, 56.7938864 ], [ 105.5853994, 56.7940874 ], [ 105.5850903, 56.794373 ], [ 105.5849068, 56.7945529 ], [ 105.584506, 56.7946289 ], [ 105.5837043, 56.7943909 ], [ 105.5836754, 56.794449 ], [ 105.5835015, 56.7943909 ] ] ] ] } },
{ "type": "Feature", "properties": { "type": 1 }, "geometry": { "type": "MultiPolygon", "coordinates": [ [ [ [ 105.5858244, 56.7940027 ], [ 105.5853994, 56.7940874 ], [ 105.5847233, 56.7938864 ], [ 105.5842018, 56.7937383 ], [ 105.5848682, 56.7936642 ], [ 105.5853028, 56.7936431 ], [ 105.5857858, 56.793696 ], [ 105.5858244, 56.7940027 ] ] ] ] } },
{ "type": "Feature", "properties": { "type": 1 }, "geometry": { "type": "MultiPolygon", "coordinates": [ [ [ [ 105.5790286, 56.8022825 ], [ 105.5790286, 56.8031531 ], [ 105.5776967, 56.8031606 ], [ 105.5776967, 56.8022825 ], [ 105.5790286, 56.8022825 ] ] ] ] } },
{ "type": "Feature", "properties": { "type": 1 }, "geometry": { "type": "MultiPolygon", "coordinates": [ [ [ [ 105.5998486, 56.7959915 ], [ 105.5992884, 56.7965839 ], [ 105.6007565, 56.7971446 ], [ 105.6012974, 56.7970071 ], [ 105.6015292, 56.7967849 ], [ 105.6013167, 56.796658 ], [ 105.6015292, 56.7964887 ], [ 105.6027268, 56.7968484 ], [ 105.6022439, 56.797335 ], [ 105.6028234, 56.7974408 ], [ 105.6033643, 56.7969965 ], [ 105.6060107, 56.7977898 ], [ 105.6054505, 56.7979908 ], [ 105.6050449, 56.798086 ], [ 105.6036734, 56.798086 ], [ 105.6022825, 56.7978639 ], [ 105.6011428, 56.7975677 ], [ 105.5998679, 56.7971446 ], [ 105.59896, 56.7966474 ], [ 105.5982259, 56.7962666 ], [ 105.5972601, 56.795653 ], [ 105.5975499, 56.7954097 ], [ 105.5968544, 56.7950501 ], [ 105.5998486, 56.7959915 ] ] ] ] } },
{ "type": "Feature", "properties": { "type": 1 }, "geometry": { "type": "MultiPolygon", "coordinates": [ [ [ [ 105.6117769, 56.798287 ], [ 105.6119411, 56.7979855 ], [ 105.6122405, 56.7978639 ], [ 105.6129938, 56.7976946 ], [ 105.6140949, 56.7976735 ], [ 105.6140949, 56.7979644 ], [ 105.6135347, 56.7980173 ], [ 105.6134768, 56.798324 ], [ 105.6117769, 56.798287 ] ] ] ] } },
{ "type": "Feature", "properties": { "type": 2 }, "geometry": { "type": "MultiPolygon", "coordinates": [ [ [ [ 105.5839603, 56.7995246 ], [ 105.5844722, 56.7988529 ], [ 105.5857954, 56.7991015 ], [ 105.5853511, 56.7998049 ], [ 105.5839603, 56.7995246 ] ] ] ] } },
{ "type": "Feature", "properties": { "type": null }, "geometry": { "type": "MultiPolygon", "coordinates": [ [ [ [ 105.6532868, 56.7674334 ], [ 105.6528136, 56.7667982 ], [ 105.65348, 56.7665336 ], [ 105.6535283, 56.76674 ], [ 105.6536345, 56.7666606 ], [ 105.653934, 56.7669941 ], [ 105.6535283, 56.7670947 ], [ 105.6536635, 56.7673487 ], [ 105.6532868, 56.7674334 ] ] ] ] } },
{ "type": "Feature", "properties": { "type": null }, "geometry": { "type": "MultiPolygon", "coordinates": [ [ [ [ 105.654726, 56.7678913 ], [ 105.6543782, 56.7674837 ], [ 105.6549578, 56.7673567 ], [ 105.6551992, 56.7677748 ], [ 105.654726, 56.7678913 ] ] ] ] } },
{ "type": "Feature", "properties": { "type": null }, "geometry": { "type": "MultiPolygon", "coordinates": [ [ [ [ 105.6458981, 56.7688493 ], [ 105.6469219, 56.7682936 ], [ 105.6471638, 56.7683659 ], [ 105.64749, 56.7684851 ], [ 105.6468273, 56.7687676 ], [ 105.6462669, 56.7689841 ], [ 105.6462458, 56.7688917 ], [ 105.6460719, 56.7689658 ], [ 105.6458981, 56.7688493 ] ] ] ] } },
{ "type": "Feature", "properties": { "type": null }, "geometry": { "type": "MultiPolygon", "coordinates": [ [ [ [ 105.6457773, 56.7654696 ], [ 105.6454441, 56.7652684 ], [ 105.6458546, 56.7650302 ], [ 105.6461878, 56.7652525 ], [ 105.6457773, 56.7654696 ] ] ] ] } },
{ "type": "Feature", "properties": { "type": null }, "geometry": { "type": "MultiPolygon", "coordinates": [ [ [ [ 105.643982, 56.7671538 ], [ 105.6439905, 56.7669279 ], [ 105.6440822, 56.7669041 ], [ 105.6442877, 56.7670383 ], [ 105.643982, 56.7671538 ] ] ] ] } },
{ "type": "Feature", "properties": { "type": null }, "geometry": { "type": "MultiPolygon", "coordinates": [ [ [ [ 105.6436283, 56.7667162 ], [ 105.6437394, 56.7665309 ], [ 105.643749, 56.7666738 ], [ 105.6436283, 56.7667162 ] ] ] ] } },
{ "type": "Feature", "properties": { "type": null }, "geometry": { "type": "MultiPolygon", "coordinates": [ [ [ [ 105.6504324, 56.7652609 ], [ 105.6499975, 56.7650021 ], [ 105.6512138, 56.7644993 ], [ 105.6513565, 56.7645738 ], [ 105.6517343, 56.7643842 ], [ 105.652004, 56.7645586 ], [ 105.6504324, 56.7652609 ] ] ] ] } },
{ "type": "Feature", "properties": { "type": null }, "geometry": { "type": "MultiPolygon", "coordinates": [ [ [ [ 105.6537891, 56.7639477 ], [ 105.653653, 56.7638311 ], [ 105.6539629, 56.7637147 ], [ 105.6540981, 56.7638418 ], [ 105.6537891, 56.7639477 ] ] ] ] } },
{ "type": "Feature", "properties": { "type": null }, "geometry": { "type": "MultiPolygon", "coordinates": [ [ [ [ 105.6541947, 56.7638285 ], [ 105.6540257, 56.7636936 ], [ 105.6542817, 56.7636247 ], [ 105.6544652, 56.76372 ], [ 105.6541947, 56.7638285 ] ] ] ] } },
{ "type": "Feature", "properties": { "type": null }, "geometry": { "type": "MultiPolygon", "coordinates": [ [ [ [ 105.6544797, 56.763683 ], [ 105.6544072, 56.7636353 ], [ 105.6546352, 56.7635161 ], [ 105.6549354, 56.7634235 ], [ 105.6552298, 56.7633373 ], [ 105.6552958, 56.7634289 ], [ 105.6544797, 56.763683 ] ] ] ] } },
{ "type": "Feature", "properties": { "type": null }, "geometry": { "type": "MultiPolygon", "coordinates": [ [ [ [ 105.6579055, 56.7619155 ], [ 105.658269, 56.7619006 ], [ 105.6584151, 56.7621678 ], [ 105.6585068, 56.7621725 ], [ 105.658568, 56.762355 ], [ 105.6581603, 56.7624667 ], [ 105.6580226, 56.762268 ], [ 105.6579055, 56.7619155 ] ] ] ] } },
{ "type": "Feature", "properties": { "type": null }, "geometry": { "type": "MultiPolygon", "coordinates": [ [ [ [ 105.6573772, 56.7644241 ], [ 105.6575897, 56.7643447 ], [ 105.657184, 56.7639953 ], [ 105.6578324, 56.7637982 ], [ 105.65806, 56.7639919 ], [ 105.6583624, 56.7638876 ], [ 105.6590691, 56.7644909 ], [ 105.6586363, 56.7646083 ], [ 105.6584236, 56.764666 ], [ 105.658517, 56.7647414 ], [ 105.6583141, 56.7648105 ], [ 105.6573772, 56.7644241 ] ] ] ] } },
{ "type": "Feature", "properties": { "type": null }, "geometry": { "type": "MultiPolygon", "coordinates": [ [ [ [ 105.6597387, 56.7660704 ], [ 105.6593624, 56.765266 ], [ 105.6593138, 56.7648211 ], [ 105.6621534, 56.7641541 ], [ 105.6624431, 56.7644929 ], [ 105.6622306, 56.7646305 ], [ 105.6621234, 56.7648823 ], [ 105.6622886, 56.7649693 ], [ 105.6618829, 56.7652975 ], [ 105.66225, 56.7657104 ], [ 105.6597387, 56.7660704 ] ] ] ] } },
{ "type": "Feature", "properties": { "type": null }, "geometry": { "type": "MultiPolygon", "coordinates": [ [ [ [ 105.6592317, 56.7666712 ], [ 105.6590192, 56.7663748 ], [ 105.6595743, 56.7662514 ], [ 105.6599126, 56.7661763 ], [ 105.6602651, 56.7661868 ], [ 105.6603955, 56.766425 ], [ 105.6592317, 56.7666712 ] ] ] ] } },
{ "type": "Feature", "properties": { "type": null }, "geometry": { "type": "MultiPolygon", "coordinates": [ [ [ [ 105.6480422, 56.7721468 ], [ 105.6483706, 56.7719562 ], [ 105.6486894, 56.7721362 ], [ 105.6487087, 56.7722209 ], [ 105.6488342, 56.7722897 ], [ 105.6486121, 56.7724114 ], [ 105.6480422, 56.7721468 ] ] ] ] } },
{ "type": "Feature", "properties": { "type": null }, "geometry": { "type": "MultiPolygon", "coordinates": [ [ [ [ 105.6430065, 56.7719331 ], [ 105.6433639, 56.7717372 ], [ 105.6434943, 56.7718166 ], [ 105.6430741, 56.771986 ], [ 105.6430065, 56.7719331 ] ] ] ] } },
{ "type": "Feature", "properties": { "type": null }, "geometry": { "type": "MultiPolygon", "coordinates": [ [ [ [ 105.643417, 56.7717214 ], [ 105.6438227, 56.7714858 ], [ 105.6440062, 56.7713138 ], [ 105.6442187, 56.7714356 ], [ 105.6440835, 56.7714938 ], [ 105.6439772, 56.771552 ], [ 105.6438565, 56.7716155 ], [ 105.6435184, 56.7717743 ], [ 105.643417, 56.7717214 ] ] ] ] } },
{ "type": "Feature", "properties": { "type": 2 }, "geometry": { "type": "MultiPolygon", "coordinates": [ [ [ [ 105.6583781, 56.7615211 ], [ 105.6583877, 56.7613252 ], [ 105.6576151, 56.7613199 ], [ 105.6576151, 56.7610869 ], [ 105.6575088, 56.7609281 ], [ 105.6573446, 56.7607852 ], [ 105.6571997, 56.7605575 ], [ 105.6590638, 56.7601869 ], [ 105.6590059, 56.760351 ], [ 105.6592184, 56.7603669 ], [ 105.659443, 56.7604848 ], [ 105.6591894, 56.7604993 ], [ 105.6591894, 56.7606422 ], [ 105.6591604, 56.7609546 ], [ 105.6592956, 56.7609599 ], [ 105.659286, 56.7611505 ], [ 105.6586872, 56.7611611 ], [ 105.6587161, 56.7612352 ], [ 105.6586775, 56.7614575 ], [ 105.6583781, 56.7615211 ] ] ] ] } },
{ "type": "Feature", "properties": { "type": 1 }, "geometry": { "type": "MultiPolygon", "coordinates": [ [ [ [ 105.6578511, 56.7602244 ], [ 105.6578171, 56.7601667 ], [ 105.6578987, 56.7600214 ], [ 105.6584185, 56.7599116 ], [ 105.658534, 56.7600792 ], [ 105.6578511, 56.7602244 ] ] ] ] } },
{ "type": "Feature", "properties": { "type": null }, "geometry": { "type": "MultiPolygon", "coordinates": [ [ [ [ 105.6640637, 56.7598101 ], [ 105.6639809, 56.7589521 ], [ 105.6653276, 56.7588267 ], [ 105.6651101, 56.7597728 ], [ 105.6640637, 56.7598101 ] ] ] ] } },
{ "type": "Feature", "properties": { "type": null }, "geometry": { "type": "MultiPolygon", "coordinates": [ [ [ [ 105.6605709, 56.7594376 ], [ 105.662285, 56.7590433 ], [ 105.6632482, 56.7590204 ], [ 105.6631832, 56.7594563 ], [ 105.6639957, 56.7594823 ], [ 105.6628133, 56.7596462 ], [ 105.6621338, 56.7598995 ], [ 105.6610359, 56.7598003 ], [ 105.6607, 56.7596536 ], [ 105.6605709, 56.7594376 ] ] ] ] } },
{ "type": "Feature", "properties": { "type": null }, "geometry": { "type": "MultiPolygon", "coordinates": [ [ [ [ 105.6638448, 56.7588342 ], [ 105.6635792, 56.7586145 ], [ 105.6640428, 56.7584398 ], [ 105.6640525, 56.7584027 ], [ 105.6641346, 56.7583921 ], [ 105.6645644, 56.7584398 ], [ 105.6644581, 56.7585854 ], [ 105.6644243, 56.7587892 ], [ 105.6638448, 56.7588342 ] ] ] ] } },
{ "type": "Feature", "properties": { "type": null }, "geometry": { "type": "MultiPolygon", "coordinates": [ [ [ [ 105.6692247, 56.7596462 ], [ 105.6693569, 56.759275 ], [ 105.6697945, 56.7593425 ], [ 105.6700537, 56.759445 ], [ 105.6697275, 56.7597505 ], [ 105.6692247, 56.7596462 ] ] ] ] } },
{ "type": "Feature", "properties": { "type": null }, "geometry": { "type": "MultiPolygon", "coordinates": [ [ [ [ 105.6749768, 56.7628 ], [ 105.6755205, 56.7622861 ], [ 105.6766621, 56.7625766 ], [ 105.6761185, 56.7631278 ], [ 105.6749768, 56.7628 ] ] ] ] } },
{ "type": "Feature", "properties": { "type": null }, "geometry": { "type": "MultiPolygon", "coordinates": [ [ [ [ 105.6743098, 56.7607269 ], [ 105.6761643, 56.7612034 ], [ 105.6760291, 56.7613411 ], [ 105.6757828, 56.761349 ], [ 105.6755365, 56.7613569 ], [ 105.6750439, 56.7612246 ], [ 105.6750342, 56.761124 ], [ 105.6741263, 56.7609069 ], [ 105.6743098, 56.7607269 ] ] ] ] } },
{ "type": "Feature", "properties": { "type": null }, "geometry": { "type": "MultiPolygon", "coordinates": [ [ [ [ 105.6793902, 56.7636228 ], [ 105.6797607, 56.763288 ], [ 105.6801919, 56.7634428 ], [ 105.6799697, 56.7636333 ], [ 105.6798828, 56.7636545 ], [ 105.6797959, 56.7637339 ], [ 105.6793902, 56.7636228 ] ] ] ] } },
{ "type": "Feature", "properties": { "type": null }, "geometry": { "type": "MultiPolygon", "coordinates": [ [ [ [ 105.6801339, 56.7636969 ], [ 105.6804044, 56.7635063 ], [ 105.6807424, 56.7636016 ], [ 105.6807424, 56.7637498 ], [ 105.6806875, 56.7638986 ], [ 105.6801339, 56.7636969 ] ] ] ] } },
{ "type": "Feature", "properties": { "type": 2 }, "geometry": { "type": "MultiPolygon", "coordinates": [ [ [ [ 105.7027017, 56.776783 ], [ 105.7029198, 56.776514 ], [ 105.7040485, 56.776884 ], [ 105.7046473, 56.7770639 ], [ 105.7044541, 56.7771645 ], [ 105.7040678, 56.7771645 ], [ 105.7027017, 56.776783 ] ] ] ] } },
{ "type": "Feature", "properties": { "type": 2 }, "geometry": { "type": "MultiPolygon", "coordinates": [ [ [ [ 105.7017208, 56.7777624 ], [ 105.7023486, 56.7773232 ], [ 105.7025031, 56.7773656 ], [ 105.7028508, 56.7773285 ], [ 105.7032565, 56.7772968 ], [ 105.7036814, 56.7773021 ], [ 105.7036718, 56.7774238 ], [ 105.703382, 56.7776989 ], [ 105.7031339, 56.7781336 ], [ 105.7028145, 56.7782788 ], [ 105.7017208, 56.7777624 ] ] ] ] } },
{ "type": "Feature", "properties": { "type": null }, "geometry": { "type": "MultiPolygon", "coordinates": [ [ [ [ 105.725133, 56.7780641 ], [ 105.725133, 56.777609 ], [ 105.7253842, 56.7773867 ], [ 105.7258478, 56.777228 ], [ 105.7265164, 56.7771991 ], [ 105.7265436, 56.7773704 ], [ 105.7272842, 56.7774337 ], [ 105.7270261, 56.7779159 ], [ 105.7262341, 56.7778418 ], [ 105.7257126, 56.778117 ], [ 105.725133, 56.7780641 ] ] ] ] } },
{ "type": "Feature", "properties": { "type": null }, "geometry": { "type": "MultiPolygon", "coordinates": [ [ [ [ 105.7292138, 56.7784292 ], [ 105.7292427, 56.7782175 ], [ 105.7297691, 56.7782202 ], [ 105.7297643, 56.77799 ], [ 105.7300251, 56.7780217 ], [ 105.7298995, 56.778461 ], [ 105.7292138, 56.7784292 ] ] ] ] } },
{ "type": "Feature", "properties": { "type": null }, "geometry": { "type": "MultiPolygon", "coordinates": [ [ [ [ 105.7273835, 56.7774158 ], [ 105.727359, 56.7772438 ], [ 105.7272978, 56.7770986 ], [ 105.7281224, 56.7771221 ], [ 105.7281417, 56.7772438 ], [ 105.728359, 56.7772412 ], [ 105.7284507, 56.7772121 ], [ 105.7289192, 56.7772544 ], [ 105.7300299, 56.7773126 ], [ 105.7299623, 56.7778048 ], [ 105.7297788, 56.7777254 ], [ 105.7296822, 56.7777704 ], [ 105.7287743, 56.7776831 ], [ 105.7288033, 56.7775005 ], [ 105.7283735, 56.7775084 ], [ 105.7282962, 56.7775534 ], [ 105.7278761, 56.7775508 ], [ 105.7278664, 56.7774714 ], [ 105.7273835, 56.7774158 ] ] ] ] } },
{ "type": "Feature", "properties": { "type": null }, "geometry": { "type": "MultiPolygon", "coordinates": [ [ [ [ 105.7301458, 56.7784887 ], [ 105.73031, 56.7780019 ], [ 105.7306964, 56.7780178 ], [ 105.7309861, 56.7780601 ], [ 105.7314401, 56.7780601 ], [ 105.731952, 56.7780919 ], [ 105.7319037, 56.7781871 ], [ 105.7317008, 56.7786634 ], [ 105.7315173, 56.7786634 ], [ 105.7311406, 56.7785893 ], [ 105.7305998, 56.7784993 ], [ 105.7301458, 56.7784887 ] ] ] ] } },
{ "type": "Feature", "properties": { "type": null }, "geometry": { "type": "MultiPolygon", "coordinates": [ [ [ [ 105.7304935, 56.777859 ], [ 105.7305805, 56.7772346 ], [ 105.7308509, 56.7772134 ], [ 105.7315463, 56.7772293 ], [ 105.7321645, 56.7772663 ], [ 105.7320968, 56.7778696 ], [ 105.7304935, 56.777859 ] ] ] ] } },
{ "type": "Feature", "properties": { "type": null }, "geometry": { "type": "MultiPolygon", "coordinates": [ [ [ [ 105.7323431, 56.7777466 ], [ 105.7323552, 56.777519 ], [ 105.7326643, 56.7775349 ], [ 105.732645, 56.7776884 ], [ 105.7324445, 56.7776831 ], [ 105.7324325, 56.7777505 ], [ 105.7323431, 56.7777466 ] ] ] ] } },
{ "type": "Feature", "properties": { "type": null }, "geometry": { "type": "MultiPolygon", "coordinates": [ [ [ [ 105.7379936, 56.7781233 ], [ 105.7391352, 56.7781606 ], [ 105.7398419, 56.7782648 ], [ 105.7397641, 56.7784388 ], [ 105.7395157, 56.7789945 ], [ 105.7378305, 56.7786967 ], [ 105.7379936, 56.7781233 ] ] ] ] } },
{ "type": "Feature", "properties": { "type": null }, "geometry": { "type": "MultiPolygon", "coordinates": [ [ [ [ 105.7411034, 56.7800881 ], [ 105.7414222, 56.7794108 ], [ 105.7428216, 56.7795697 ], [ 105.7426857, 56.7798378 ], [ 105.7427261, 56.7799108 ], [ 105.7427537, 56.7803366 ], [ 105.7411034, 56.7800881 ] ] ] ] } },
{ "type": "Feature", "properties": { "type": null }, "geometry": { "type": "MultiPolygon", "coordinates": [ [ [ [ 105.7430931, 56.7787308 ], [ 105.7430907, 56.7785165 ], [ 105.7424242, 56.7784967 ], [ 105.7425667, 56.7782704 ], [ 105.7435036, 56.7783948 ], [ 105.7432669, 56.7787388 ], [ 105.7430931, 56.7787308 ] ] ] ] } },
{ "type": "Feature", "properties": { "type": null }, "geometry": { "type": "MultiPolygon", "coordinates": [ [ [ [ 105.7436798, 56.7784543 ], [ 105.7437088, 56.7783062 ], [ 105.7439696, 56.7783115 ], [ 105.7438923, 56.7784808 ], [ 105.7436798, 56.7784543 ] ] ] ] } },
{ "type": "Feature", "properties": { "type": null }, "geometry": { "type": "MultiPolygon", "coordinates": [ [ [ [ 105.7451673, 56.7806662 ], [ 105.7451728, 56.7805898 ], [ 105.7454517, 56.780573 ], [ 105.7457661, 56.7805577 ], [ 105.7457468, 56.7807403 ], [ 105.7451673, 56.7806662 ] ] ] ] } },
{ "type": "Feature", "properties": { "type": null }, "geometry": { "type": "MultiPolygon", "coordinates": [ [ [ [ 105.7456647, 56.7797376 ], [ 105.7458627, 56.779219 ], [ 105.7461331, 56.7792349 ], [ 105.7460945, 56.7793936 ], [ 105.746307, 56.779473 ], [ 105.7461283, 56.779809 ], [ 105.7456647, 56.7797376 ] ] ] ] } },
{ "type": "Feature", "properties": { "type": null }, "geometry": { "type": "MultiPolygon", "coordinates": [ [ [ [ 105.7483801, 56.779553 ], [ 105.7483618, 56.7793936 ], [ 105.7492963, 56.7795206 ], [ 105.749446, 56.7795576 ], [ 105.7497671, 56.7795934 ], [ 105.7497528, 56.7796293 ], [ 105.7495285, 56.7796237 ], [ 105.749481, 56.7796944 ], [ 105.7483801, 56.779553 ] ] ] ] } },
{ "type": "Feature", "properties": { "type": null }, "geometry": { "type": "MultiPolygon", "coordinates": [ [ [ [ 105.7510831, 56.7797852 ], [ 105.7514212, 56.7798222 ], [ 105.7514153, 56.780009 ], [ 105.7509895, 56.7799345 ], [ 105.7510831, 56.7797852 ] ] ] ] } },
{ "type": "Feature", "properties": { "type": null }, "geometry": { "type": "MultiPolygon", "coordinates": [ [ [ [ 105.7492576, 56.7808488 ], [ 105.7491128, 56.7808488 ], [ 105.748881, 56.7807112 ], [ 105.7489969, 56.7804149 ], [ 105.7492432, 56.7804254 ], [ 105.7494894, 56.780436 ], [ 105.7497889, 56.780526 ], [ 105.7492673, 56.7805154 ], [ 105.7492576, 56.7808488 ] ] ] ] } },
{ "type": "Feature", "properties": { "type": null }, "geometry": { "type": "MultiPolygon", "coordinates": [ [ [ [ 105.7500883, 56.780981 ], [ 105.7502718, 56.7806424 ], [ 105.7507451, 56.7806265 ], [ 105.751257, 56.78069 ], [ 105.7513729, 56.7807905 ], [ 105.7511797, 56.7811239 ], [ 105.7500883, 56.780981 ] ] ] ] } },
{ "type": "Feature", "properties": { "type": null }, "geometry": { "type": "MultiPolygon", "coordinates": [ [ [ [ 105.7477243, 56.7815075 ], [ 105.7477823, 56.7813805 ], [ 105.7489027, 56.7815446 ], [ 105.7487482, 56.7817615 ], [ 105.7478982, 56.7816239 ], [ 105.7477243, 56.7815075 ] ] ] ] } },
{ "type": "Feature", "properties": { "type": null }, "geometry": { "type": "MultiPolygon", "coordinates": [ [ [ [ 105.7522928, 56.7816398 ], [ 105.752754, 56.7804982 ], [ 105.755328, 56.7809189 ], [ 105.7564822, 56.7810538 ], [ 105.7575253, 56.7811914 ], [ 105.7578779, 56.781239 ], [ 105.757989, 56.781276 ], [ 105.7577566, 56.781721 ], [ 105.7574143, 56.7816557 ], [ 105.7571028, 56.7816133 ], [ 105.7570545, 56.7815657 ], [ 105.7563108, 56.7814705 ], [ 105.7559534, 56.7813541 ], [ 105.7555574, 56.782079 ], [ 105.7548427, 56.7819679 ], [ 105.7537609, 56.7818303 ], [ 105.7522928, 56.7816398 ] ] ] ] } },
{ "type": "Feature", "properties": { "type": null }, "geometry": { "type": "MultiPolygon", "coordinates": [ [ [ [ 105.7530728, 56.7799849 ], [ 105.7558641, 56.7802654 ], [ 105.7576847, 56.7804479 ], [ 105.7576944, 56.7807892 ], [ 105.7578151, 56.7808157 ], [ 105.7576992, 56.7810115 ], [ 105.7569265, 56.7809215 ], [ 105.7560379, 56.7807892 ], [ 105.7545698, 56.7806411 ], [ 105.7536909, 56.7805088 ], [ 105.7534205, 56.7803977 ], [ 105.7529086, 56.7803183 ], [ 105.7530728, 56.7799849 ] ] ] ] } },
{ "type": "Feature", "properties": { "type": null }, "geometry": { "type": "MultiPolygon", "coordinates": [ [ [ [ 105.7604953, 56.7807072 ], [ 105.760138, 56.7813951 ], [ 105.7590419, 56.7812394 ], [ 105.7592322, 56.7809639 ], [ 105.7590011, 56.7808969 ], [ 105.7592301, 56.7805273 ], [ 105.7604953, 56.7807072 ] ] ] ] } },
{ "type": "Feature", "properties": { "type": null }, "geometry": { "type": "MultiPolygon", "coordinates": [ [ [ [ 105.7598579, 56.7830988 ], [ 105.7598241, 56.7831914 ], [ 105.7609976, 56.783366 ], [ 105.7608732, 56.7837019 ], [ 105.7596863, 56.7835033 ], [ 105.7593783, 56.7833991 ], [ 105.7590883, 56.7830628 ], [ 105.7591142, 56.7830195 ], [ 105.7598579, 56.7830988 ] ] ] ] } },
{ "type": "Feature", "properties": { "type": null }, "geometry": { "type": "MultiPolygon", "coordinates": [ [ [ [ 105.7609203, 56.7840195 ], [ 105.7611425, 56.7833687 ], [ 105.7615674, 56.7834375 ], [ 105.7612873, 56.7840618 ], [ 105.7609203, 56.7840195 ] ] ] ] } },
{ "type": "Feature", "properties": { "type": null }, "geometry": { "type": "MultiPolygon", "coordinates": [ [ [ [ 105.7635764, 56.783575 ], [ 105.7636593, 56.7836324 ], [ 105.7632878, 56.7839302 ], [ 105.762409, 56.7839699 ], [ 105.7624905, 56.7835927 ], [ 105.762418, 56.7835406 ], [ 105.7626009, 56.7834269 ], [ 105.7630645, 56.7834798 ], [ 105.7635764, 56.783575 ] ] ] ] } },
{ "type": "Feature", "properties": { "type": null }, "geometry": { "type": "MultiPolygon", "coordinates": [ [ [ [ 105.7650727, 56.7839252 ], [ 105.7654309, 56.7843078 ], [ 105.7651556, 56.7843184 ], [ 105.7651025, 56.7844956 ], [ 105.7649277, 56.784491 ], [ 105.7650727, 56.7839252 ] ] ] ] } },
{ "type": "Feature", "properties": { "type": null }, "geometry": { "type": "MultiPolygon", "coordinates": [ [ [ [ 105.764127, 56.7852946 ], [ 105.7648803, 56.7849454 ], [ 105.7656916, 56.7847813 ], [ 105.7659621, 56.7850723 ], [ 105.7653632, 56.7851993 ], [ 105.7648803, 56.7853686 ], [ 105.7646002, 56.7854533 ], [ 105.7642235, 56.7853686 ], [ 105.764127, 56.7852946 ] ] ] ] } },
{ "type": "Feature", "properties": { "type": null }, "geometry": { "type": "MultiPolygon", "coordinates": [ [ [ [ 105.7527589, 56.789183 ], [ 105.7542076, 56.7886963 ], [ 105.7545747, 56.7886752 ], [ 105.755129, 56.7889315 ], [ 105.7534736, 56.7899766 ], [ 105.7528941, 56.7897015 ], [ 105.7527589, 56.789183 ] ] ] ] } },
{ "type": "Feature", "properties": { "type": null }, "geometry": { "type": "MultiPolygon", "coordinates": [ [ [ [ 105.7510783, 56.7870881 ], [ 105.7514839, 56.7867918 ], [ 105.7521021, 56.7868976 ], [ 105.7515419, 56.7873208 ], [ 105.7510783, 56.7870881 ] ] ] ] } },
{ "type": "Feature", "properties": { "type": null }, "geometry": { "type": "MultiPolygon", "coordinates": [ [ [ [ 105.746901, 56.7876541 ], [ 105.7479384, 56.7879024 ], [ 105.7475035, 56.7883342 ], [ 105.747354, 56.7883044 ], [ 105.7473269, 56.7883639 ], [ 105.7463891, 56.788088 ], [ 105.746901, 56.7876541 ] ] ] ] } },
{ "type": "Feature", "properties": { "type": null }, "geometry": { "type": "MultiPolygon", "coordinates": [ [ [ [ 105.7872543, 56.773452 ], [ 105.7898428, 56.773325 ], [ 105.7900746, 56.7787229 ], [ 105.788027, 56.7791039 ], [ 105.7872543, 56.773452 ] ] ] ] } },
{ "type": "Feature", "properties": { "type": null }, "geometry": { "type": "MultiPolygon", "coordinates": [ [ [ [ 105.7866748, 56.7804479 ], [ 105.787969, 56.7797389 ], [ 105.7898042, 56.7807337 ], [ 105.7882202, 56.7812628 ], [ 105.7866748, 56.7804479 ], [ 105.7866748, 56.7804479 ] ] ] ] } },
{ "type": "Feature", "properties": { "type": null }, "geometry": { "type": "MultiPolygon", "coordinates": [ [ [ [ 105.791929, 56.7832205 ], [ 105.7921222, 56.7826491 ], [ 105.7933971, 56.7827232 ], [ 105.7933199, 56.7833263 ], [ 105.791929, 56.7832205 ] ] ] ] } },
{ "type": "Feature", "properties": { "type": null }, "geometry": { "type": "MultiPolygon", "coordinates": [ [ [ [ 105.7933199, 56.7833263 ], [ 105.7933971, 56.7827232 ], [ 105.7953095, 56.782866 ], [ 105.7951743, 56.783374 ], [ 105.7948749, 56.7833316 ], [ 105.7948266, 56.7834375 ], [ 105.7933199, 56.7833263 ] ] ] ] } },
{ "type": "Feature", "properties": { "type": null }, "geometry": { "type": "MultiPolygon", "coordinates": [ [ [ [ 105.7918228, 56.7848925 ], [ 105.7914244, 56.7843184 ], [ 105.7919459, 56.7842126 ], [ 105.7922357, 56.784202 ], [ 105.792709, 56.7842232 ], [ 105.7925737, 56.784784 ], [ 105.7923733, 56.7847761 ], [ 105.7918228, 56.7848925 ] ] ] ] } },
{ "type": "Feature", "properties": { "type": null }, "geometry": { "type": "MultiPolygon", "coordinates": [ [ [ [ 105.78674, 56.7855564 ], [ 105.7877445, 56.7852707 ], [ 105.7891063, 56.7846676 ], [ 105.78985, 56.7840115 ], [ 105.7906517, 56.7838316 ], [ 105.7914727, 56.7850168 ], [ 105.7911926, 56.7851067 ], [ 105.7908738, 56.7853025 ], [ 105.7904778, 56.7857469 ], [ 105.78674, 56.7855564 ] ] ] ] } },
{ "type": "Feature", "properties": { "type": null }, "geometry": { "type": "MultiPolygon", "coordinates": [ [ [ [ 105.7908256, 56.7857469 ], [ 105.7910863, 56.7854612 ], [ 105.7915982, 56.7851649 ], [ 105.7917528, 56.7853554 ], [ 105.7919846, 56.7855141 ], [ 105.7925255, 56.785694 ], [ 105.7925448, 56.7857469 ], [ 105.7923323, 56.7857998 ], [ 105.7908256, 56.7857469 ] ] ] ] } },
{ "type": "Feature", "properties": { "type": null }, "geometry": { "type": "MultiPolygon", "coordinates": [ [ [ [ 105.7908787, 56.7858448 ], [ 105.791888, 56.7858712 ], [ 105.7924627, 56.7858607 ], [ 105.7928683, 56.7857734 ], [ 105.7935637, 56.7860538 ], [ 105.7933513, 56.7862151 ], [ 105.7929311, 56.7860564 ], [ 105.7924627, 56.7859744 ], [ 105.7920087, 56.7859215 ], [ 105.7908594, 56.7859294 ], [ 105.7908787, 56.7858448 ] ] ] ] } },
{ "type": "Feature", "properties": { "type": null }, "geometry": { "type": "MultiPolygon", "coordinates": [ [ [ [ 105.7971871, 56.7851313 ], [ 105.7972687, 56.7843421 ], [ 105.800035, 56.7844533 ], [ 105.7998804, 56.7852522 ], [ 105.7971871, 56.7851313 ] ] ] ] } },
{ "type": "Feature", "properties": { "type": null }, "geometry": { "type": "MultiPolygon", "coordinates": [ [ [ [ 105.7763136, 56.7813726 ], [ 105.7784288, 56.7808435 ], [ 105.7791725, 56.7816636 ], [ 105.7782743, 56.7819229 ], [ 105.7782163, 56.7818382 ], [ 105.7770477, 56.7821769 ], [ 105.7766323, 56.7816424 ], [ 105.7763136, 56.7813726 ] ] ] ] } },
{ "type": "Feature", "properties": { "type": null }, "geometry": { "type": "MultiPolygon", "coordinates": [ [ [ [ 105.7790373, 56.786145 ], [ 105.7794752, 56.7864131 ], [ 105.7792498, 56.7865118 ], [ 105.778857, 56.7862685 ], [ 105.7790373, 56.786145 ] ] ] ] } },
{ "type": "Feature", "properties": { "type": null }, "geometry": { "type": "MultiPolygon", "coordinates": [ [ [ [ 105.7802865, 56.7862015 ], [ 105.7807565, 56.7864484 ], [ 105.7805891, 56.7865401 ], [ 105.7801706, 56.7862861 ], [ 105.7802865, 56.7862015 ] ] ] ] } },
{ "type": "Feature", "properties": { "type": null }, "geometry": { "type": "MultiPolygon", "coordinates": [ [ [ [ 105.780969, 56.786526 ], [ 105.7815614, 56.7868575 ], [ 105.7813682, 56.7869739 ], [ 105.7807694, 56.7866318 ], [ 105.780969, 56.786526 ] ] ] ] } },
{ "type": "Feature", "properties": { "type": null }, "geometry": { "type": "MultiPolygon", "coordinates": [ [ [ [ 105.7827526, 56.7864801 ], [ 105.7838666, 56.7871291 ], [ 105.7832484, 56.7874923 ], [ 105.7820508, 56.7868363 ], [ 105.7827526, 56.7864801 ] ] ] ] } },
{ "type": "Feature", "properties": { "type": null }, "geometry": { "type": "MultiPolygon", "coordinates": [ [ [ [ 105.7839245, 56.7899717 ], [ 105.7842658, 56.7896261 ], [ 105.7846006, 56.7897107 ], [ 105.7844654, 56.7899012 ], [ 105.784665, 56.78994 ], [ 105.7844912, 56.7901057 ], [ 105.7842916, 56.7900493 ], [ 105.7839245, 56.7899717 ] ] ] ] } },
{ "type": "Feature", "properties": { "type": null }, "geometry": { "type": "MultiPolygon", "coordinates": [ [ [ [ 105.7872117, 56.7887315 ], [ 105.7879232, 56.7878415 ], [ 105.7880519, 56.7878415 ], [ 105.7889277, 56.788106 ], [ 105.789211, 56.7882259 ], [ 105.7897132, 56.7885046 ], [ 105.7899257, 56.7887127 ], [ 105.7895604, 56.789196 ], [ 105.7883881, 56.7889653 ], [ 105.7872117, 56.7887315 ] ] ] ] } },
{ "type": "Feature", "properties": { "type": null }, "geometry": { "type": "MultiPolygon", "coordinates": [ [ [ [ 105.7910525, 56.7891041 ], [ 105.7911427, 56.7889983 ], [ 105.7913616, 56.7890406 ], [ 105.7912843, 56.7891429 ], [ 105.7910525, 56.7891041 ] ] ] ] } },
{ "type": "Feature", "properties": { "type": null }, "geometry": { "type": "MultiPolygon", "coordinates": [ [ [ [ 105.7907306, 56.7887409 ], [ 105.7910783, 56.7880038 ], [ 105.7910783, 56.7880038 ], [ 105.7919683, 56.7881583 ], [ 105.7915773, 56.7888754 ], [ 105.7907306, 56.7887409 ] ] ] ] } },
{ "type": "Feature", "properties": { "type": null }, "geometry": { "type": "MultiPolygon", "coordinates": [ [ [ [ 105.7943807, 56.7913824 ], [ 105.7941768, 56.7912409 ], [ 105.794503, 56.7909134 ], [ 105.7946932, 56.7905412 ], [ 105.7959164, 56.7906976 ], [ 105.7956989, 56.7911256 ], [ 105.795386, 56.7915658 ], [ 105.7943807, 56.7913824 ] ] ] ] } },
{ "type": "Feature", "properties": { "type": null }, "geometry": { "type": "MultiPolygon", "coordinates": [ [ [ [ 105.7654928, 56.7893969 ], [ 105.7659693, 56.7888114 ], [ 105.7664329, 56.7888819 ], [ 105.7664072, 56.7889454 ], [ 105.766845, 56.7889313 ], [ 105.766845, 56.7891535 ], [ 105.7664909, 56.7891711 ], [ 105.766536, 56.7893052 ], [ 105.7670961, 56.7897531 ], [ 105.7665746, 56.7900669 ], [ 105.7654928, 56.7893969 ] ] ] ] } },
{ "type": "Feature", "properties": { "type": null }, "geometry": { "type": "MultiPolygon", "coordinates": [ [ [ [ 105.7684033, 56.79213 ], [ 105.7691824, 56.7917068 ], [ 105.7701547, 56.7920842 ], [ 105.7704895, 56.7922675 ], [ 105.7698134, 56.7928212 ], [ 105.7684033, 56.79213 ] ] ] ] } },
{ "type": "Feature", "properties": { "type": null }, "geometry": { "type": "MultiPolygon", "coordinates": [ [ [ [ 105.7697395, 56.7913406 ], [ 105.7704817, 56.7915232 ], [ 105.7712171, 56.790968 ], [ 105.7719088, 56.7910019 ], [ 105.7721121, 56.7911073 ], [ 105.772447, 56.7913542 ], [ 105.7729363, 56.7914035 ], [ 105.7724599, 56.7919819 ], [ 105.7722602, 56.7920171 ], [ 105.7716936, 56.7919078 ], [ 105.7713395, 56.7918197 ], [ 105.7712364, 56.7919325 ], [ 105.7704895, 56.7917562 ], [ 105.7702706, 56.7916927 ], [ 105.7698971, 56.7915658 ], [ 105.7696975, 56.7914212 ], [ 105.7697395, 56.7913406 ] ] ] ] } },
{ "type": "Feature", "properties": { "type": null }, "geometry": { "type": "MultiPolygon", "coordinates": [ [ [ [ 105.7734354, 56.7901604 ], [ 105.7738732, 56.7898783 ], [ 105.7742724, 56.7897724 ], [ 105.7746717, 56.7897442 ], [ 105.7756504, 56.7901181 ], [ 105.7757148, 56.7906964 ], [ 105.774208, 56.7903367 ], [ 105.7738088, 56.7903226 ], [ 105.7734354, 56.7901604 ] ] ] ] } },
{ "type": "Feature", "properties": { "type": null }, "geometry": { "type": "MultiPolygon", "coordinates": [ [ [ [ 105.7728043, 56.7919519 ], [ 105.7738454, 56.7907087 ], [ 105.7746064, 56.790865 ], [ 105.7747288, 56.7906715 ], [ 105.7755731, 56.7908587 ], [ 105.7769124, 56.7911937 ], [ 105.7763587, 56.791832 ], [ 105.7767064, 56.7919096 ], [ 105.7759981, 56.7926078 ], [ 105.7749035, 56.7923116 ], [ 105.7747103, 56.7924033 ], [ 105.7736028, 56.7922199 ], [ 105.7734354, 56.7920648 ], [ 105.7728043, 56.7919519 ] ] ] ] } },
{ "type": "Feature", "properties": { "type": null }, "geometry": { "type": "MultiPolygon", "coordinates": [ [ [ [ 105.7678914, 56.79289 ], [ 105.7676481, 56.7930822 ], [ 105.7670909, 56.7928775 ], [ 105.7672402, 56.7927439 ], [ 105.7678914, 56.79289 ] ] ] ] } },
{ "type": "Feature", "properties": { "type": null }, "geometry": { "type": "MultiPolygon", "coordinates": [ [ [ [ 105.7676467, 56.7933343 ], [ 105.7682133, 56.7929922 ], [ 105.7686769, 56.7931721 ], [ 105.768355, 56.7933484 ], [ 105.7682326, 56.7934894 ], [ 105.7676467, 56.7933343 ] ] ] ] } },
{ "type": "Feature", "properties": { "type": null }, "geometry": { "type": "MultiPolygon", "coordinates": [ [ [ [ 105.7715874, 56.7934542 ], [ 105.7720381, 56.7925514 ], [ 105.7728108, 56.7926784 ], [ 105.7726562, 56.7933131 ], [ 105.7729396, 56.7933695 ], [ 105.7730555, 56.7927701 ], [ 105.7734289, 56.792636 ], [ 105.7745364, 56.792763 ], [ 105.7746523, 56.7932285 ], [ 105.7745107, 56.7937081 ], [ 105.7748841, 56.7938139 ], [ 105.7760239, 56.7940078 ], [ 105.7767579, 56.7941559 ], [ 105.7771829, 56.7939302 ], [ 105.7775352, 56.7939056 ], [ 105.7776439, 56.7937939 ], [ 105.778371, 56.7939614 ], [ 105.7783031, 56.7940879 ], [ 105.7787652, 56.7941884 ], [ 105.7787855, 56.794475 ], [ 105.7782555, 56.7950629 ], [ 105.7757534, 56.7945579 ], [ 105.7744077, 56.7942934 ], [ 105.7736865, 56.7942159 ], [ 105.772785, 56.793969 ], [ 105.7720123, 56.7937222 ], [ 105.7715874, 56.7934542 ] ] ] ] } },
{ "type": "Feature", "properties": { "type": null }, "geometry": { "type": "MultiPolygon", "coordinates": [ [ [ [ 105.767138, 56.7884428 ], [ 105.7671895, 56.788136 ], [ 105.7673827, 56.7881043 ], [ 105.767402, 56.7884323 ], [ 105.767138, 56.7884428 ] ] ] ] } },
{ "type": "Feature", "properties": { "type": null }, "geometry": { "type": "MultiPolygon", "coordinates": [ [ [ [ 105.7793563, 56.7951895 ], [ 105.779601, 56.7949438 ], [ 105.7799, 56.7950257 ], [ 105.7796825, 56.7952862 ], [ 105.7793563, 56.7951895 ] ] ] ] } },
{ "type": "Feature", "properties": { "type": null }, "geometry": { "type": "MultiPolygon", "coordinates": [ [ [ [ 105.7800495, 56.7954946 ], [ 105.7805387, 56.7948545 ], [ 105.7812318, 56.7949885 ], [ 105.780763, 56.795644 ], [ 105.7800495, 56.7954946 ] ] ] ] } },
{ "type": "Feature", "properties": { "type": null }, "geometry": { "type": "MultiPolygon", "coordinates": [ [ [ [ 105.7819993, 56.7940854 ], [ 105.7828235, 56.7929076 ], [ 105.7831583, 56.7929076 ], [ 105.7839438, 56.7930345 ], [ 105.7838795, 56.7931544 ], [ 105.7836477, 56.7931615 ], [ 105.7833386, 56.7934154 ], [ 105.7831325, 56.7937257 ], [ 105.7834879, 56.793766 ], [ 105.7832296, 56.7942275 ], [ 105.7826818, 56.7942335 ], [ 105.7819993, 56.7940854 ] ] ] ] } },
{ "type": "Feature", "properties": { "type": null }, "geometry": { "type": "MultiPolygon", "coordinates": [ [ [ [ 105.7839503, 56.793835 ], [ 105.7840984, 56.7936763 ], [ 105.784723, 56.7938174 ], [ 105.7846161, 56.7939955 ], [ 105.7839503, 56.793835 ] ] ] ] } },
{ "type": "Feature", "properties": { "type": null }, "geometry": { "type": "MultiPolygon", "coordinates": [ [ [ [ 105.7841241, 56.7936199 ], [ 105.783403, 56.7934683 ], [ 105.7836477, 56.7931615 ], [ 105.7838279, 56.7932109 ], [ 105.7838683, 56.7931548 ], [ 105.7838795, 56.7931544 ], [ 105.7839117, 56.7930945 ], [ 105.7839117, 56.7930945 ], [ 105.7843624, 56.7932602 ], [ 105.7842916, 56.7934542 ], [ 105.7841241, 56.7936199 ] ] ] ] } },
{ "type": "Feature", "properties": { "type": null }, "geometry": { "type": "MultiPolygon", "coordinates": [ [ [ [ 105.7776658, 56.8040883 ], [ 105.7789333, 56.8028146 ], [ 105.7835382, 56.8039049 ], [ 105.7835382, 56.8045818 ], [ 105.7839245, 56.804751 ], [ 105.78377, 56.8049978 ], [ 105.7834094, 56.8049484 ], [ 105.7831518, 56.8053151 ], [ 105.7827655, 56.8052234 ], [ 105.7824822, 56.8053644 ], [ 105.7821087, 56.8053997 ], [ 105.7815421, 56.8054138 ], [ 105.7811042, 56.805301 ], [ 105.7809883, 56.8053433 ], [ 105.7776658, 56.8040883 ] ] ] ] } },
{ "type": "Feature", "properties": { "type": null }, "geometry": { "type": "MultiPolygon", "coordinates": [ [ [ [ 105.7837378, 56.8055407 ], [ 105.7840276, 56.8048674 ], [ 105.7855858, 56.8050895 ], [ 105.7852767, 56.8057628 ], [ 105.7837378, 56.8055407 ] ] ] ] } },
{ "type": "Feature", "properties": { "type": null }, "geometry": { "type": "MultiPolygon", "coordinates": [ [ [ [ 105.7845749, 56.8025723 ], [ 105.7854377, 56.8013525 ], [ 105.7861846, 56.8015393 ], [ 105.7869316, 56.8017262 ], [ 105.7860344, 56.8029336 ], [ 105.7845749, 56.8025723 ] ] ] ] } },
{ "type": "Feature", "properties": { "type": null }, "geometry": { "type": "MultiPolygon", "coordinates": [ [ [ [ 105.7911813, 56.802812 ], [ 105.7909431, 56.8027503 ], [ 105.7908851, 56.8028103 ], [ 105.7907885, 56.8027786 ], [ 105.7905954, 56.8029337 ], [ 105.7900674, 56.8028173 ], [ 105.7899965, 56.8028702 ], [ 105.7898356, 56.802842 ], [ 105.7898871, 56.802768 ], [ 105.7896231, 56.802701 ], [ 105.7896037, 56.8025811 ], [ 105.7892367, 56.8024895 ], [ 105.7892754, 56.8024048 ], [ 105.7890693, 56.8023661 ], [ 105.7887055, 56.8021528 ], [ 105.7886121, 56.8022162 ], [ 105.7883389, 56.8018595 ], [ 105.7883739, 56.8013807 ], [ 105.7880906, 56.8011268 ], [ 105.7889933, 56.7997445 ], [ 105.7896166, 56.8004675 ], [ 105.790209, 56.8011162 ], [ 105.790531, 56.8015182 ], [ 105.7908916, 56.801631 ], [ 105.7916192, 56.8018249 ], [ 105.7924691, 56.8021845 ], [ 105.7918638, 56.802731 ], [ 105.7914839, 56.8028967 ], [ 105.7914196, 56.8028896 ], [ 105.791323, 56.8029284 ], [ 105.791162, 56.8028896 ], [ 105.7911813, 56.802812 ] ] ] ] } },
{ "type": "Feature", "properties": { "type": null }, "geometry": { "type": "MultiPolygon", "coordinates": [ [ [ [ 105.7904022, 56.8007125 ], [ 105.7894106, 56.7994433 ], [ 105.7891015, 56.799133 ], [ 105.7887667, 56.7990343 ], [ 105.7893076, 56.7983573 ], [ 105.7894621, 56.7983855 ], [ 105.7895394, 56.7982727 ], [ 105.7909817, 56.7986676 ], [ 105.7904022, 56.7993939 ], [ 105.7905532, 56.7994176 ], [ 105.7908522, 56.7995292 ], [ 105.7906755, 56.7997227 ], [ 105.7911516, 56.7998576 ], [ 105.7924355, 56.8002287 ], [ 105.7920958, 56.8006157 ], [ 105.7915483, 56.8007125 ], [ 105.7914839, 56.8009241 ], [ 105.7920635, 56.8011145 ], [ 105.791896, 56.8014459 ], [ 105.7915741, 56.8014459 ], [ 105.7913423, 56.8014318 ], [ 105.7908916, 56.8012767 ], [ 105.7904022, 56.8007125 ] ] ] ] } },
{ "type": "Feature", "properties": { "type": null }, "geometry": { "type": "MultiPolygon", "coordinates": [ [ [ [ 105.7893046, 56.7973384 ], [ 105.790003, 56.7967565 ], [ 105.7915878, 56.7971822 ], [ 105.7910986, 56.7977999 ], [ 105.7905142, 56.7976808 ], [ 105.7896172, 56.7974501 ], [ 105.7893046, 56.7973384 ] ] ] ] } },
{ "type": "Feature", "properties": { "type": null }, "geometry": { "type": "MultiPolygon", "coordinates": [ [ [ [ 105.7861782, 56.7965678 ], [ 105.786513, 56.796113 ], [ 105.7858118, 56.7959709 ], [ 105.7859613, 56.7958146 ], [ 105.7867384, 56.7960178 ], [ 105.7870282, 56.7960733 ], [ 105.7868787, 56.7962444 ], [ 105.7870622, 56.7962779 ], [ 105.7867292, 56.7966761 ], [ 105.7861782, 56.7965678 ] ] ] ] } },
{ "type": "Feature", "properties": { "type": null }, "geometry": { "type": "MultiPolygon", "coordinates": [ [ [ [ 105.7885799, 56.794572 ], [ 105.7887602, 56.7943851 ], [ 105.7896488, 56.7945791 ], [ 105.7897647, 56.7945544 ], [ 105.7901317, 56.7946708 ], [ 105.7904473, 56.7947836 ], [ 105.7902283, 56.7950093 ], [ 105.789578, 56.7948612 ], [ 105.7891723, 56.7947483 ], [ 105.7885799, 56.794572 ] ] ] ] } },
{ "type": "Feature", "properties": { "type": null }, "geometry": { "type": "MultiPolygon", "coordinates": [ [ [ [ 105.7882194, 56.7956722 ], [ 105.788625, 56.7952138 ], [ 105.788522, 56.7949881 ], [ 105.7885735, 56.7948718 ], [ 105.7890242, 56.7949881 ], [ 105.78952, 56.7950763 ], [ 105.7889405, 56.7958133 ], [ 105.7882194, 56.7956722 ] ] ] ] } },
{ "type": "Feature", "properties": { "type": null }, "geometry": { "type": "MultiPolygon", "coordinates": [ [ [ [ 105.7926301, 56.7967688 ], [ 105.7932933, 56.7958662 ], [ 105.7934478, 56.7958873 ], [ 105.7941175, 56.7960248 ], [ 105.7943944, 56.7960142 ], [ 105.7946455, 56.7960918 ], [ 105.7952379, 56.79612 ], [ 105.7957273, 56.7961482 ], [ 105.7954465, 56.7966257 ], [ 105.7949175, 56.7973384 ], [ 105.7942527, 56.7971461 ], [ 105.793744, 56.7970157 ], [ 105.7926301, 56.7967688 ] ] ] ] } },
{ "type": "Feature", "properties": { "type": null }, "geometry": { "type": "MultiPolygon", "coordinates": [ [ [ [ 105.7957981, 56.7972096 ], [ 105.796339, 56.796582 ], [ 105.7978843, 56.7967371 ], [ 105.7978457, 56.7970403 ], [ 105.7979358, 56.7972449 ], [ 105.7975624, 56.7975834 ], [ 105.7957981, 56.7972096 ] ] ] ] } },
{ "type": "Feature", "properties": { "type": null }, "geometry": { "type": "MultiPolygon", "coordinates": [ [ [ [ 105.8004857, 56.7986623 ], [ 105.801155, 56.7976343 ], [ 105.8024597, 56.7977385 ], [ 105.8023712, 56.7980002 ], [ 105.8020701, 56.7983438 ], [ 105.8018707, 56.7984281 ], [ 105.8018254, 56.7987853 ], [ 105.8004857, 56.7986623 ] ] ] ] } },
{ "type": "Feature", "properties": { "type": null }, "geometry": { "type": "MultiPolygon", "coordinates": [ [ [ [ 105.8009493, 56.8001396 ], [ 105.8013614, 56.7995684 ], [ 105.8017027, 56.7995966 ], [ 105.8020053, 56.7997377 ], [ 105.8018057, 56.8000479 ], [ 105.8015932, 56.8002031 ], [ 105.8009493, 56.8001396 ] ] ] ] } },
{ "type": "Feature", "properties": { "type": null }, "geometry": { "type": "MultiPolygon", "coordinates": [ [ [ [ 105.7908245, 56.8033438 ], [ 105.7924562, 56.8026992 ], [ 105.792688, 56.8022339 ], [ 105.7936796, 56.8024313 ], [ 105.7945425, 56.8026428 ], [ 105.7957401, 56.8028967 ], [ 105.7967317, 56.8031082 ], [ 105.7963583, 56.8032633 ], [ 105.7961522, 56.8031928 ], [ 105.7958303, 56.803362 ], [ 105.795547, 56.8035312 ], [ 105.7951735, 56.8042786 ], [ 105.7938761, 56.8040758 ], [ 105.7937569, 56.8036864 ], [ 105.7938986, 56.8032351 ], [ 105.7931774, 56.8031434 ], [ 105.7928813, 56.8034924 ], [ 105.7919411, 56.8032704 ], [ 105.7914361, 56.8035398 ], [ 105.7908245, 56.8033438 ] ] ] ] } },
{ "type": "Feature", "properties": { "type": null }, "geometry": { "type": "MultiPolygon", "coordinates": [ [ [ [ 105.7990171, 56.8030825 ], [ 105.7992223, 56.8027392 ], [ 105.7997251, 56.8028285 ], [ 105.7999426, 56.8028136 ], [ 105.800228, 56.8023672 ], [ 105.8007175, 56.8025371 ], [ 105.801422, 56.8017641 ], [ 105.8028374, 56.802077 ], [ 105.8022768, 56.8026072 ], [ 105.8021612, 56.8027634 ], [ 105.8022258, 56.8028434 ], [ 105.8017365, 56.8032899 ], [ 105.8015031, 56.8032563 ], [ 105.8011682, 56.8035171 ], [ 105.7990171, 56.8030825 ] ] ] ] } },
{ "type": "Feature", "properties": { "type": null }, "geometry": { "type": "MultiPolygon", "coordinates": [ [ [ [ 105.7988244, 56.8034572 ], [ 105.8004793, 56.8038485 ], [ 105.8003054, 56.8040248 ], [ 105.7998032, 56.8039296 ], [ 105.7986838, 56.8036794 ], [ 105.7988244, 56.8034572 ] ] ] ] } },
{ "type": "Feature", "properties": { "type": null }, "geometry": { "type": "MultiPolygon", "coordinates": [ [ [ [ 105.8032281, 56.8030927 ], [ 105.8040207, 56.8029742 ], [ 105.8041946, 56.8027733 ], [ 105.8044006, 56.8026005 ], [ 105.8048771, 56.8027415 ], [ 105.8051862, 56.8027697 ], [ 105.8054824, 56.802812 ], [ 105.8054051, 56.8029601 ], [ 105.8051089, 56.8032774 ], [ 105.8047548, 56.8035665 ], [ 105.803731, 56.8033162 ], [ 105.8037309, 56.803249 ], [ 105.8035174, 56.8031826 ], [ 105.8032281, 56.8030927 ] ] ] ] } },
{ "type": "Feature", "properties": { "type": null }, "geometry": { "type": "MultiPolygon", "coordinates": [ [ [ [ 105.8164751, 56.7998193 ], [ 105.8171097, 56.8002415 ], [ 105.8175882, 56.8006772 ], [ 105.8161914, 56.8008505 ], [ 105.8143905, 56.8010871 ], [ 105.8139867, 56.8005789 ], [ 105.8153633, 56.800319 ], [ 105.8153791, 56.8000376 ], [ 105.8164751, 56.7998193 ] ] ] ] } },
{ "type": "Feature", "properties": { "type": null }, "geometry": { "type": "MultiPolygon", "coordinates": [ [ [ [ 105.8139368, 56.8065982 ], [ 105.8137952, 56.8068873 ], [ 105.8139239, 56.8071059 ], [ 105.8139497, 56.8074513 ], [ 105.8143747, 56.8075782 ], [ 105.8146709, 56.8077897 ], [ 105.8145421, 56.8080717 ], [ 105.8138467, 56.8083114 ], [ 105.8134732, 56.8083678 ], [ 105.8123786, 56.8083185 ], [ 105.8112453, 56.8082198 ], [ 105.81064, 56.808114 ], [ 105.8101893, 56.8075007 ], [ 105.8104073, 56.807226 ], [ 105.8117935, 56.8073673 ], [ 105.8122964, 56.8065415 ], [ 105.8127134, 56.8065912 ], [ 105.813705, 56.8065912 ], [ 105.8139368, 56.8065982 ] ] ] ] } },
{ "type": "Feature", "properties": { "type": null }, "geometry": { "type": "MultiPolygon", "coordinates": [ [ [ [ 105.8095969, 56.8056746 ], [ 105.8099704, 56.8052234 ], [ 105.8108461, 56.8054279 ], [ 105.8105113, 56.8059003 ], [ 105.8095969, 56.8056746 ] ] ] ] } },
{ "type": "Feature", "properties": { "type": null }, "geometry": { "type": "MultiPolygon", "coordinates": [ [ [ [ 105.842159, 56.8083185 ], [ 105.8421825, 56.8078838 ], [ 105.8424084, 56.8078787 ], [ 105.8429309, 56.8078667 ], [ 105.84322, 56.8078785 ], [ 105.8436673, 56.8079171 ], [ 105.8432022, 56.808322 ], [ 105.842159, 56.8083185 ] ] ] ] } },
{ "type": "Feature", "properties": { "type": null }, "geometry": { "type": "MultiPolygon", "coordinates": [ [ [ [ 105.8436797, 56.8019554 ], [ 105.8437477, 56.8021787 ], [ 105.844015, 56.8021687 ], [ 105.8443998, 56.8026146 ], [ 105.8444385, 56.8034184 ], [ 105.8444256, 56.8041024 ], [ 105.8442067, 56.804187 ], [ 105.8439877, 56.8040107 ], [ 105.8434255, 56.8032713 ], [ 105.8436973, 56.803182 ], [ 105.8435886, 56.802929 ], [ 105.8426832, 56.8028523 ], [ 105.842946, 56.8026574 ], [ 105.8434668, 56.8019654 ], [ 105.8436797, 56.8019554 ] ] ] ] } },
{ "type": "Feature", "properties": { "type": null }, "geometry": { "type": "MultiPolygon", "coordinates": [ [ [ [ 105.8466872, 56.803048 ], [ 105.8467416, 56.802423 ], [ 105.8477201, 56.8024676 ], [ 105.8475026, 56.8031076 ], [ 105.8466872, 56.803048 ] ] ] ] } },
{ "type": "Feature", "properties": { "type": null }, "geometry": { "type": "MultiPolygon", "coordinates": [ [ [ [ 105.8649614, 56.8067684 ], [ 105.8649904, 56.8070698 ], [ 105.8657631, 56.8070434 ], [ 105.8658066, 56.8073131 ], [ 105.865285, 56.8075034 ], [ 105.8641743, 56.8075563 ], [ 105.8641211, 56.80744 ], [ 105.8639473, 56.8074479 ], [ 105.8637251, 56.8068504 ], [ 105.8649614, 56.8067684 ] ] ] ] } },
{ "type": "Feature", "properties": { "type": null }, "geometry": { "type": "MultiPolygon", "coordinates": [ [ [ [ 105.8716938, 56.8077877 ], [ 105.8732016, 56.8077157 ], [ 105.8732788, 56.8081422 ], [ 105.8730792, 56.8082797 ], [ 105.8728732, 56.8083114 ], [ 105.8722808, 56.8083537 ], [ 105.8718301, 56.8083996 ], [ 105.8712045, 56.8084424 ], [ 105.8709599, 56.8080258 ], [ 105.8716394, 56.8079663 ], [ 105.8716938, 56.8077877 ] ] ] ] } },
{ "type": "Feature", "properties": { "type": null }, "geometry": { "type": "MultiPolygon", "coordinates": [ [ [ [ 105.8783206, 56.8041764 ], [ 105.8783914, 56.804016 ], [ 105.8787778, 56.8039314 ], [ 105.8800141, 56.803882 ], [ 105.8803746, 56.8036916 ], [ 105.8809542, 56.8036916 ], [ 105.8813405, 56.8037199 ], [ 105.8819071, 56.8038468 ], [ 105.8824094, 56.8039384 ], [ 105.8824738, 56.8041006 ], [ 105.8820102, 56.8042839 ], [ 105.8814178, 56.8043897 ], [ 105.8803746, 56.8045871 ], [ 105.8802072, 56.8047493 ], [ 105.8799497, 56.8047845 ], [ 105.8788035, 56.8048832 ], [ 105.8782755, 56.8049678 ], [ 105.87815, 56.8050648 ], [ 105.8773741, 56.8050718 ], [ 105.8773676, 56.8050225 ], [ 105.8773805, 56.8042328 ], [ 105.8783206, 56.8041764 ] ] ] ] } },
{ "type": "Feature", "properties": { "type": null }, "geometry": { "type": "MultiPolygon", "coordinates": [ [ [ [ 105.8865941, 56.8037682 ], [ 105.8867042, 56.8040301 ], [ 105.8868652, 56.8041288 ], [ 105.8862148, 56.8042169 ], [ 105.885777, 56.8041535 ], [ 105.8857152, 56.8038634 ], [ 105.8865941, 56.8037682 ] ] ] ] } },
{ "type": "Feature", "properties": { "type": null }, "geometry": { "type": "MultiPolygon", "coordinates": [ [ [ [ 105.8897692, 56.8107277 ], [ 105.8916938, 56.8111629 ], [ 105.8915463, 56.8113763 ], [ 105.8911986, 56.8113058 ], [ 105.8908638, 56.8112212 ], [ 105.8903101, 56.8111084 ], [ 105.889576, 56.8108476 ], [ 105.8897692, 56.8107277 ] ] ] ] } },
{ "type": "Feature", "properties": { "type": null }, "geometry": { "type": "MultiPolygon", "coordinates": [ [ [ [ 105.9045918, 56.8058985 ], [ 105.904682, 56.8052922 ], [ 105.905944, 56.805264 ], [ 105.9057637, 56.8058844 ], [ 105.9056349, 56.8059549 ], [ 105.9045918, 56.8058985 ] ] ] ] } },
{ "type": "Feature", "properties": { "type": null }, "geometry": { "type": "MultiPolygon", "coordinates": [ [ [ [ 105.9111386, 56.8062153 ], [ 105.9113077, 56.8053662 ], [ 105.91274, 56.8053696 ], [ 105.9126599, 56.8062757 ], [ 105.9111386, 56.8062153 ] ] ] ] } },
{ "type": "Feature", "properties": { "type": null }, "geometry": { "type": "MultiPolygon", "coordinates": [ [ [ [ 105.8997239, 56.8183299 ], [ 105.8985069, 56.8150136 ], [ 105.8980176, 56.8130117 ], [ 105.897863, 56.812772 ], [ 105.8984297, 56.8126734 ], [ 105.8990221, 56.8126452 ], [ 105.8994857, 56.8125465 ], [ 105.898919, 56.8120389 ], [ 105.8975024, 56.8109251 ], [ 105.8968328, 56.8102061 ], [ 105.8951071, 56.8088525 ], [ 105.8941111, 56.8082412 ], [ 105.8934952, 56.8078266 ], [ 105.8933551, 56.8078689 ], [ 105.8926281, 56.8074425 ], [ 105.8913403, 56.8067657 ], [ 105.8904131, 56.805962 ], [ 105.8906706, 56.8057645 ], [ 105.8930402, 56.8062581 ], [ 105.8938644, 56.8063568 ], [ 105.8958476, 56.8067516 ], [ 105.8973672, 56.8070477 ], [ 105.8978051, 56.8072028 ], [ 105.8990156, 56.8076822 ], [ 105.9000011, 56.8073853 ], [ 105.9011677, 56.8072092 ], [ 105.9012854, 56.8066884 ], [ 105.9017045, 56.8063635 ], [ 105.9017588, 56.8060163 ], [ 105.9052357, 56.8062898 ], [ 105.9058023, 56.807164 ], [ 105.9053387, 56.8090816 ], [ 105.9043085, 56.8104916 ], [ 105.9034328, 56.8120424 ], [ 105.9029177, 56.8135651 ], [ 105.902351, 56.8147775 ], [ 105.9020935, 56.8157643 ], [ 105.902145, 56.8179352 ], [ 105.8997239, 56.8183299 ] ] ] ] } },
{ "type": "Feature", "properties": { "type": null }, "geometry": { "type": "MultiPolygon", "coordinates": [ [ [ [ 105.9637213, 56.8154929 ], [ 105.9626768, 56.8148782 ], [ 105.963954, 56.8138476 ], [ 105.9647516, 56.8141536 ], [ 105.9655551, 56.8144077 ], [ 105.9649369, 56.8148624 ], [ 105.9653909, 56.8151003 ], [ 105.9662118, 56.815391 ], [ 105.9654198, 56.816073 ], [ 105.9637213, 56.8154929 ] ] ] ] } },
{ "type": "Feature", "properties": { "type": null }, "geometry": { "type": "MultiPolygon", "coordinates": [ [ [ [ 105.963237, 56.812975 ], [ 105.963129, 56.8128743 ], [ 105.963129, 56.8126099 ], [ 105.9643846, 56.8127015 ], [ 105.9640097, 56.8130596 ], [ 105.963237, 56.812975 ] ] ] ] } },
{ "type": "Feature", "properties": { "type": null }, "geometry": { "type": "MultiPolygon", "coordinates": [ [ [ [ 105.9640224, 56.8137888 ], [ 105.964713, 56.8134206 ], [ 105.9649126, 56.8134382 ], [ 105.965183, 56.8131879 ], [ 105.9653118, 56.8132232 ], [ 105.9655822, 56.8130011 ], [ 105.9661424, 56.813202 ], [ 105.9654985, 56.8137096 ], [ 105.9649576, 56.8141114 ], [ 105.9640224, 56.8137888 ] ] ] ] } },
{ "type": "Feature", "properties": { "type": null }, "geometry": { "type": "MultiPolygon", "coordinates": [ [ [ [ 105.9679518, 56.8137942 ], [ 105.9679389, 56.8138364 ], [ 105.968718, 56.8142664 ], [ 105.9677393, 56.8149784 ], [ 105.967134, 56.8148021 ], [ 105.9669859, 56.8149361 ], [ 105.9665969, 56.8147792 ], [ 105.9659879, 56.8145061 ], [ 105.966033, 56.8144356 ], [ 105.9652925, 56.8141325 ], [ 105.9660587, 56.8135298 ], [ 105.9665481, 56.8131633 ], [ 105.9671533, 56.8133712 ], [ 105.9680162, 56.8137413 ], [ 105.9679518, 56.8137942 ] ] ] ] } },
{ "type": "Feature", "properties": { "type": null }, "geometry": { "type": "MultiPolygon", "coordinates": [ ] } }
]
}
