{
"type": "FeatureCollection",
"name": "cemeteries",
"crs": { "type": "name", "properties": { "name": "urn:ogc:def:crs:OGC:1.3:CRS84" } },
"features": [
{ "type": "Feature", "properties": { "id": null }, "geometry": { "type": "MultiPolygon", "coordinates": [ [ [ [ 105.661972796202662, 56.769221157403415 ], [ 105.66270786074233, 56.770183448434103 ], [ 105.664124586420243, 56.771521731573429 ], [ 105.6659131, 56.771422 ], [ 105.668795189040367, 56.771363824521487 ], [ 105.6702331, 56.7713348 ], [ 105.669859599999981, 56.7708329 ], [ 105.669976832301003, 56.770429611944515 ], [ 105.673978850350181, 56.770317719639905 ], [ 105.675138447721423, 56.771128999253676 ], [ 105.677853447012694, 56.772777341607309 ], [ 105.679042628289992, 56.772152711315471 ], [ 105.679696018991891, 56.770765286857028 ], [ 105.678389237588107, 56.770004419412551 ], [ 105.678511748344675, 56.769847768318236 ], [ 105.676633250076719, 56.769154019899283 ], [ 105.674836425646475, 56.768482638253545 ], [ 105.67306001967566, 56.767911954413357 ], [ 105.672059515163369, 56.767654584352719 ], [ 105.671304032164301, 56.768616915543326 ], [ 105.671242776785988, 56.768658877097906 ], [ 105.670813989137869, 56.768387524882691 ], [ 105.670191226125127, 56.767965106706065 ], [ 105.669833903085006, 56.767758092089252 ], [ 105.669226453916849, 56.767374832285476 ], [ 105.668562853985236, 56.767179004597956 ], [ 105.668093229418261, 56.767123053642457 ], [ 105.668185112485716, 56.767229360386608 ], [ 105.667786952526725, 56.767128648741767 ], [ 105.667674650999828, 56.767050317275668 ], [ 105.666714983406393, 56.76677615585713 ], [ 105.665132552800216, 56.766971985646109 ], [ 105.664274977503979, 56.767072697711221 ], [ 105.663366356059115, 56.768169322709461 ], [ 105.662263759249655, 56.768874279006205 ], [ 105.661972796202662, 56.769221157403415 ] ] ] ] } },
{ "type": "Feature", "properties": { "id": null }, "geometry": { "type": "MultiPolygon", "coordinates": [ [ [ [ 105.783437106764012, 56.783742414829938 ], [ 105.783600454439494, 56.784273710204538 ], [ 105.783692337506949, 56.784430301089856 ], [ 105.783947568249886, 56.784681963643351 ], [ 105.784784725086709, 56.784872107564134 ], [ 105.787398287894305, 56.784469448709054 ], [ 105.788112933974531, 56.783994081997911 ], [ 105.78889904466277, 56.783440411999862 ], [ 105.78780665708301, 56.782523203316437 ], [ 105.787439124813176, 56.782165262137717 ], [ 105.785866903436727, 56.782959439510918 ], [ 105.786214017247133, 56.783171962998928 ], [ 105.785785229599014, 56.783350929213 ], [ 105.78390673133103, 56.783093665011826 ], [ 105.783375851385699, 56.783272631599395 ], [ 105.783437106764012, 56.783742414829938 ] ] ] ] } }
]
}
