{
"type": "FeatureCollection",
"name": "parks",
"crs": { "type": "name", "properties": { "name": "urn:ogc:def:crs:OGC:1.3:CRS84" } },
"features": [
{ "type": "Feature", "properties": { "id": null }, "geometry": { "type": "MultiPolygon", "coordinates": [ [ [ [ 105.58285, 56.7990025 ], [ 105.5844984, 56.8002436 ], [ 105.5819743, 56.7994538 ], [ 105.58285, 56.7990025 ] ] ] ] } },
{ "type": "Feature", "properties": { "id": null }, "geometry": { "type": "MultiPolygon", "coordinates": [ [ [ [ 105.5851809, 56.8010757 ], [ 105.5859665, 56.8015975 ], [ 105.5854771, 56.8019218 ], [ 105.5844855, 56.8017738 ], [ 105.5842537, 56.8017879 ], [ 105.584112, 56.8014424 ], [ 105.5851809, 56.8010757 ] ] ] ] } },
{ "type": "Feature", "properties": { "id": null }, "geometry": { "type": "MultiPolygon", "coordinates": [ [ [ [ 105.587808, 56.8006808 ], [ 105.5868937, 56.8012731 ], [ 105.587808, 56.8006808 ], [ 105.5889284, 56.801252 ], [ 105.5902935, 56.8015693 ], [ 105.5905768, 56.8015834 ], [ 105.5916585, 56.8010193 ], [ 105.5927918, 56.8012097 ], [ 105.5952258, 56.8021827 ], [ 105.5953674, 56.8023943 ], [ 105.595831, 56.8026129 ], [ 105.5957795, 56.8029372 ], [ 105.5980074, 56.8036282 ], [ 105.5977112, 56.8038256 ], [ 105.5978786, 56.8040724 ], [ 105.5984195, 56.8040724 ], [ 105.5989733, 56.8047563 ], [ 105.5991793, 56.8053204 ], [ 105.5992824, 56.8085846 ], [ 105.5994111, 56.8108123 ], [ 105.5980461, 56.8097549 ], [ 105.5922767, 56.8050172 ], [ 105.589186, 56.8024084 ], [ 105.5864558, 56.8020558 ], [ 105.5867906, 56.8012802 ], [ 105.587808, 56.8006808 ] ] ] ] } },
{ "type": "Feature", "properties": { "id": null }, "geometry": { "type": "MultiPolygon", "coordinates": [ [ [ [ 105.5905551, 56.81584 ], [ 105.5900073, 56.8152954 ], [ 105.5900166, 56.8152251 ], [ 105.5907313, 56.8148832 ], [ 105.5922252, 56.8147422 ], [ 105.5958761, 56.8144145 ], [ 105.5978722, 56.8142312 ], [ 105.5999713, 56.814055 ], [ 105.6010016, 56.8139492 ], [ 105.6012771, 56.8143728 ], [ 105.5946334, 56.8152039 ], [ 105.5912465, 56.8156973 ], [ 105.5905551, 56.81584 ] ] ] ] } },
{ "type": "Feature", "properties": { "id": null }, "geometry": { "type": "MultiPolygon", "coordinates": [ [ [ [ 105.594144, 56.8126593 ], [ 105.5968098, 56.8107559 ], [ 105.5947493, 56.8110943 ], [ 105.5935645, 56.8109674 ], [ 105.5880012, 56.8106008 ], [ 105.5856703, 56.8105021 ], [ 105.5856445, 56.8101285 ], [ 105.5853144, 56.8090335 ], [ 105.585176, 56.8077161 ], [ 105.583388, 56.805384 ], [ 105.5829985, 56.804876 ], [ 105.5836484, 56.8047211 ], [ 105.5836999, 56.8045659 ], [ 105.583687, 56.8041711 ], [ 105.5833265, 56.8037481 ], [ 105.5837128, 56.8035647 ], [ 105.5838931, 56.8035929 ], [ 105.5843825, 56.8037269 ], [ 105.5851036, 56.8037551 ], [ 105.5853354, 56.8035295 ], [ 105.5851551, 56.8034026 ], [ 105.5846658, 56.8033321 ], [ 105.5842794, 56.803191 ], [ 105.5842794, 56.8030782 ], [ 105.584537, 56.8029654 ], [ 105.5855028, 56.8030148 ], [ 105.5859922, 56.8028949 ], [ 105.586327, 56.8026411 ], [ 105.588864, 56.8029231 ], [ 105.5898427, 56.8037692 ], [ 105.5916972, 56.8053415 ], [ 105.5934744, 56.8068855 ], [ 105.5954061, 56.8084789 ], [ 105.5976082, 56.8103118 ], [ 105.5992952, 56.8118979 ], [ 105.599849, 56.8120037 ], [ 105.6005058, 56.8127297 ], [ 105.6000422, 56.8127509 ], [ 105.5966424, 56.8129835 ], [ 105.5943114, 56.8131033 ], [ 105.5921865, 56.8132584 ], [ 105.5927017, 56.8125394 ], [ 105.594144, 56.8126593 ] ] ] ] } },
{ "type": "Feature", "properties": { "id": null }, "geometry": { "type": "MultiPolygon", "coordinates": [ [ [ [ 105.6040849, 56.8125525 ], [ 105.6035707, 56.8121799 ], [ 105.6035579, 56.8116512 ], [ 105.6039184, 56.8111084 ], [ 105.6059789, 56.8100157 ], [ 105.6073569, 56.8092685 ], [ 105.6080137, 56.8089442 ], [ 105.610512, 56.8080911 ], [ 105.6118513, 56.8076117 ], [ 105.6130361, 56.8071746 ], [ 105.6147618, 56.8065824 ], [ 105.6160775, 56.8061031 ], [ 105.615697, 56.8065942 ], [ 105.6154314, 56.8077316 ], [ 105.6159465, 56.8085776 ], [ 105.6149163, 56.8088737 ], [ 105.6149034, 56.8094799 ], [ 105.616114, 56.8097126 ], [ 105.6168866, 56.810333 ], [ 105.6192215, 56.8113367 ], [ 105.6143883, 56.811359 ], [ 105.61019, 56.8113588 ], [ 105.6058888, 56.8113587 ], [ 105.604456, 56.8113586 ], [ 105.6040849, 56.8125525 ] ] ] ] } },
{ "type": "Feature", "properties": { "id": null }, "geometry": { "type": "MultiPolygon", "coordinates": [ [ [ [ 105.6158049, 56.8039948 ], [ 105.6156245, 56.8053243 ], [ 105.6148519, 56.8057716 ], [ 105.6136156, 56.8062228 ], [ 105.6093916, 56.8077598 ], [ 105.6065842, 56.8087609 ], [ 105.6059843, 56.8087468 ], [ 105.606093, 56.8068223 ], [ 105.6053156, 56.8052235 ], [ 105.6072539, 56.805137 ], [ 105.6086447, 56.8056729 ], [ 105.6109885, 56.8050806 ], [ 105.6110915, 56.8038115 ], [ 105.6158049, 56.8039948 ] ] ] ] } },
{ "type": "Feature", "properties": { "id": null }, "geometry": { "type": "MultiPolygon", "coordinates": [ [ [ [ 105.6270325, 56.812087 ], [ 105.6277943, 56.8118063 ], [ 105.6284898, 56.8118627 ], [ 105.6289791, 56.8121024 ], [ 105.6289659, 56.8122944 ], [ 105.6270325, 56.812087 ] ] ] ] } },
{ "type": "Feature", "properties": { "id": null }, "geometry": { "type": "MultiPolygon", "coordinates": [ [ [ [ 105.6221978, 56.8100736 ], [ 105.6249702, 56.8090271 ], [ 105.6258626, 56.8097478 ], [ 105.6274595, 56.8109181 ], [ 105.6245233, 56.8111578 ], [ 105.6221978, 56.8100736 ] ] ] ] } },
{ "type": "Feature", "properties": { "id": null }, "geometry": { "type": "MultiPolygon", "coordinates": [ [ [ [ 105.6216129, 56.8112705 ], [ 105.6219606, 56.8110238 ], [ 105.6206728, 56.8102343 ], [ 105.6188183, 56.8090922 ], [ 105.6176593, 56.8091768 ], [ 105.6170412, 56.8084718 ], [ 105.6167661, 56.8072291 ], [ 105.6168657, 56.8069711 ], [ 105.617056, 56.8063164 ], [ 105.6173641, 56.8060188 ], [ 105.617962, 56.805741 ], [ 105.6180164, 56.8052648 ], [ 105.6182701, 56.8051656 ], [ 105.6186869, 56.805235 ], [ 105.6196926, 56.8044116 ], [ 105.619457, 56.8036725 ], [ 105.6198228, 56.8030218 ], [ 105.6199516, 56.8017456 ], [ 105.6202864, 56.8012872 ], [ 105.6210591, 56.8013859 ], [ 105.6213167, 56.8016821 ], [ 105.6214455, 56.8023167 ], [ 105.6210076, 56.8035083 ], [ 105.6203122, 56.8042839 ], [ 105.6190115, 56.8056658 ], [ 105.6180585, 56.8067516 ], [ 105.6180972, 56.8083308 ], [ 105.6184706, 56.8086551 ], [ 105.6194622, 56.8092473 ], [ 105.6216129, 56.8102836 ], [ 105.6234158, 56.811186 ], [ 105.6220507, 56.8113763 ], [ 105.6216129, 56.8112705 ] ] ] ] } },
{ "type": "Feature", "properties": { "id": null }, "geometry": { "type": "MultiPolygon", "coordinates": [ [ [ [ 105.6223212, 56.8023379 ], [ 105.6222954, 56.8028596 ], [ 105.6224757, 56.8032122 ], [ 105.622862, 56.8034942 ], [ 105.6235317, 56.8035929 ], [ 105.6244847, 56.8035647 ], [ 105.6251801, 56.8031558 ], [ 105.6260816, 56.8021968 ], [ 105.6255149, 56.8009981 ], [ 105.6269573, 56.7996019 ], [ 105.6285049, 56.7975359 ], [ 105.6276239, 56.8026529 ], [ 105.6298635, 56.8040824 ], [ 105.6312079, 56.8047961 ], [ 105.6332462, 56.8058208 ], [ 105.6323918, 56.8060889 ], [ 105.6311298, 56.8054543 ], [ 105.6291723, 56.8060748 ], [ 105.6266852, 56.8069391 ], [ 105.6237743, 56.8082335 ], [ 105.6223427, 56.8070083 ], [ 105.6188635, 56.8079904 ], [ 105.6186123, 56.8072733 ], [ 105.6186123, 56.8066529 ], [ 105.6191017, 56.8062581 ], [ 105.6204667, 56.8049185 ], [ 105.6209303, 56.8044108 ], [ 105.6215485, 56.8033955 ], [ 105.6217288, 56.8026763 ], [ 105.6220121, 56.8020135 ], [ 105.6223212, 56.8019994 ], [ 105.6223212, 56.8023379 ] ] ] ] } },
{ "type": "Feature", "properties": { "id": null }, "geometry": { "type": "MultiPolygon", "coordinates": [ [ [ [ 105.5899788, 56.7857601 ], [ 105.5900512, 56.7852336 ], [ 105.5915029, 56.7830495 ], [ 105.5948349, 56.7798979 ], [ 105.6023856, 56.7779749 ], [ 105.6044244, 56.7762735 ], [ 105.6146205, 56.7775243 ], [ 105.6185831, 56.7778589 ], [ 105.6210616, 56.7777519 ], [ 105.6245918, 56.7769941 ], [ 105.6264396, 56.776736 ], [ 105.6265838, 56.7771993 ], [ 105.6268542, 56.7773969 ], [ 105.6265967, 56.777538 ], [ 105.6265709, 56.7776579 ], [ 105.6259528, 56.7782859 ], [ 105.6245748, 56.7791467 ], [ 105.6243559, 56.7797887 ], [ 105.6233385, 56.7803037 ], [ 105.6196425, 56.781743 ], [ 105.6165518, 56.7830129 ], [ 105.6165003, 56.7833233 ], [ 105.6163973, 56.7836901 ], [ 105.6157791, 56.7845366 ], [ 105.6154958, 56.784847 ], [ 105.6149807, 56.7850022 ], [ 105.6132035, 56.7848894 ], [ 105.6118384, 56.7843321 ], [ 105.6112847, 56.7839652 ], [ 105.6107309, 56.783542 ], [ 105.6101643, 56.7834432 ], [ 105.6087863, 56.7838171 ], [ 105.6096878, 56.7848259 ], [ 105.6101514, 56.7851504 ], [ 105.610306, 56.7855948 ], [ 105.6102158, 56.7858488 ], [ 105.6093272, 56.7860957 ], [ 105.6065069, 56.784586 ], [ 105.6034935, 56.7850093 ], [ 105.6031844, 56.7852139 ], [ 105.6029783, 56.7855948 ], [ 105.6024375, 56.7856724 ], [ 105.601433, 56.7851574 ], [ 105.6010982, 56.7851574 ], [ 105.6009179, 56.7854396 ], [ 105.6010466, 56.7863002 ], [ 105.6014716, 56.7870338 ], [ 105.6013042, 56.7871961 ], [ 105.6009951, 56.7872878 ], [ 105.6005315, 56.7870621 ], [ 105.6001452, 56.7870762 ], [ 105.5994755, 56.7874148 ], [ 105.5990248, 56.7875982 ], [ 105.5985097, 56.787577 ], [ 105.5982006, 56.7873654 ], [ 105.5980074, 56.7869421 ], [ 105.5980461, 56.7861944 ], [ 105.5980461, 56.7859969 ], [ 105.5978658, 56.7858981 ], [ 105.5976597, 56.7858629 ], [ 105.5974794, 56.7861521 ], [ 105.5973249, 56.7868716 ], [ 105.5971704, 56.7873231 ], [ 105.5967325, 56.7874218 ], [ 105.5963204, 56.7872807 ], [ 105.5966681, 56.7855313 ], [ 105.5960886, 56.7852562 ], [ 105.5956121, 56.7852562 ], [ 105.5952515, 56.7854537 ], [ 105.5950841, 56.7857782 ], [ 105.5950326, 56.7859193 ], [ 105.5942728, 56.7860039 ], [ 105.5938993, 56.7856089 ], [ 105.593616, 56.785496 ], [ 105.593088, 56.7853691 ], [ 105.5924184, 56.7852633 ], [ 105.5917358, 56.7852633 ], [ 105.5905768, 56.7855384 ], [ 105.5899706, 56.7858194 ], [ 105.5899788, 56.7857601 ] ] ] ] } },
{ "type": "Feature", "properties": { "id": null }, "geometry": { "type": "MultiPolygon", "coordinates": [ [ [ [ 105.6252316, 56.7983361 ], [ 105.6255085, 56.7984983 ], [ 105.626719, 56.7978143 ], [ 105.6279424, 56.7966437 ], [ 105.6291401, 56.7954589 ], [ 105.6288697, 56.795339 ], [ 105.6296681, 56.7943587 ], [ 105.6300802, 56.7936323 ], [ 105.6300287, 56.7934912 ], [ 105.6305567, 56.7919819 ], [ 105.6307627, 56.7916504 ], [ 105.6313036, 56.7906559 ], [ 105.6319218, 56.7895767 ], [ 105.6323854, 56.7886033 ], [ 105.6326429, 56.7889348 ], [ 105.6327459, 56.7889631 ], [ 105.6329906, 56.7888784 ], [ 105.6330937, 56.7884622 ], [ 105.6333899, 56.7883212 ], [ 105.6335959, 56.7884199 ], [ 105.6340466, 56.7884058 ], [ 105.6341754, 56.788173 ], [ 105.6337504, 56.7879191 ], [ 105.6333641, 56.7874183 ], [ 105.6337118, 56.7872208 ], [ 105.634639, 56.7874888 ], [ 105.6351026, 56.7874465 ], [ 105.6355276, 56.7870162 ], [ 105.6357465, 56.7866494 ], [ 105.6357465, 56.7864378 ], [ 105.6345231, 56.7863531 ], [ 105.6340466, 56.7860639 ], [ 105.6343557, 56.7854149 ], [ 105.6350125, 56.7849423 ], [ 105.6357465, 56.7849846 ], [ 105.6364419, 56.7848082 ], [ 105.6370858, 56.7849141 ], [ 105.6370086, 56.7850693 ], [ 105.6367768, 56.7855207 ], [ 105.6365707, 56.7858805 ], [ 105.6363389, 56.7863813 ], [ 105.6360556, 56.7870515 ], [ 105.6357079, 56.7875523 ], [ 105.6352443, 56.7881307 ], [ 105.6348579, 56.7885751 ], [ 105.634008, 56.7891606 ], [ 105.6334027, 56.7895697 ], [ 105.6326816, 56.7900916 ], [ 105.631896, 56.7906912 ], [ 105.6314066, 56.7913683 ], [ 105.6311748, 56.7918338 ], [ 105.6309559, 56.7926519 ], [ 105.6307499, 56.7934418 ], [ 105.6306082, 56.794133 ], [ 105.6303249, 56.7945421 ], [ 105.6300287, 56.7948947 ], [ 105.6294749, 56.795473 ], [ 105.6288825, 56.7960372 ], [ 105.6282258, 56.7967071 ], [ 105.6275819, 56.797363 ], [ 105.6271698, 56.7977297 ], [ 105.6267319, 56.7981387 ], [ 105.6262297, 56.7985124 ], [ 105.6255986, 56.7987945 ], [ 105.6252123, 56.7989285 ], [ 105.6238021, 56.7993481 ], [ 105.6232741, 56.7995244 ], [ 105.6231969, 56.7994997 ], [ 105.6226045, 56.7993445 ], [ 105.6221924, 56.7992599 ], [ 105.6221538, 56.7991753 ], [ 105.6252316, 56.7983361 ] ] ] ] } },
{ "type": "Feature", "properties": { "id": null }, "geometry": { "type": "MultiPolygon", "coordinates": [ [ [ [ 105.6552094, 56.7718371 ], [ 105.6559264, 56.7715154 ], [ 105.6582574, 56.7710638 ], [ 105.6588112, 56.771818 ], [ 105.6560067, 56.7719744 ], [ 105.6552094, 56.7718371 ] ] ] ] } },
{ "type": "Feature", "properties": { "id": null }, "geometry": { "type": "MultiPolygon", "coordinates": [ [ [ [ 105.6713414, 56.768135 ], [ 105.6700794, 56.7677751 ], [ 105.6693325, 56.7672598 ], [ 105.6678386, 56.7669564 ], [ 105.6665637, 56.7666176 ], [ 105.6665251, 56.7664059 ], [ 105.6667311, 56.7662224 ], [ 105.6702597, 56.7669775 ], [ 105.6718308, 56.7676057 ], [ 105.6713414, 56.768135 ] ] ] ] } },
{ "type": "Feature", "properties": { "id": null }, "geometry": { "type": "MultiPolygon", "coordinates": [ [ [ [ 105.6768795, 56.7633662 ], [ 105.6777676, 56.7625097 ], [ 105.6783745, 56.7628112 ], [ 105.6776406, 56.7635747 ], [ 105.6768795, 56.7633662 ] ] ] ] } },
{ "type": "Feature", "properties": { "id": null }, "geometry": { "type": "MultiPolygon", "coordinates": [ [ [ [ 105.6750117, 56.7673304 ], [ 105.6756041, 56.767401 ], [ 105.6761836, 56.7676057 ], [ 105.6772396, 56.768135 ], [ 105.6775487, 56.7680926 ], [ 105.6777933, 56.768015 ], [ 105.6781024, 56.7680785 ], [ 105.6784373, 56.7680362 ], [ 105.6785918, 56.7682056 ], [ 105.6788236, 56.7681632 ], [ 105.6789266, 56.767895 ], [ 105.6792872, 56.7678103 ], [ 105.6812189, 56.7665117 ], [ 105.682584, 56.7667093 ], [ 105.6861126, 56.7682338 ], [ 105.690079, 56.7706474 ], [ 105.6927061, 56.7723128 ], [ 105.6923591, 56.7723895 ], [ 105.6915709, 56.7729108 ], [ 105.6892291, 56.774204 ], [ 105.6915986, 56.7756999 ], [ 105.6937106, 56.7769982 ], [ 105.6960634, 56.778141 ], [ 105.6951787, 56.7788891 ], [ 105.6933758, 56.7778449 ], [ 105.6917274, 56.7768006 ], [ 105.6901563, 56.7756858 ], [ 105.6879412, 56.7743028 ], [ 105.686705, 56.7734137 ], [ 105.6843612, 56.7720588 ], [ 105.6812962, 56.7704074 ], [ 105.6767373, 56.7681632 ], [ 105.6750117, 56.7673304 ] ] ] ] } },
{ "type": "Feature", "properties": { "id": null }, "geometry": { "type": "MultiPolygon", "coordinates": [ [ [ [ 105.695037, 56.7651213 ], [ 105.6965094, 56.7663262 ], [ 105.6962347, 56.7665117 ], [ 105.6960287, 56.7665541 ], [ 105.6958741, 56.766547 ], [ 105.6954749, 56.7664976 ], [ 105.6951787, 56.7664129 ], [ 105.695256, 56.7661659 ], [ 105.6950499, 56.7659753 ], [ 105.6947537, 56.7658624 ], [ 105.6945992, 56.7656436 ], [ 105.6941742, 56.765206 ], [ 105.6945348, 56.7651707 ], [ 105.6948439, 56.7650295 ], [ 105.695037, 56.7651213 ] ] ] ] } },
{ "type": "Feature", "properties": { "id": null }, "geometry": { "type": "MultiPolygon", "coordinates": [ [ [ [ 105.6968142, 56.780399 ], [ 105.6975516, 56.7797531 ], [ 105.6982787, 56.7800323 ], [ 105.6987, 56.77966 ], [ 105.699158, 56.7800603 ], [ 105.6998019, 56.7800039 ], [ 105.6999307, 56.7806671 ], [ 105.699158, 56.7812315 ], [ 105.6968142, 56.780399 ] ] ] ] } },
{ "type": "Feature", "properties": { "id": null }, "geometry": { "type": "MultiPolygon", "coordinates": [ [ [ [ 105.6994413, 56.7823885 ], [ 105.6998792, 56.7821769 ], [ 105.7023518, 56.7817536 ], [ 105.7022745, 56.7822897 ], [ 105.6994413, 56.7823885 ] ] ] ] } },
{ "type": "Feature", "properties": { "id": null }, "geometry": { "type": "MultiPolygon", "coordinates": [ [ [ [ 105.7051592, 56.7797711 ], [ 105.705186, 56.7792616 ], [ 105.7047104, 56.7790606 ], [ 105.7047213, 56.7788962 ], [ 105.7063697, 56.7781977 ], [ 105.7069879, 56.7783952 ], [ 105.705816, 56.7797922 ], [ 105.7051592, 56.7797711 ] ] ] ] } },
{ "type": "Feature", "properties": { "id": null }, "geometry": { "type": "MultiPolygon", "coordinates": [ [ [ [ 105.7151268, 56.7851186 ], [ 105.7163406, 56.7862068 ], [ 105.7167655, 56.786242 ], [ 105.7176541, 56.7864254 ], [ 105.7187487, 56.7865877 ], [ 105.7184526, 56.7870956 ], [ 105.7182465, 56.7874553 ], [ 105.718459, 56.787942 ], [ 105.718034, 56.7883723 ], [ 105.7178376, 56.7883406 ], [ 105.7174609, 56.7883 ], [ 105.7171004, 56.788166 ], [ 105.7165691, 56.7879262 ], [ 105.7156934, 56.7872067 ], [ 105.7136587, 56.7854714 ], [ 105.7151268, 56.7851186 ] ] ] ] } },
{ "type": "Feature", "properties": { "id": null }, "geometry": { "type": "MultiPolygon", "coordinates": [ [ [ [ 105.7197404, 56.7901921 ], [ 105.7201009, 56.7896279 ], [ 105.7213115, 56.7884287 ], [ 105.7224963, 56.7879068 ], [ 105.7238742, 56.7873989 ], [ 105.7234492, 56.7881678 ], [ 105.7227925, 56.7890565 ], [ 105.7218524, 56.790044 ], [ 105.721363, 56.7899312 ], [ 105.7208221, 56.7905589 ], [ 105.7197404, 56.7901921 ] ] ] ] } },
{ "type": "Feature", "properties": { "id": null }, "geometry": { "type": "MultiPolygon", "coordinates": [ [ [ [ 105.7227281, 56.7770141 ], [ 105.722947, 56.777127 ], [ 105.72305, 56.777134 ], [ 105.7234879, 56.7771199 ], [ 105.7239772, 56.7771411 ], [ 105.7244924, 56.7770423 ], [ 105.7250847, 56.7769718 ], [ 105.7254325, 56.777 ], [ 105.7257415, 56.7770776 ], [ 105.726218, 56.7770494 ], [ 105.7269521, 56.7769576 ], [ 105.727699, 56.776873 ], [ 105.7281368, 56.7769365 ], [ 105.7285618, 56.7769647 ], [ 105.7302746, 56.7769929 ], [ 105.7322063, 56.7770353 ], [ 105.7321645, 56.7772663 ], [ 105.7300814, 56.7771905 ], [ 105.7300299, 56.7773126 ], [ 105.7281417, 56.7772438 ], [ 105.7281224, 56.7771221 ], [ 105.7272978, 56.7770986 ], [ 105.7266727, 56.7771321 ], [ 105.7258478, 56.777228 ], [ 105.7253842, 56.7773867 ], [ 105.725133, 56.777609 ], [ 105.725133, 56.7780641 ], [ 105.7246598, 56.7779454 ], [ 105.7247757, 56.7775009 ], [ 105.724428, 56.777508 ], [ 105.7242992, 56.7774727 ], [ 105.7239901, 56.7774374 ], [ 105.7237197, 56.7774798 ], [ 105.7234364, 56.7774515 ], [ 105.7229856, 56.7773669 ], [ 105.7226637, 56.7774233 ], [ 105.7223417, 56.7774092 ], [ 105.7223546, 56.7770776 ], [ 105.7224834, 56.7770494 ], [ 105.7227281, 56.7770141 ] ] ] ] } },
{ "type": "Feature", "properties": { "id": null }, "geometry": { "type": "MultiPolygon", "coordinates": [ [ [ [ 105.7440799, 56.7775362 ], [ 105.7439511, 56.7776421 ], [ 105.7434617, 56.7776491 ], [ 105.7431011, 56.7775856 ], [ 105.7424057, 56.7775927 ], [ 105.7422769, 56.7776844 ], [ 105.7421095, 56.7776914 ], [ 105.7420323, 56.7778114 ], [ 105.7414399, 56.7774798 ], [ 105.7421224, 56.777388 ], [ 105.7433329, 56.7774586 ], [ 105.7440799, 56.7775362 ] ] ] ] } },
{ "type": "Feature", "properties": { "id": null }, "geometry": { "type": "MultiPolygon", "coordinates": [ [ [ [ 105.7422512, 56.7778184 ], [ 105.742425, 56.7779296 ], [ 105.7427277, 56.7779507 ], [ 105.7429756, 56.7779296 ], [ 105.7433362, 56.7779296 ], [ 105.7435003, 56.7779825 ], [ 105.7441121, 56.7780001 ], [ 105.7445048, 56.7780601 ], [ 105.7450843, 56.7781836 ], [ 105.7457025, 56.77836 ], [ 105.7463561, 56.7785099 ], [ 105.7470965, 56.7786351 ], [ 105.7477759, 56.7787251 ], [ 105.7477984, 56.7787586 ], [ 105.7481171, 56.7788327 ], [ 105.7489381, 56.7789914 ], [ 105.7490926, 56.7790585 ], [ 105.749553, 56.7791149 ], [ 105.7502774, 56.7791978 ], [ 105.7505994, 56.779196 ], [ 105.7508923, 56.7791925 ], [ 105.7509696, 56.7792084 ], [ 105.7509696, 56.7792595 ], [ 105.751092, 56.7792948 ], [ 105.7513399, 56.7793001 ], [ 105.7517262, 56.7792701 ], [ 105.7520578, 56.7792066 ], [ 105.7523637, 56.7791678 ], [ 105.752354, 56.7792066 ], [ 105.7521351, 56.7792454 ], [ 105.7519644, 56.7792913 ], [ 105.7518196, 56.779376 ], [ 105.7519033, 56.7794254 ], [ 105.7520707, 56.7794218 ], [ 105.7522832, 56.7793918 ], [ 105.7524409, 56.7793442 ], [ 105.7527275, 56.7792737 ], [ 105.7530365, 56.7792701 ], [ 105.7531428, 56.7793054 ], [ 105.7531267, 56.7793619 ], [ 105.7530172, 56.7793971 ], [ 105.7528595, 56.779413 ], [ 105.7526631, 56.7795012 ], [ 105.7526824, 56.77954 ], [ 105.7528112, 56.7795541 ], [ 105.7529689, 56.7795523 ], [ 105.7530945, 56.7795277 ], [ 105.7533939, 56.7794783 ], [ 105.7536804, 56.7794359 ], [ 105.7538189, 56.7794747 ], [ 105.7538189, 56.7795947 ], [ 105.7540442, 56.7795947 ], [ 105.7541408, 56.7795612 ], [ 105.7541215, 56.7795329 ], [ 105.75426, 56.7795135 ], [ 105.7543952, 56.7795453 ], [ 105.7545529, 56.7795735 ], [ 105.7546978, 56.77963 ], [ 105.7547686, 56.779697 ], [ 105.7551904, 56.7797111 ], [ 105.755493, 56.7797217 ], [ 105.7560854, 56.7798028 ], [ 105.7566939, 56.7799086 ], [ 105.7568098, 56.7799527 ], [ 105.7570642, 56.7799845 ], [ 105.7573282, 56.7800109 ], [ 105.7576952, 56.7799915 ], [ 105.7579881, 56.7800268 ], [ 105.7583359, 56.7801326 ], [ 105.7585033, 56.7801379 ], [ 105.7585966, 56.7800568 ], [ 105.7588188, 56.7800057 ], [ 105.7589315, 56.7800692 ], [ 105.7589701, 56.7801432 ], [ 105.7590441, 56.7801697 ], [ 105.7591343, 56.780242 ], [ 105.7595528, 56.7802173 ], [ 105.7598555, 56.7802455 ], [ 105.7601259, 56.7802208 ], [ 105.7607795, 56.7802526 ], [ 105.7611677, 56.780287 ], [ 105.7610314, 56.7805625 ], [ 105.7606668, 56.7805277 ], [ 105.7605927, 56.7807059 ], [ 105.7604953, 56.7807072 ], [ 105.7598627, 56.7806173 ], [ 105.7592301, 56.7805273 ], [ 105.7586321, 56.7804501 ], [ 105.7581169, 56.7803796 ], [ 105.7576847, 56.7804479 ], [ 105.7558641, 56.7802654 ], [ 105.7543126, 56.7801095 ], [ 105.7529528, 56.779928 ], [ 105.7525407, 56.7798787 ], [ 105.7509696, 56.7796741 ], [ 105.7497333, 56.7794553 ], [ 105.7485485, 56.7792507 ], [ 105.7478403, 56.7792084 ], [ 105.7475183, 56.779152 ], [ 105.7474668, 56.7790108 ], [ 105.7468486, 56.7790038 ], [ 105.7468744, 56.778905 ], [ 105.7458699, 56.7787427 ], [ 105.7446723, 56.7786051 ], [ 105.7436163, 56.7784887 ], [ 105.7434445, 56.7784807 ], [ 105.7435036, 56.7783948 ], [ 105.7425667, 56.7782704 ], [ 105.7430625, 56.7781924 ], [ 105.7431011, 56.7779913 ], [ 105.7428371, 56.7779948 ], [ 105.7422512, 56.7779666 ], [ 105.7422512, 56.7778184 ] ] ] ] } },
{ "type": "Feature", "properties": { "id": null }, "geometry": { "type": "MultiPolygon", "coordinates": [ [ [ [ 105.753728, 56.7914475 ], [ 105.7555252, 56.7927066 ], [ 105.75492, 56.7930381 ], [ 105.7542117, 56.7926925 ], [ 105.7540314, 56.7925161 ], [ 105.7535162, 56.7923962 ], [ 105.7531814, 56.7922058 ], [ 105.7534324, 56.7919741 ], [ 105.7537654, 56.7917582 ], [ 105.7534664, 56.791561 ], [ 105.753728, 56.7914475 ], [ 105.7534664, 56.791561 ], [ 105.753728, 56.7914475 ] ] ] ] } },
{ "type": "Feature", "properties": { "id": null }, "geometry": { "type": "MultiPolygon", "coordinates": [ [ [ [ 105.7751367, 56.7938569 ], [ 105.7758468, 56.7929041 ], [ 105.7765551, 56.7930733 ], [ 105.7772762, 56.7933413 ], [ 105.7771346, 56.79356 ], [ 105.7769508, 56.7937567 ], [ 105.7765808, 56.793962 ], [ 105.7761687, 56.7938914 ], [ 105.7760239, 56.7940078 ], [ 105.7751367, 56.7938569 ] ] ] ] } },
{ "type": "Feature", "properties": { "id": null }, "geometry": { "type": "MultiPolygon", "coordinates": [ [ [ [ 105.7568259, 56.803711 ], [ 105.7566585, 56.8034184 ], [ 105.7569032, 56.8033268 ], [ 105.7574698, 56.8033761 ], [ 105.7582039, 56.803503 ], [ 105.7587319, 56.8037287 ], [ 105.7586868, 56.8038485 ], [ 105.7568259, 56.803711 ] ] ] ] } },
{ "type": "Feature", "properties": { "id": null }, "geometry": { "type": "MultiPolygon", "coordinates": [ [ [ [ 105.7588542, 56.8025617 ], [ 105.7593436, 56.8022515 ], [ 105.7610177, 56.802604 ], [ 105.7601162, 56.8031258 ], [ 105.7588542, 56.8025617 ] ] ] ] } },
{ "type": "Feature", "properties": { "id": null }, "geometry": { "type": "MultiPolygon", "coordinates": [ [ [ [ 105.7606442, 56.8032633 ], [ 105.7612914, 56.802983 ], [ 105.7619578, 56.8025758 ], [ 105.7626146, 56.8025582 ], [ 105.7662076, 56.8023925 ], [ 105.7664394, 56.8026851 ], [ 105.7658599, 56.8027521 ], [ 105.7645914, 56.802939 ], [ 105.7634774, 56.8030729 ], [ 105.7627305, 56.8031681 ], [ 105.7620866, 56.8032633 ], [ 105.7610757, 56.8033937 ], [ 105.7606442, 56.8033691 ], [ 105.7606442, 56.8032633 ] ] ] ] } },
{ "type": "Feature", "properties": { "id": null }, "geometry": { "type": "MultiPolygon", "coordinates": [ [ [ [ 105.7756504, 56.7901181 ], [ 105.776011, 56.7903209 ], [ 105.776803, 56.7905677 ], [ 105.7774791, 56.7907158 ], [ 105.777859, 56.7907758 ], [ 105.7786188, 56.7909839 ], [ 105.7793206, 56.7911602 ], [ 105.7793335, 56.7912272 ], [ 105.7797456, 56.7914 ], [ 105.7803831, 56.7915552 ], [ 105.7809948, 56.7917386 ], [ 105.7816644, 56.7918726 ], [ 105.7821989, 56.7919607 ], [ 105.7825917, 56.7920912 ], [ 105.7831454, 56.7921617 ], [ 105.7836541, 56.7922675 ], [ 105.7843366, 56.7924227 ], [ 105.7846393, 56.7925743 ], [ 105.7849548, 56.7926942 ], [ 105.7851544, 56.7928459 ], [ 105.7853862, 56.7929552 ], [ 105.785882, 56.7930751 ], [ 105.7864229, 56.793202 ], [ 105.7866547, 56.7932831 ], [ 105.7873308, 56.7935053 ], [ 105.7881357, 56.7937028 ], [ 105.7881807, 56.7937839 ], [ 105.7885864, 56.7939285 ], [ 105.78905, 56.7940801 ], [ 105.7894943, 56.7941612 ], [ 105.7899837, 56.7942882 ], [ 105.7900416, 56.7943516 ], [ 105.79037, 56.7944962 ], [ 105.7908336, 56.7946161 ], [ 105.7915419, 56.7947607 ], [ 105.7925721, 56.794944 ], [ 105.793435, 56.795145 ], [ 105.7939436, 56.7952156 ], [ 105.7944201, 56.7953037 ], [ 105.7945103, 56.7954025 ], [ 105.7949288, 56.7954307 ], [ 105.7956629, 56.7954941 ], [ 105.7965128, 56.7956352 ], [ 105.7968348, 56.7956775 ], [ 105.797704, 56.7956881 ], [ 105.7983479, 56.7956987 ], [ 105.7997001, 56.7957727 ], [ 105.800608, 56.7957939 ], [ 105.8010137, 56.7957657 ], [ 105.8010073, 56.7958221 ], [ 105.8014194, 56.7958327 ], [ 105.8014548, 56.7963175 ], [ 105.8013453, 56.7963263 ], [ 105.8012294, 56.7963104 ], [ 105.8010128, 56.7962854 ], [ 105.8006999, 56.7961937 ], [ 105.8002654, 56.7961812 ], [ 105.8001974, 56.7961216 ], [ 105.7994228, 56.7960546 ], [ 105.7986924, 56.7960319 ], [ 105.7986152, 56.7960601 ], [ 105.7982546, 56.796046 ], [ 105.7972243, 56.7960107 ], [ 105.7968509, 56.7959614 ], [ 105.7965032, 56.7959261 ], [ 105.7955244, 56.7958203 ], [ 105.7948548, 56.7957992 ], [ 105.7943912, 56.7957216 ], [ 105.7934639, 56.79551 ], [ 105.7926655, 56.7953266 ], [ 105.7916353, 56.7950798 ], [ 105.7912876, 56.7950234 ], [ 105.7909398, 56.7949599 ], [ 105.7897647, 56.7945544 ], [ 105.7896488, 56.7945791 ], [ 105.7887602, 56.7943851 ], [ 105.7885799, 56.794572 ], [ 105.7875916, 56.7943252 ], [ 105.7861235, 56.7939443 ], [ 105.786381, 56.793634 ], [ 105.7835865, 56.7927383 ], [ 105.7828396, 56.7925761 ], [ 105.7824661, 56.7928441 ], [ 105.7822343, 56.7932038 ], [ 105.7804504, 56.792778 ], [ 105.7808445, 56.7923314 ], [ 105.7808177, 56.7920542 ], [ 105.7790534, 56.7915675 ], [ 105.7766195, 56.7909045 ], [ 105.7757148, 56.7906964 ], [ 105.7756504, 56.7901181 ] ] ] ] } },
{ "type": "Feature", "properties": { "id": null }, "geometry": { "type": "MultiPolygon", "coordinates": [ [ [ [ 105.78556, 56.7950357 ], [ 105.7861995, 56.7949334 ], [ 105.7871981, 56.7949345 ], [ 105.7872149, 56.7945174 ], [ 105.7873115, 56.7944927 ], [ 105.7877107, 56.7945844 ], [ 105.7886121, 56.7947995 ], [ 105.7885735, 56.7948718 ], [ 105.788522, 56.7949881 ], [ 105.788625, 56.7952138 ], [ 105.7882194, 56.7956722 ], [ 105.7873887, 56.7954871 ], [ 105.78556, 56.7950357 ] ] ] ] } },
{ "type": "Feature", "properties": { "id": null }, "geometry": { "type": "MultiPolygon", "coordinates": [ [ [ [ 105.7897712, 56.7865577 ], [ 105.7898935, 56.7864907 ], [ 105.7901285, 56.7865489 ], [ 105.7903668, 56.7865207 ], [ 105.7903764, 56.7864519 ], [ 105.7904859, 56.7863619 ], [ 105.7906243, 56.7863549 ], [ 105.790795, 56.7863761 ], [ 105.7908272, 56.7863143 ], [ 105.7907048, 56.786235 ], [ 105.7907338, 56.786145 ], [ 105.7908594, 56.7859294 ], [ 105.7910586, 56.7859281 ], [ 105.7909817, 56.7865506 ], [ 105.7907499, 56.7865789 ], [ 105.7901317, 56.7866423 ], [ 105.7896681, 56.7866706 ], [ 105.7895909, 56.7866 ], [ 105.7897712, 56.7865577 ] ] ] ] } },
{ "type": "Feature", "properties": { "id": null }, "geometry": { "type": "MultiPolygon", "coordinates": [ [ [ [ 105.7913519, 56.7864413 ], [ 105.7914357, 56.7861732 ], [ 105.7918473, 56.7859226 ], [ 105.7922357, 56.785948 ], [ 105.7929311, 56.7860564 ], [ 105.7935541, 56.7862861 ], [ 105.7913519, 56.7864413 ] ] ] ] } },
{ "type": "Feature", "properties": { "id": null }, "geometry": { "type": "MultiPolygon", "coordinates": [ [ [ [ 105.7931549, 56.785101 ], [ 105.7959108, 56.7856795 ], [ 105.7980612, 56.7857381 ], [ 105.7994746, 56.7858184 ], [ 105.800476, 56.7857041 ], [ 105.8015385, 56.7855102 ], [ 105.8040561, 56.7856371 ], [ 105.8070954, 56.7857853 ], [ 105.8104114, 56.7859193 ], [ 105.8130579, 56.7860357 ], [ 105.8130321, 56.7861838 ], [ 105.8130965, 56.7862685 ], [ 105.8132575, 56.7863567 ], [ 105.8142491, 56.7864625 ], [ 105.8158138, 56.7866035 ], [ 105.8156271, 56.7867517 ], [ 105.8147063, 56.7866529 ], [ 105.8132575, 56.7864766 ], [ 105.8124075, 56.7863637 ], [ 105.809935, 56.7862861 ], [ 105.8071533, 56.7862085 ], [ 105.8051315, 56.7862156 ], [ 105.8043588, 56.7862085 ], [ 105.8028134, 56.7862156 ], [ 105.8010362, 56.7861874 ], [ 105.7990916, 56.7861732 ], [ 105.7978682, 56.7861662 ], [ 105.7960267, 56.7861662 ], [ 105.7947904, 56.786145 ], [ 105.794623, 56.786138 ], [ 105.7939662, 56.7860039 ], [ 105.7927557, 56.7855666 ], [ 105.7931549, 56.785101 ] ] ] ] } },
{ "type": "Feature", "properties": { "id": null }, "geometry": { "type": "MultiPolygon", "coordinates": [ [ [ [ 105.7942881, 56.7876722 ], [ 105.7917512, 56.7872067 ], [ 105.7917512, 56.7870656 ], [ 105.7918413, 56.786988 ], [ 105.7949063, 56.7866 ], [ 105.7992204, 56.7865436 ], [ 105.8019763, 56.7865083 ], [ 105.8036247, 56.7864942 ], [ 105.8035346, 56.7866212 ], [ 105.802324, 56.786734 ], [ 105.8012294, 56.786995 ], [ 105.8010362, 56.7873266 ], [ 105.7979713, 56.7874747 ], [ 105.7976493, 56.7873689 ], [ 105.797044, 56.7874253 ], [ 105.7966706, 56.7874677 ], [ 105.7965962, 56.7875789 ], [ 105.7953828, 56.7875276 ], [ 105.7943603, 56.7875851 ], [ 105.7942881, 56.7876722 ] ] ] ] } },
{ "type": "Feature", "properties": { "id": null }, "geometry": { "type": "MultiPolygon", "coordinates": [ [ [ [ 105.810302, 56.7910121 ], [ 105.809877, 56.7905466 ], [ 105.8090935, 56.7902336 ], [ 105.809012, 56.7900202 ], [ 105.80838, 56.7898465 ], [ 105.80819, 56.7892276 ], [ 105.8067476, 56.7891782 ], [ 105.8066575, 56.7878874 ], [ 105.8059492, 56.7874148 ], [ 105.8045584, 56.7872031 ], [ 105.8029615, 56.7870691 ], [ 105.8029873, 56.7870197 ], [ 105.8043523, 56.7867376 ], [ 105.8048417, 56.7867517 ], [ 105.8058462, 56.7867517 ], [ 105.8063355, 56.7867376 ], [ 105.8076491, 56.7864695 ], [ 105.8096838, 56.7865542 ], [ 105.8142684, 56.7870479 ], [ 105.8165607, 56.7873442 ], [ 105.8178176, 56.7873681 ], [ 105.8179216, 56.7903189 ], [ 105.8175394, 56.790476 ], [ 105.8166895, 56.7906735 ], [ 105.8160198, 56.7907723 ], [ 105.8146805, 56.7909133 ], [ 105.8137275, 56.7908428 ], [ 105.8129806, 56.7906453 ], [ 105.8121822, 56.7906594 ], [ 105.8109459, 56.7907864 ], [ 105.8105338, 56.7910121 ], [ 105.810302, 56.7910121 ] ] ] ] } },
{ "type": "Feature", "properties": { "id": null }, "geometry": { "type": "MultiPolygon", "coordinates": [ [ [ [ 105.8181839, 56.7904184 ], [ 105.8192914, 56.7908384 ], [ 105.8218678, 56.7918155 ], [ 105.8210294, 56.791802 ], [ 105.8208749, 56.7919995 ], [ 105.8205658, 56.7919854 ], [ 105.8205143, 56.7921547 ], [ 105.8201537, 56.7924368 ], [ 105.8193295, 56.792324 ], [ 105.8172175, 56.7920418 ], [ 105.8162388, 56.791929 ], [ 105.8148994, 56.7911531 ], [ 105.8154918, 56.7911108 ], [ 105.8159812, 56.7911108 ], [ 105.8167024, 56.7909274 ], [ 105.8176038, 56.7907441 ], [ 105.8181839, 56.7904184 ] ] ] ] } },
{ "type": "Feature", "properties": { "id": null }, "geometry": { "type": "MultiPolygon", "coordinates": [ [ [ [ 105.7848678, 56.8057927 ], [ 105.7852767, 56.8057628 ], [ 105.7855518, 56.8051636 ], [ 105.7858208, 56.8059831 ], [ 105.7848678, 56.8057927 ] ] ] ] } },
{ "type": "Feature", "properties": { "id": null }, "geometry": { "type": "MultiPolygon", "coordinates": [ [ [ [ 105.7865549, 56.8062087 ], [ 105.7864905, 56.8057927 ], [ 105.7896714, 56.8065048 ], [ 105.7898001, 56.8058209 ], [ 105.7914743, 56.8061876 ], [ 105.7915258, 56.8071605 ], [ 105.7865549, 56.8062087 ] ] ] ] } },
{ "type": "Feature", "properties": { "id": null }, "geometry": { "type": "MultiPolygon", "coordinates": [ [ [ [ 105.7875722, 56.8067516 ], [ 105.7912811, 56.8074214 ], [ 105.7911523, 56.8075835 ], [ 105.7924917, 56.8075342 ], [ 105.7924917, 56.807372 ], [ 105.793234, 56.8073887 ], [ 105.7931524, 56.8077459 ], [ 105.7936281, 56.8077979 ], [ 105.7934446, 56.8082392 ], [ 105.7932901, 56.8089724 ], [ 105.7924788, 56.8088666 ], [ 105.7909978, 56.8086269 ], [ 105.7894524, 56.808352 ], [ 105.7884995, 56.8080065 ], [ 105.7874306, 56.8074989 ], [ 105.7875722, 56.8067516 ] ] ] ] } },
{ "type": "Feature", "properties": { "id": null }, "geometry": { "type": "MultiPolygon", "coordinates": [ [ [ [ 105.7832066, 56.805553 ], [ 105.7863359, 56.8064132 ], [ 105.7866708, 56.8070195 ], [ 105.7860526, 56.8067516 ], [ 105.7854602, 56.806385 ], [ 105.7850997, 56.8062933 ], [ 105.7845588, 56.8062087 ], [ 105.7841853, 56.8060395 ], [ 105.7834255, 56.8059831 ], [ 105.782524, 56.8059761 ], [ 105.7817642, 56.8058139 ], [ 105.7832066, 56.805553 ] ] ] ] } },
{ "type": "Feature", "properties": { "id": null }, "geometry": { "type": "MultiPolygon", "coordinates": [ [ [ [ 105.7937537, 56.809064 ], [ 105.7939082, 56.8087327 ], [ 105.7946552, 56.8088173 ], [ 105.7948602, 56.8082711 ], [ 105.7952182, 56.8082667 ], [ 105.7954922, 56.8083661 ], [ 105.7955824, 56.8085917 ], [ 105.7965611, 56.8084507 ], [ 105.7966928, 56.8081587 ], [ 105.7974063, 56.8081179 ], [ 105.7973697, 56.807976 ], [ 105.8024077, 56.8088243 ], [ 105.8024721, 56.8092191 ], [ 105.802279, 56.8098113 ], [ 105.80206, 56.8098959 ], [ 105.8014934, 56.8100087 ], [ 105.8013002, 56.8100721 ], [ 105.799639, 56.8098747 ], [ 105.7937537, 56.809064 ] ] ] ] } },
{ "type": "Feature", "properties": { "id": null }, "geometry": { "type": "MultiPolygon", "coordinates": [ [ [ [ 105.8031482, 56.8093319 ], [ 105.803644, 56.8086692 ], [ 105.8045197, 56.8087362 ], [ 105.8045133, 56.8090429 ], [ 105.8046678, 56.8091416 ], [ 105.8045004, 56.80942 ], [ 105.8042235, 56.8094306 ], [ 105.8035217, 56.8094024 ], [ 105.8031482, 56.8093319 ] ] ] ] } },
{ "type": "Feature", "properties": { "id": null }, "geometry": { "type": "MultiPolygon", "coordinates": [ [ [ [ 105.8123303, 56.8093213 ], [ 105.8123303, 56.8096315 ], [ 105.813206, 56.8097584 ], [ 105.8136181, 56.8092508 ], [ 105.814365, 56.8092508 ], [ 105.8145195, 56.8098007 ], [ 105.8159876, 56.8098289 ], [ 105.8161422, 56.8091662 ], [ 105.8202116, 56.809279 ], [ 105.8204177, 56.8098571 ], [ 105.8218343, 56.8098712 ], [ 105.8211904, 56.8114644 ], [ 105.8207525, 56.8125218 ], [ 105.8205207, 56.8125923 ], [ 105.8190526, 56.8127474 ], [ 105.8174557, 56.8128038 ], [ 105.815421, 56.8128743 ], [ 105.8143393, 56.8126769 ], [ 105.8126651, 56.8122962 ], [ 105.811197, 56.8119438 ], [ 105.8098062, 56.8115208 ], [ 105.8076427, 56.8109568 ], [ 105.8075139, 56.8107595 ], [ 105.8083638, 56.8099981 ], [ 105.8093426, 56.8092931 ], [ 105.8123303, 56.8093213 ] ] ] ] } },
{ "type": "Feature", "properties": { "id": null }, "geometry": { "type": "MultiPolygon", "coordinates": [ [ [ [ 105.8308489, 56.8137201 ], [ 105.8324245, 56.8160571 ], [ 105.8298899, 56.8156579 ], [ 105.8289569, 56.8166413 ], [ 105.8291056, 56.8150422 ], [ 105.8294757, 56.8144719 ], [ 105.8303236, 56.8137273 ], [ 105.8308489, 56.8137201 ] ] ] ] } },
{ "type": "Feature", "properties": { "id": null }, "geometry": { "type": "MultiPolygon", "coordinates": [ [ [ [ 105.8330382, 56.8159194 ], [ 105.8320079, 56.8138047 ], [ 105.8352532, 56.813551 ], [ 105.8378546, 56.8134241 ], [ 105.8336048, 56.8160039 ], [ 105.8330382, 56.8159194 ] ] ] ] } },
{ "type": "Feature", "properties": { "id": null }, "geometry": { "type": "MultiPolygon", "coordinates": [ [ [ [ 105.8239704, 56.8101372 ], [ 105.8258291, 56.8103433 ], [ 105.8264815, 56.8100011 ], [ 105.8271067, 56.8100755 ], [ 105.8270523, 56.8103433 ], [ 105.830015, 56.8103731 ], [ 105.8300311, 56.8102942 ], [ 105.8340427, 56.8104916 ], [ 105.8354241, 56.8098076 ], [ 105.8361036, 56.8101647 ], [ 105.8367287, 56.810135 ], [ 105.8370006, 56.8097779 ], [ 105.8391419, 56.8097368 ], [ 105.8400992, 56.8097184 ], [ 105.8397605, 56.8103506 ], [ 105.8393227, 56.8113234 ], [ 105.8390909, 56.8118733 ], [ 105.8388848, 56.8121975 ], [ 105.8386788, 56.8124795 ], [ 105.8387303, 56.812987 ], [ 105.8359486, 56.813269 ], [ 105.834223, 56.8133959 ], [ 105.8318276, 56.8136496 ], [ 105.8314155, 56.8136356 ], [ 105.8308489, 56.8128602 ], [ 105.8301792, 56.8121129 ], [ 105.8286854, 56.8116054 ], [ 105.8267537, 56.8113798 ], [ 105.8257234, 56.8114292 ], [ 105.8246159, 56.8116406 ], [ 105.8234698, 56.8118662 ], [ 105.8239704, 56.8101372 ] ] ] ] } },
{ "type": "Feature", "properties": { "id": null }, "geometry": { "type": "MultiPolygon", "coordinates": [ [ [ [ 105.8386466, 56.8135439 ], [ 105.8381443, 56.8146012 ], [ 105.8377966, 56.8144039 ], [ 105.8373845, 56.8147422 ], [ 105.8371656, 56.8146506 ], [ 105.837127, 56.8144321 ], [ 105.8386466, 56.8135439 ] ] ] ] } },
{ "type": "Feature", "properties": { "id": null }, "geometry": { "type": "MultiPolygon", "coordinates": [ [ [ [ 105.849844, 56.8137166 ], [ 105.8538115, 56.8119136 ], [ 105.8551047, 56.8117675 ], [ 105.8544672, 56.8120777 ], [ 105.8531666, 56.8127262 ], [ 105.8522265, 56.8131915 ], [ 105.8511061, 56.8136426 ], [ 105.8504493, 56.8139246 ], [ 105.8500501, 56.8140303 ], [ 105.849844, 56.8137166 ] ] ] ] } },
{ "type": "Feature", "properties": { "id": null }, "geometry": { "type": "MultiPolygon", "coordinates": [ [ [ [ 105.8532116, 56.8134875 ], [ 105.8539006, 56.8131915 ], [ 105.8552786, 56.8126487 ], [ 105.8555941, 56.8126205 ], [ 105.8558323, 56.8129342 ], [ 105.8559627, 56.813121 ], [ 105.8559627, 56.8133265 ], [ 105.8556134, 56.8133183 ], [ 105.8551176, 56.8133148 ], [ 105.8547184, 56.8133465 ], [ 105.8542354, 56.81341 ], [ 105.8537461, 56.8134523 ], [ 105.8532116, 56.8134875 ] ] ] ] } },
{ "type": "Feature", "properties": { "id": null }, "geometry": { "type": "MultiPolygon", "coordinates": [ [ [ [ 105.8837712, 56.808715 ], [ 105.8884846, 56.8102202 ], [ 105.8897692, 56.8107277 ], [ 105.889576, 56.8108476 ], [ 105.8884588, 56.8106044 ], [ 105.8876089, 56.8103224 ], [ 105.8867589, 56.8100404 ], [ 105.8849818, 56.809702 ], [ 105.8841318, 56.8094905 ], [ 105.8829985, 56.809279 ], [ 105.8837712, 56.808715 ] ] ] ] } },
{ "type": "Feature", "properties": { "id": null }, "geometry": { "type": "MultiPolygon", "coordinates": [ [ [ [ 105.8822065, 56.8121552 ], [ 105.8835909, 56.8124689 ], [ 105.8837712, 56.8124548 ], [ 105.8838356, 56.812046 ], [ 105.8826508, 56.811757 ], [ 105.8827539, 56.8112212 ], [ 105.8842735, 56.8112282 ], [ 105.8845053, 56.8110027 ], [ 105.8844538, 56.8107348 ], [ 105.8839902, 56.8104458 ], [ 105.8840159, 56.8101849 ], [ 105.8857416, 56.8105444 ], [ 105.8878793, 56.8110027 ], [ 105.8892573, 56.8113974 ], [ 105.8901845, 56.8117182 ], [ 105.8916783, 56.8122293 ], [ 105.8924382, 56.8122892 ], [ 105.8929919, 56.8119825 ], [ 105.8930692, 56.8115878 ], [ 105.8933718, 56.8114397 ], [ 105.8939191, 56.811401 ], [ 105.8936873, 56.811616 ], [ 105.8951941, 56.81212 ], [ 105.895413, 56.8119684 ], [ 105.8949043, 56.8116688 ], [ 105.8948979, 56.8116336 ], [ 105.8951941, 56.8114644 ], [ 105.8957736, 56.811556 ], [ 105.8967394, 56.8117887 ], [ 105.8974992, 56.8124584 ], [ 105.8979306, 56.8129465 ], [ 105.8970609, 56.8130536 ], [ 105.8958546, 56.8132426 ], [ 105.8952872, 56.8133589 ], [ 105.8946275, 56.8135308 ], [ 105.8932716, 56.813777 ], [ 105.8919157, 56.8140232 ], [ 105.890566, 56.8139076 ], [ 105.8894004, 56.8138242 ], [ 105.887213, 56.8137275 ], [ 105.8844132, 56.813457 ], [ 105.8819779, 56.8132216 ], [ 105.8808722, 56.8131148 ], [ 105.8813437, 56.8124725 ], [ 105.8817172, 56.812261 ], [ 105.8822065, 56.8121552 ] ] ] ] } },
{ "type": "Feature", "properties": { "id": null }, "geometry": { "type": "MultiPolygon", "coordinates": [ [ [ [ 105.8880081, 56.8028455 ], [ 105.8880854, 56.8029901 ], [ 105.8876475, 56.8030359 ], [ 105.8876218, 56.8033462 ], [ 105.8874543, 56.8033708 ], [ 105.8866881, 56.8034449 ], [ 105.88654, 56.8030606 ], [ 105.886701, 56.8030077 ], [ 105.8880081, 56.8028455 ] ] ] ] } },
{ "type": "Feature", "properties": { "id": null }, "geometry": { "type": "MultiPolygon", "coordinates": [ [ [ [ 105.9166682, 56.7946355 ], [ 105.9169759, 56.7953217 ], [ 105.9157435, 56.7952192 ], [ 105.9146783, 56.7972584 ], [ 105.9141166, 56.7970414 ], [ 105.9135231, 56.796312 ], [ 105.9142208, 56.7950021 ], [ 105.9125718, 56.7949029 ], [ 105.9121188, 56.7958754 ], [ 105.9117473, 56.7959201 ], [ 105.9115027, 56.7962475 ], [ 105.9105967, 56.7964931 ], [ 105.9099262, 56.7964683 ], [ 105.9089658, 56.7963096 ], [ 105.9073168, 56.7964981 ], [ 105.9064765, 56.7963765 ], [ 105.9054323, 56.7962897 ], [ 105.9049883, 56.7965365 ], [ 105.9050064, 56.797251 ], [ 105.9048433, 56.7979158 ], [ 105.9055455, 56.79835 ], [ 105.9059125, 56.7985062 ], [ 105.9059306, 56.7986352 ], [ 105.9051151, 56.7992207 ], [ 105.9046259, 56.7992802 ], [ 105.9040913, 56.7990817 ], [ 105.9038376, 56.7990545 ], [ 105.9036111, 56.7991562 ], [ 105.9036383, 56.7993943 ], [ 105.9039781, 56.7995803 ], [ 105.9044175, 56.799687 ], [ 105.9051423, 56.79995 ], [ 105.906746, 56.8002377 ], [ 105.9079516, 56.8003084 ], [ 105.9092744, 56.8005961 ], [ 105.9097795, 56.8007809 ], [ 105.9097365, 56.8010116 ], [ 105.9088622, 56.8021588 ], [ 105.9087172, 56.8027045 ], [ 105.9088169, 56.8027888 ], [ 105.9091068, 56.8028533 ], [ 105.9094466, 56.8027616 ], [ 105.9096187, 56.8026648 ], [ 105.9096278, 56.8025656 ], [ 105.9093945, 56.8024751 ], [ 105.9100762, 56.8020497 ], [ 105.9104568, 56.8018116 ], [ 105.9104251, 56.8015226 ], [ 105.9106901, 56.801411 ], [ 105.9112654, 56.8013961 ], [ 105.9113515, 56.8016516 ], [ 105.9114376, 56.8019071 ], [ 105.9114738, 56.8024329 ], [ 105.9111012, 56.8031429 ], [ 105.9105236, 56.8032979 ], [ 105.9101143, 56.8032567 ], [ 105.9093178, 56.8031765 ], [ 105.90863, 56.8030449 ], [ 105.9081045, 56.8030251 ], [ 105.9082381, 56.8025675 ], [ 105.9073502, 56.8024683 ], [ 105.9071079, 56.8028217 ], [ 105.9070361, 56.8028876 ], [ 105.9066298, 56.8028297 ], [ 105.9058632, 56.8027523 ], [ 105.9050296, 56.8026729 ], [ 105.9050296, 56.8020776 ], [ 105.9048122, 56.8018792 ], [ 105.9045947, 56.8016807 ], [ 105.9036887, 56.8013682 ], [ 105.9033535, 56.8009763 ], [ 105.9030969, 56.8003852 ], [ 105.9032266, 56.8000535 ], [ 105.9026649, 56.7998253 ], [ 105.9016501, 56.7999146 ], [ 105.9013693, 56.7993193 ], [ 105.901085, 56.7992746 ], [ 105.9011019, 56.79917 ], [ 105.9018939, 56.7992088 ], [ 105.9020162, 56.7991136 ], [ 105.9020806, 56.7989585 ], [ 105.8999106, 56.7979818 ], [ 105.9005159, 56.7976292 ], [ 105.9017908, 56.7969804 ], [ 105.9028082, 56.7964233 ], [ 105.9034907, 56.7962047 ], [ 105.9037354, 56.7962188 ], [ 105.9039672, 56.7961553 ], [ 105.9041604, 56.7961059 ], [ 105.9043536, 56.7960072 ], [ 105.904624, 56.7960918 ], [ 105.9048301, 56.7960636 ], [ 105.9050103, 56.7958944 ], [ 105.9050619, 56.7956405 ], [ 105.9061951, 56.7952879 ], [ 105.9081011, 56.7948859 ], [ 105.9097881, 56.7946531 ], [ 105.9107282, 56.7945403 ], [ 105.9117584, 56.7944839 ], [ 105.9129432, 56.7944345 ], [ 105.914128, 56.7944839 ], [ 105.9166682, 56.7946355 ] ] ] ] } },
{ "type": "Feature", "properties": { "id": null }, "geometry": { "type": "MultiPolygon", "coordinates": [ [ [ [ 105.9028966, 56.8202499 ], [ 105.9037354, 56.8178982 ], [ 105.9049494, 56.8205008 ], [ 105.9028966, 56.8202499 ] ] ] ] } },
{ "type": "Feature", "properties": { "id": null }, "geometry": { "type": "MultiPolygon", "coordinates": [ [ [ [ 105.9144242, 56.8117446 ], [ 105.9158537, 56.8109903 ], [ 105.9163301, 56.8105674 ], [ 105.9175536, 56.8110608 ], [ 105.9178498, 56.8114485 ], [ 105.915918, 56.8114697 ], [ 105.9144242, 56.8117446 ] ] ] ] } },
{ "type": "Feature", "properties": { "id": null }, "geometry": { "type": "MultiPolygon", "coordinates": [ [ [ [ 105.913806, 56.8121605 ], [ 105.9160468, 56.8116812 ], [ 105.9182747, 56.8117446 ], [ 105.9219579, 56.812513 ], [ 105.9238839, 56.8129253 ], [ 105.9238163, 56.8130888 ], [ 105.9246705, 56.8139583 ], [ 105.9230471, 56.8142213 ], [ 105.9205928, 56.8130769 ], [ 105.9181846, 56.8120195 ], [ 105.9159438, 56.8125835 ], [ 105.9147075, 56.8128513 ], [ 105.9139091, 56.8127527 ], [ 105.913806, 56.8121605 ] ] ] ] } },
{ "type": "Feature", "properties": { "id": null }, "geometry": { "type": "MultiPolygon", "coordinates": [ [ [ [ 105.9114838, 56.8129698 ], [ 105.9120782, 56.8127675 ], [ 105.9125466, 56.8128363 ], [ 105.9149522, 56.8131897 ], [ 105.9178884, 56.8123579 ], [ 105.9209662, 56.8136761 ], [ 105.9224227, 56.8143224 ], [ 105.9210204, 56.8145496 ], [ 105.9201724, 56.8140444 ], [ 105.9171585, 56.8139491 ], [ 105.9158346, 56.8139072 ], [ 105.913033, 56.8139444 ], [ 105.9131047, 56.8134988 ], [ 105.9114838, 56.8129698 ] ] ] ] } },
{ "type": "Feature", "properties": { "id": null }, "geometry": { "type": "MultiPolygon", "coordinates": [ [ [ [ 105.9217188, 56.8103991 ], [ 105.9218142, 56.8104592 ], [ 105.9206829, 56.8109621 ], [ 105.9199489, 56.8119138 ], [ 105.9222412, 56.8123509 ], [ 105.923986, 56.8126784 ], [ 105.9243068, 56.8119029 ], [ 105.9234765, 56.8110538 ], [ 105.9226248, 56.8110637 ], [ 105.9217188, 56.8103991 ] ] ] ] } },
{ "type": "Feature", "properties": { "id": null }, "geometry": { "type": "MultiPolygon", "coordinates": [ [ [ [ 105.9196527, 56.8104123 ], [ 105.9203545, 56.8101127 ], [ 105.9208053, 56.8090693 ], [ 105.9204382, 56.8087203 ], [ 105.9204511, 56.80853 ], [ 105.9208375, 56.808671 ], [ 105.9213333, 56.808604 ], [ 105.9214299, 56.8081176 ], [ 105.9220866, 56.8079272 ], [ 105.9217776, 56.8086005 ], [ 105.9214041, 56.8092984 ], [ 105.9223349, 56.8096551 ], [ 105.9221983, 56.8097271 ], [ 105.9217135, 56.8099827 ], [ 105.9211723, 56.8102713 ], [ 105.9204382, 56.8107013 ], [ 105.9203352, 56.8110749 ], [ 105.9193951, 56.8116177 ], [ 105.9186868, 56.8114979 ], [ 105.9178884, 56.8106661 ], [ 105.9196527, 56.8104123 ] ] ] ] } },
{ "type": "Feature", "properties": { "id": null }, "geometry": { "type": "MultiPolygon", "coordinates": [ [ [ [ 105.9258792, 56.8072574 ], [ 105.9265713, 56.8076114 ], [ 105.9255573, 56.8080612 ], [ 105.9242823, 56.8086534 ], [ 105.92429, 56.8089089 ], [ 105.9228014, 56.8095064 ], [ 105.9220094, 56.8092385 ], [ 105.922209, 56.8086393 ], [ 105.922679, 56.8077369 ], [ 105.9229752, 56.8077263 ], [ 105.9236642, 56.8075606 ], [ 105.9243725, 56.8073879 ], [ 105.9249391, 56.8073385 ], [ 105.9258792, 56.8072574 ] ] ] ] } },
{ "type": "Feature", "properties": { "id": null }, "geometry": { "type": "MultiPolygon", "coordinates": [ [ [ [ 105.9196012, 56.8075888 ], [ 105.9205155, 56.8070741 ], [ 105.9212109, 56.8068485 ], [ 105.9231684, 56.8068274 ], [ 105.9244047, 56.8068556 ], [ 105.9246494, 56.8069472 ], [ 105.9235547, 56.8070953 ], [ 105.9225245, 56.8072081 ], [ 105.9212496, 56.8073491 ], [ 105.9208503, 56.8074125 ], [ 105.9202579, 56.8075888 ], [ 105.9197686, 56.8077298 ], [ 105.9196012, 56.8075888 ] ] ] ] } },
{ "type": "Feature", "properties": { "id": null }, "geometry": { "type": "MultiPolygon", "coordinates": [ [ [ [ 105.9241729, 56.8057839 ], [ 105.9265424, 56.8058897 ], [ 105.9286029, 56.8054526 ], [ 105.9294014, 56.8052692 ], [ 105.9294529, 56.8055231 ], [ 105.9294271, 56.8059038 ], [ 105.9291309, 56.805932 ], [ 105.9287059, 56.8060589 ], [ 105.9280234, 56.8063268 ], [ 105.9273924, 56.8065242 ], [ 105.9267871, 56.8065383 ], [ 105.9261432, 56.8067357 ], [ 105.9255379, 56.8067498 ], [ 105.9237994, 56.8067287 ], [ 105.9216745, 56.8066864 ], [ 105.9241729, 56.8057839 ] ] ] ] } },
{ "type": "Feature", "properties": { "id": null }, "geometry": { "type": "MultiPolygon", "coordinates": [ [ [ [ 105.9318739, 56.803295 ], [ 105.9308695, 56.8050366 ], [ 105.9303672, 56.8058897 ], [ 105.9300324, 56.8058403 ], [ 105.9296332, 56.8058685 ], [ 105.9296332, 56.8052974 ], [ 105.9295044, 56.8051635 ], [ 105.9301869, 56.8042892 ], [ 105.9318739, 56.803295 ] ] ] ] } },
{ "type": "Feature", "properties": { "id": null }, "geometry": { "type": "MultiPolygon", "coordinates": [ [ [ [ 105.9364328, 56.8096967 ], [ 105.9368835, 56.8089706 ], [ 105.9367032, 56.8088085 ], [ 105.9360722, 56.8086181 ], [ 105.9355699, 56.8089494 ], [ 105.9351192, 56.8088296 ], [ 105.935879, 56.807335 ], [ 105.9372312, 56.8080541 ], [ 105.9375274, 56.8086463 ], [ 105.938094, 56.8098307 ], [ 105.9376433, 56.8098236 ], [ 105.9371797, 56.8098236 ], [ 105.9364328, 56.8096967 ] ] ] ] } },
{ "type": "Feature", "properties": { "id": null }, "geometry": { "type": "MultiPolygon", "coordinates": [ [ [ [ 105.9458058, 56.8091617 ], [ 105.9464432, 56.8087176 ], [ 105.9470131, 56.8088022 ], [ 105.9472884, 56.8089634 ], [ 105.9467481, 56.8096685 ], [ 105.9458058, 56.8091617 ] ] ] ] } },
{ "type": "Feature", "properties": { "id": null }, "geometry": { "type": "MultiPolygon", "coordinates": [ [ [ [ 105.9406954, 56.8065736 ], [ 105.9416275, 56.8070076 ], [ 105.9442047, 56.8084278 ], [ 105.9450138, 56.8087704 ], [ 105.9452285, 56.8089917 ], [ 105.945177, 56.8090481 ], [ 105.9450868, 56.8090129 ], [ 105.9445846, 56.8088014 ], [ 105.9438634, 56.8085617 ], [ 105.9431809, 56.8082656 ], [ 105.9418029, 56.8077298 ], [ 105.9399485, 56.8069895 ], [ 105.9398841, 56.8066864 ], [ 105.9406954, 56.8065736 ] ] ] ] } },
{ "type": "Feature", "properties": { "id": null }, "geometry": { "type": "MultiPolygon", "coordinates": [ [ [ [ 105.950399, 56.8096862 ], [ 105.9508369, 56.8100316 ], [ 105.9506952, 56.8100668 ], [ 105.950721, 56.8102078 ], [ 105.950502, 56.8103065 ], [ 105.9496006, 56.8097355 ], [ 105.9497165, 56.8096368 ], [ 105.9504119, 56.8099752 ], [ 105.950399, 56.8096862 ] ] ] ] } },
{ "type": "Feature", "properties": { "id": null }, "geometry": { "type": "MultiPolygon", "coordinates": [ [ [ [ 105.9458917, 56.8094676 ], [ 105.9479055, 56.8105013 ], [ 105.9501978, 56.8116856 ], [ 105.950919, 56.8122002 ], [ 105.9533207, 56.8139906 ], [ 105.9539389, 56.8144946 ], [ 105.9547037, 56.8150038 ], [ 105.9547037, 56.8152982 ], [ 105.954689, 56.8154674 ], [ 105.9547244, 56.8155969 ], [ 105.9548757, 56.8157158 ], [ 105.9550496, 56.8158638 ], [ 105.9552621, 56.8160286 ], [ 105.9554746, 56.8162048 ], [ 105.9557788, 56.8164497 ], [ 105.9561587, 56.8168127 ], [ 105.955943, 56.8169132 ], [ 105.9564517, 56.8172973 ], [ 105.9571121, 56.8176 ], [ 105.9579874, 56.8183175 ], [ 105.9577009, 56.8187017 ], [ 105.9574691, 56.8190118 ], [ 105.9569828, 56.8195241 ], [ 105.9546453, 56.8185656 ], [ 105.95367, 56.8179546 ], [ 105.9521247, 56.8169608 ], [ 105.9502702, 56.8158471 ], [ 105.9474886, 56.8141554 ], [ 105.9448872, 56.8125341 ], [ 105.9422086, 56.8109198 ], [ 105.9415691, 56.8105821 ], [ 105.9415654, 56.8103483 ], [ 105.9411866, 56.8102728 ], [ 105.9401738, 56.8082198 ], [ 105.9400451, 56.8072962 ], [ 105.9427495, 56.8082762 ], [ 105.9458917, 56.8094676 ] ] ] ] } },
{ "type": "Feature", "properties": { "id": null }, "geometry": { "type": "MultiPolygon", "coordinates": [ [ [ [ 105.9508803, 56.8103603 ], [ 105.9512667, 56.8109454 ], [ 105.9509061, 56.8110793 ], [ 105.9495668, 56.8105436 ], [ 105.9487683, 56.8101911 ], [ 105.9492577, 56.8098527 ], [ 105.9506743, 56.8104872 ], [ 105.9508803, 56.8103603 ] ] ] ] } },
{ "type": "Feature", "properties": { "id": null }, "geometry": { "type": "MultiPolygon", "coordinates": [ [ [ [ 105.9484979, 56.8105506 ], [ 105.9508546, 56.8114741 ], [ 105.9505455, 56.8116433 ], [ 105.9484979, 56.8105506 ] ] ] ] } },
{ "type": "Feature", "properties": { "id": null }, "geometry": { "type": "MultiPolygon", "coordinates": [ [ [ [ 105.9519363, 56.8106846 ], [ 105.9531559, 56.8114696 ], [ 105.9525716, 56.8118225 ], [ 105.9522583, 56.811601 ], [ 105.9522969, 56.8113472 ], [ 105.951756, 56.8108819 ], [ 105.9519363, 56.8106846 ] ] ] ] } },
{ "type": "Feature", "properties": { "id": null }, "geometry": { "type": "MultiPolygon", "coordinates": [ [ [ [ 105.9575039, 56.8195894 ], [ 105.9579246, 56.8191712 ], [ 105.9584741, 56.8191477 ], [ 105.9598735, 56.8195753 ], [ 105.9599336, 56.8198807 ], [ 105.9598134, 56.8203506 ], [ 105.959676, 56.8202942 ], [ 105.9589634, 56.8201156 ], [ 105.9575039, 56.8195894 ] ] ] ] } },
{ "type": "Feature", "properties": { "id": null }, "geometry": { "type": "MultiPolygon", "coordinates": [ [ [ [ 105.9636511, 56.8215111 ], [ 105.9643851, 56.8218458 ], [ 105.9650548, 56.8219821 ], [ 105.9652093, 56.8221747 ], [ 105.9646577, 56.8227479 ], [ 105.9632561, 56.8214312 ], [ 105.9636511, 56.8215111 ] ] ] ] } },
{ "type": "Feature", "properties": { "id": null }, "geometry": { "type": "MultiPolygon", "coordinates": [ [ [ [ 105.9667032, 56.8222405 ], [ 105.9680339, 56.8225741 ], [ 105.9682829, 56.8229358 ], [ 105.9677677, 56.8231754 ], [ 105.9669951, 56.8231237 ], [ 105.9667032, 56.8229781 ], [ 105.9667804, 56.8225177 ], [ 105.9667032, 56.8222405 ] ] ] ] } },
{ "type": "Feature", "properties": { "id": null }, "geometry": { "type": "MultiPolygon", "coordinates": [ [ [ [ 105.9660327, 56.8241777 ], [ 105.9654097, 56.8234499 ], [ 105.9662052, 56.8233586 ], [ 105.9673814, 56.8237815 ], [ 105.9675445, 56.8239271 ], [ 105.9674243, 56.8239882 ], [ 105.9671067, 56.8241573 ], [ 105.9668749, 56.8243499 ], [ 105.9660327, 56.8241777 ] ] ] ] } },
{ "type": "Feature", "properties": { "id": null }, "geometry": { "type": "MultiPolygon", "coordinates": [ [ [ [ 105.9776237, 56.8186086 ], [ 105.9776924, 56.818726 ], [ 105.9774713, 56.8187765 ], [ 105.9774134, 56.8186438 ], [ 105.9776237, 56.8186086 ] ] ] ] } },
{ "type": "Feature", "properties": { "id": null }, "geometry": { "type": "MultiPolygon", "coordinates": [ [ [ [ 105.9777997, 56.8190702 ], [ 105.9778706, 56.8191466 ], [ 105.9779156, 56.8192405 ], [ 105.9780015, 56.8193404 ], [ 105.9781818, 56.8194896 ], [ 105.9783642, 56.8196047 ], [ 105.9782977, 56.8196047 ], [ 105.9780916, 56.8195553 ], [ 105.9778169, 56.8195084 ], [ 105.9774671, 56.8194496 ], [ 105.9777568, 56.8191266 ], [ 105.9777997, 56.8190702 ] ] ] ] } },
{ "type": "Feature", "properties": { "id": null }, "geometry": { "type": "MultiPolygon", "coordinates": [ [ [ [ 105.9784179, 56.8196493 ], [ 105.9792592, 56.8201943 ], [ 105.9781045, 56.8200722 ], [ 105.9784179, 56.8196493 ] ] ] ] } },
{ "type": "Feature", "properties": { "id": null }, "geometry": { "type": "MultiPolygon", "coordinates": [ [ [ [ 105.9657373, 56.8124128 ], [ 105.9673513, 56.8127982 ], [ 105.9680038, 56.8130332 ], [ 105.9683301, 56.8130707 ], [ 105.9688967, 56.8130613 ], [ 105.9697381, 56.8131553 ], [ 105.9699956, 56.8132775 ], [ 105.9705108, 56.8135877 ], [ 105.9710602, 56.8139918 ], [ 105.9716097, 56.8143208 ], [ 105.9724167, 56.8147061 ], [ 105.9732924, 56.8150726 ], [ 105.9742883, 56.8154768 ], [ 105.9756791, 56.81605 ], [ 105.9754903, 56.816191 ], [ 105.9752499, 56.8165763 ], [ 105.9744944, 56.8162098 ], [ 105.9731379, 56.8155801 ], [ 105.9723593, 56.8152392 ], [ 105.972546, 56.8151193 ], [ 105.971754, 56.8148303 ], [ 105.9715415, 56.8149537 ], [ 105.9708713, 56.8147061 ], [ 105.9689482, 56.813879 ], [ 105.9678836, 56.8135031 ], [ 105.9665272, 56.8130238 ], [ 105.9654626, 56.8126948 ], [ 105.9657373, 56.8124128 ] ] ] ] } },
{ "type": "Feature", "properties": { "id": null }, "geometry": { "type": "MultiPolygon", "coordinates": [ [ [ [ 105.9776366, 56.8188036 ], [ 105.9777654, 56.8190091 ], [ 105.9776538, 56.8190761 ], [ 105.9775379, 56.819035 ], [ 105.9773833, 56.8189504 ], [ 105.9774606, 56.8188235 ], [ 105.9776366, 56.8188036 ] ] ] ] } }
]
}
