{
"type": "FeatureCollection",
"name": "points_kindergaden",
"crs": { "type": "name", "properties": { "name": "urn:ogc:def:crs:OGC:1.3:CRS84" } },
"features": [
{ "type": "Feature", "properties": { "building": "kindergarten", "name": "Детский сад №41 Колокольчик", "building_l": "2", "addr_stree": "улица Кирова", "addr_house": "40а", "addr_city": "Усть-Кут" }, "geometry": { "type": "Point", "coordinates": [ 105.738445581947204, 56.7786276995894 ] } },
{ "type": "Feature", "properties": { "building": "kindergarten", "name": "Детский сад общеразвивающего вида №39 Усть-Кутского муниципального образования", "building_l": "2", "addr_stree": "улица Ломоносова", "addr_house": "56", "addr_city": "Усть-Кут" }, "geometry": { "type": "Point", "coordinates": [ 105.789823947799505, 56.798969377186168 ] } },
{ "type": "Feature", "properties": { "building": "kindergarten", "name": "Муниципальное дошкольное образовательное учреждение детский сад общеразвивающего вида № 8", "building_l": "2", "addr_stree": "улица Речников", "addr_house": "43", "addr_city": "Усть-Кут" }, "geometry": { "type": "Point", "coordinates": [ 105.790200304511728, 56.797332629440064 ] } },
{ "type": "Feature", "properties": { "building": "kindergarten", "name": "Детский сад №3", "building_l": "1", "addr_stree": "Первомайская улица", "addr_house": "1", "addr_city": null }, "geometry": { "type": "Point", "coordinates": [ 105.658014729626117, 56.76445126610335 ] } },
{ "type": "Feature", "properties": { "building": "kindergarten", "name": "Муниципальное казѐнное дошкольное образовательное учреждение детский сад № 54 Усть-Кутского муниципального образования", "building_l": null, "addr_stree": "улица Калинина", "addr_house": "9", "addr_city": "Усть-Кут" }, "geometry": { "type": "Point", "coordinates": [ 105.749512875143495, 56.780693550563875 ] } },
{ "type": "Feature", "properties": { "building": "kindergarten", "name": "Детский сад №32 Усть-Кутского Муниципального образования Иркутской области", "building_l": "2", "addr_stree": "Геологическая улица", "addr_house": "11", "addr_city": "Усть-Кут" }, "geometry": { "type": "Point", "coordinates": [ 105.847197514432878, 56.803044273093448 ] } },
{ "type": "Feature", "properties": { "building": "kindergarten", "name": "Муниципальное дошкольное образовательное учреждение детский сад № 30", "building_l": "1", "addr_stree": "Полевая улица", "addr_house": "4", "addr_city": "Усть-Кут" }, "geometry": { "type": "Point", "coordinates": [ 105.583725500466784, 56.794302616501845 ] } },
{ "type": "Feature", "properties": { "building": "kindergarten", "name": "Муниципальное дошкольное образовательное учреждение детский сад № 30", "building_l": "1", "addr_stree": "Полевая улица", "addr_house": "4", "addr_city": "Усть-Кут" }, "geometry": { "type": "Point", "coordinates": [ 105.584057934194718, 56.793992093260734 ] } },
{ "type": "Feature", "properties": { "building": "kindergarten", "name": "Муниципальное дошкольное образовательное учреждение детский сад № 30", "building_l": "1", "addr_stree": "Полевая улица", "addr_house": "4", "addr_city": "Усть-Кут" }, "geometry": { "type": "Point", "coordinates": [ 105.584587180651241, 56.794092565764785 ] } },
{ "type": "Feature", "properties": { "building": "kindergarten", "name": "Детский сад №24 тополек", "building_l": "2", "addr_stree": "улица Речников", "addr_house": "50", "addr_city": "Усть-Кут" }, "geometry": { "type": "Point", "coordinates": [ 105.801653583463917, 56.798221454051145 ] } },
{ "type": "Feature", "properties": { "building": "kindergarten", "name": "Детский сад общеразвивающего вида №22", "building_l": "2", "addr_stree": "улица Толстого", "addr_house": "49а", "addr_city": "Усть-Кут" }, "geometry": { "type": "Point", "coordinates": [ 105.7859297232241, 56.802015749795643 ] } },
{ "type": "Feature", "properties": { "building": "kindergarten", "name": "Детский сад общеразвивающего вида №48", "building_l": "2", "addr_stree": "Реброва-Денисова", "addr_house": "21", "addr_city": "Усть-Кут" }, "geometry": { "type": "Point", "coordinates": [ 105.756980500830124, 56.781466267624843 ] } },
{ "type": "Feature", "properties": { "building": "kindergarten", "name": "Детский сад №13", "building_l": "2", "addr_stree": "улица Жуковского", "addr_house": "76", "addr_city": "Усть-Кут" }, "geometry": { "type": "Point", "coordinates": [ 105.78265475, 56.78717325 ] } },
{ "type": "Feature", "properties": { "building": "kindergarten", "name": "Детский сад №1", "building_l": "1", "addr_stree": "улица Осипенко", "addr_house": "25", "addr_city": null }, "geometry": { "type": "Point", "coordinates": [ 105.67577515, 56.7625576 ] } },
{ "type": "Feature", "properties": { "building": "kindergarten", "name": "Детский сад общеразвивающего вида №50", "building_l": "3", "addr_stree": "улица Нефтяников", "addr_house": "23а", "addr_city": null }, "geometry": { "type": "Point", "coordinates": [ 105.877703688568758, 56.804673531983795 ] } },
{ "type": "Feature", "properties": { "building": "kindergarten", "name": "Муниципальное дошкольное образовательное учреждение детский сад № 44", "building_l": "2", "addr_stree": "улица Щорса", "addr_house": "4а", "addr_city": "Усть-Кут" }, "geometry": { "type": "Point", "coordinates": [ 105.646589468648997, 56.768629282158265 ] } },
{ "type": "Feature", "properties": { "building": "kindergarten", "name": "Детский сад № 63", "building_l": "3", "addr_stree": "2-я Молодежная улица (Мостотряд)", "addr_house": "1a", "addr_city": null }, "geometry": { "type": "Point", "coordinates": [ 105.965166762409268, 56.815516044816661 ] } },
{ "type": "Feature", "properties": { "building": "kindergarten", "name": "Центр развития ребёнка-детский сад № 46", "building_l": "3", "addr_stree": "улица Мехколонна №83", "addr_house": "3", "addr_city": null }, "geometry": { "type": "Point", "coordinates": [ 105.871950009976516, 56.808150272104854 ] } },
{ "type": "Feature", "properties": { "building": "kindergarten", "name": "Детский сад № 23", "building_l": "3", "addr_stree": "Азовская улица", "addr_house": "22", "addr_city": null }, "geometry": { "type": "Point", "coordinates": [ 105.86421621551024, 56.806975398324546 ] } }
]
}
