{
"type": "FeatureCollection",
"name": "points_school",
"crs": { "type": "name", "properties": { "name": "urn:ogc:def:crs:OGC:1.3:CRS84" } },
"features": [
{ "type": "Feature", "properties": { "name": "Средняя общеобразовательная школа №9", "building_l": "3", "addr_stree": "Школьный переулок", "addr_house": "2", "addr_city": "Усть-Кут" }, "geometry": { "type": "Point", "coordinates": [ 105.755062303387888, 56.781458197553981 ] } },
{ "type": "Feature", "properties": { "name": null, "building_l": null, "addr_stree": "улица Нефтяников", "addr_house": "12", "addr_city": "Усть-Кут" }, "geometry": { "type": "Point", "coordinates": [ 105.879417905002853, 56.804005647370587 ] } },
{ "type": "Feature", "properties": { "name": "Средняя общеобразовательная школа №8 им. В.Г. Кучеренко", "building_l": "3", "addr_stree": "Трудовая улица", "addr_house": "5", "addr_city": "Усть-Кут" }, "geometry": { "type": "Point", "coordinates": [ 105.579961154511054, 56.793191853217209 ] } },
{ "type": "Feature", "properties": { "name": "Школа №10", "building_l": "5", "addr_stree": "улица Пушкина", "addr_house": "70", "addr_city": "Усть-Кут" }, "geometry": { "type": "Point", "coordinates": [ 105.800611993627626, 56.802999675812508 ] } },
{ "type": "Feature", "properties": { "name": "Средняя общеобразовательная школа №3", "building_l": "2", "addr_stree": "улица Щорса", "addr_house": "47", "addr_city": null }, "geometry": { "type": "Point", "coordinates": [ 105.660837740382917, 56.764858764792862 ] } },
{ "type": "Feature", "properties": { "name": "Средняя общеобразовательная школа №2", "building_l": "4", "addr_stree": "Пролетарская улица", "addr_house": "2", "addr_city": "Усть-Кут" }, "geometry": { "type": "Point", "coordinates": [ 105.776318015634246, 56.791528429143263 ] } },
{ "type": "Feature", "properties": { "name": "Средняя общеобразовательная школа №4", "building_l": "3", "addr_stree": "улица Речников", "addr_house": "40", "addr_city": "Усть-Кут" }, "geometry": { "type": "Point", "coordinates": [ 105.793644607182856, 56.796634928199417 ] } },
{ "type": "Feature", "properties": { "name": "Муниципальное бюджетное учреждение дополнительного образования Центр дополнительного образования Усть- Кутского муниципального образо", "building_l": "2", "addr_stree": "улица Речников", "addr_house": "44а", "addr_city": "Усть-Кут" }, "geometry": { "type": "Point", "coordinates": [ 105.796897827613378, 56.797134542745859 ] } },
{ "type": "Feature", "properties": { "name": "Средняя общеобразовательная школа №6", "building_l": "3", "addr_stree": "улица Шерстянникова", "addr_house": "3", "addr_city": "Усть-Кут" }, "geometry": { "type": "Point", "coordinates": [ 105.77758621539256, 56.781402918264305 ] } },
{ "type": "Feature", "properties": { "name": "Средняя школа №1 Усть-Кутского муниципального образования", "building_l": "3", "addr_stree": "Советская улица", "addr_house": "93", "addr_city": "Усть-Кут" }, "geometry": { "type": "Point", "coordinates": [ 105.658380653291459, 56.760918280087644 ] } },
{ "type": "Feature", "properties": { "name": "Муниципальное общеобразовательное учреждение Лицей Усть-Кутского муниципального образования", "building_l": "2", "addr_stree": "Советская улица", "addr_house": "113", "addr_city": "Усть-Кут" }, "geometry": { "type": "Point", "coordinates": [ 105.664458470712333, 56.759453884781863 ] } },
{ "type": "Feature", "properties": { "name": "Средняя общеобразовательная школа №7 Усть-Кутского муниципального образования", "building_l": "2", "addr_stree": "2-я Набережная улица (Мостоотряд)", "addr_house": "13", "addr_city": "Усть-Кут" }, "geometry": { "type": "Point", "coordinates": [ 105.965834886180886, 56.814180342080803 ] } },
{ "type": "Feature", "properties": { "name": "художественная школа", "building_l": null, "addr_stree": "улица Калинина", "addr_house": "4", "addr_city": "Усть-Кут" }, "geometry": { "type": "Point", "coordinates": [ 105.745176750000027, 56.7796041 ] } },
{ "type": "Feature", "properties": { "name": "Средняя общеобразовательная школа №7 Усть-Кутского муниципального образования", "building_l": "2", "addr_stree": "2-я Набережная улица (Мостоотряд)", "addr_house": "13", "addr_city": "Усть-Кут" }, "geometry": { "type": "Point", "coordinates": [ 105.967002034851419, 56.814247922308247 ] } },
{ "type": "Feature", "properties": { "name": "Средняя общеобразовательная школа №7 Усть-Кутского муниципального образования", "building_l": "2", "addr_stree": "2-я Набережная улица (Мостоотряд)", "addr_house": "13", "addr_city": "Усть-Кут" }, "geometry": { "type": "Point", "coordinates": [ 105.966457363023935, 56.814051900948101 ] } }
]
}
