{
"type": "FeatureCollection",
"name": "points_hospital",
"crs": { "type": "name", "properties": { "name": "urn:ogc:def:crs:OGC:1.3:CRS84" } },
"features": [
{ "type": "Feature", "properties": { "building": "hospital", "name": null, "building_l": null, "addr_stree": "улица Высоцкого", "addr_house": "22", "addr_city": null, "addr_str_1": null, "addr_hou_1": null, "name_2": null }, "geometry": { "type": "Point", "coordinates": [ 105.781721230458984, 56.804444368353806 ] } },
{ "type": "Feature", "properties": { "building": "hospital", "name": null, "building_l": null, "addr_stree": "улица Высоцкого", "addr_house": "22", "addr_city": null, "addr_str_1": null, "addr_hou_1": null, "name_2": null }, "geometry": { "type": "Point", "coordinates": [ 105.7827445, 56.8044664 ] } },
{ "type": "Feature", "properties": { "building": "hospital", "name": null, "building_l": null, "addr_stree": "улица Высоцкого", "addr_house": "22", "addr_city": "Усть-Кут", "addr_str_1": null, "addr_hou_1": null, "name_2": null }, "geometry": { "type": "Point", "coordinates": [ 105.7824696, 56.8050714 ] } },
{ "type": "Feature", "properties": { "building": "hospital", "name": null, "building_l": null, "addr_stree": "улица Высоцкого", "addr_house": "22", "addr_city": null, "addr_str_1": null, "addr_hou_1": null, "name_2": null }, "geometry": { "type": "Point", "coordinates": [ 105.781264761826037, 56.804878536539299 ] } },
{ "type": "Feature", "properties": { "building": "hospital", "name": null, "building_l": null, "addr_stree": "улица Высоцкого", "addr_house": "22", "addr_city": null, "addr_str_1": null, "addr_hou_1": null, "name_2": null }, "geometry": { "type": "Point", "coordinates": [ 105.779760581966158, 56.803724396084753 ] } },
{ "type": "Feature", "properties": { "building": "hospital", "name": null, "building_l": null, "addr_stree": "улица Высоцкого", "addr_house": "22", "addr_city": null, "addr_str_1": null, "addr_hou_1": null, "name_2": null }, "geometry": { "type": "Point", "coordinates": [ 105.779506553027687, 56.803439442428179 ] } },
{ "type": "Feature", "properties": { "building": "hospital", "name": null, "building_l": null, "addr_stree": "улица Высоцкого", "addr_house": "22", "addr_city": null, "addr_str_1": null, "addr_hou_1": null, "name_2": null }, "geometry": { "type": "Point", "coordinates": [ 105.780689187249507, 56.803855734983706 ] } },
{ "type": "Feature", "properties": { "building": "hospital", "name": null, "building_l": null, "addr_stree": "улица Речников", "addr_house": "4", "addr_city": null, "addr_str_1": null, "addr_hou_1": null, "name_2": null }, "geometry": { "type": "Point", "coordinates": [ 105.777296154915504, 56.792589781650186 ] } },
{ "type": "Feature", "properties": { "building": "hospital", "name": "ОГБУЗ «Усть-Кутская РБ»", "building_l": null, "addr_stree": "Реброва-Денисова", "addr_house": "4", "addr_city": "Усть-Кут", "addr_str_1": null, "addr_hou_1": null, "name_2": null }, "geometry": { "type": "Point", "coordinates": [ 105.756345258375958, 56.780633067179821 ] } },
{ "type": "Feature", "properties": { "building": "hospital", "name": "ДЕТСКАЯ ПОЛИКЛИНИКА", "building_l": null, "addr_stree": "Реброва-Денисова", "addr_house": "4", "addr_city": "Усть-Кут", "addr_str_1": null, "addr_hou_1": null, "name_2": null }, "geometry": { "type": "Point", "coordinates": [ 105.757274350000017, 56.7807359 ] } },
{ "type": "Feature", "properties": { "building": "hospital", "name": "ОГБУЗ «Усть-Кутская РБ»", "building_l": "5", "addr_stree": "Реброва-Денисова", "addr_house": "4", "addr_city": "Усть-Кут", "addr_str_1": null, "addr_hou_1": null, "name_2": null }, "geometry": { "type": "Point", "coordinates": [ 105.754107495060808, 56.780366393053058 ] } },
{ "type": "Feature", "properties": { "building": "hospital", "name": null, "building_l": null, "addr_stree": "улица Высоцкого", "addr_house": "22", "addr_city": null, "addr_str_1": null, "addr_hou_1": null, "name_2": null }, "geometry": { "type": "Point", "coordinates": [ 105.782533085160281, 56.803967500801228 ] } },
{ "type": "Feature", "properties": { "building": null, "name": "ОГБУЗ «Усть-Кутская РБ» филиал поликлиники", "building_l": null, "addr_stree": "улица Островского", "addr_house": "13", "addr_city": null, "addr_str_1": "улица Островского", "addr_hou_1": "13", "name_2": "ОГБУЗ «Усть-Кутская РБ» филиал поликлиники" }, "geometry": { "type": "Point", "coordinates": [ 105.6690993, 56.7600038 ] } },
{ "type": "Feature", "properties": { "building": null, "name": "ОГБУЗ «Усть-Кутская РБ» филиал поликлиники", "building_l": null, "addr_stree": "улица Горького", "addr_house": "48", "addr_city": null, "addr_str_1": "улица Горького", "addr_hou_1": "48", "name_2": "ОГБУЗ «Усть-Кутская РБ» филиал поликлиники" }, "geometry": { "type": "Point", "coordinates": [ 105.7924927, 56.7981639 ] } },
{ "type": "Feature", "properties": { "building": null, "name": "ОГБУЗ «Усть-Кутская РБ» филиал поликлиники", "building_l": null, "addr_stree": "Коммунистическая улица", "addr_house": "13", "addr_city": null, "addr_str_1": "Коммунистическая улица", "addr_hou_1": "13", "name_2": "ОГБУЗ «Усть-Кутская РБ» филиал поликлиники" }, "geometry": { "type": "Point", "coordinates": [ 105.7921136, 56.7900678 ] } },
{ "type": "Feature", "properties": { "building": null, "name": "ОГБУЗ «Усть-Кутская РБ» филиал поликлиники", "building_l": null, "addr_stree": "улица Нефтяников", "addr_house": "14", "addr_city": null, "addr_str_1": "улица Нефтяников", "addr_hou_1": "14", "name_2": "ОГБУЗ «Усть-Кутская РБ» филиал поликлиники" }, "geometry": { "type": "Point", "coordinates": [ 105.8872502, 56.802444 ] } }
]
}
