{
"type": "FeatureCollection",
"name": "prom_zona",
"crs": { "type": "name", "properties": { "name": "urn:ogc:def:crs:OGC:1.3:CRS84" } },
"features": [
{ "type": "Feature", "properties": { "zona": 1 }, "geometry": { "type": "MultiPolygon", "coordinates": [ [ [ [ 105.8114524, 56.8003211 ], [ 105.8130887, 56.8009873 ], [ 105.8129208, 56.8008897 ], [ 105.8132774, 56.8007892 ], [ 105.8133456, 56.800459 ], [ 105.8134715, 56.8004733 ], [ 105.8136708, 56.8004331 ], [ 105.8141323, 56.8003183 ], [ 105.8145308, 56.8001603 ], [ 105.8147878, 56.7999306 ], [ 105.815071, 56.7994769 ], [ 105.8161618, 56.7995803 ], [ 105.8164751, 56.7998193 ], [ 105.8171372, 56.800212 ], [ 105.8175882, 56.8006772 ], [ 105.8176302, 56.8010161 ], [ 105.8171897, 56.8012917 ], [ 105.817069, 56.8014554 ], [ 105.8170743, 56.8016334 ], [ 105.8170953, 56.8018114 ], [ 105.817132, 56.8019952 ], [ 105.8171818, 56.8021345 ], [ 105.8172473, 56.8022651 ], [ 105.8175017, 56.8024058 ], [ 105.8176774, 56.8024891 ], [ 105.8178688, 56.8025781 ], [ 105.8180182, 56.802624 ], [ 105.8180182, 56.8027446 ], [ 105.8166128, 56.8024575 ], [ 105.8140536, 56.8020153 ], [ 105.8126062, 56.8017282 ], [ 105.8124384, 56.8018143 ], [ 105.8101833, 56.8013664 ], [ 105.8101519, 56.8013204 ], [ 105.810068, 56.8011711 ], [ 105.8096799, 56.8010907 ], [ 105.8097009, 56.8007691 ], [ 105.8102672, 56.8002407 ], [ 105.8114524, 56.8003211 ] ], [ [ 105.8143905, 56.8010871 ], [ 105.8164882, 56.8008115 ], [ 105.8175882, 56.8006772 ], [ 105.8171097, 56.8002415 ], [ 105.8168606, 56.8000606 ], [ 105.8164751, 56.7998193 ], [ 105.8163781, 56.799828 ], [ 105.8153791, 56.8000376 ], [ 105.8153633, 56.800319 ], [ 105.8139867, 56.8005789 ], [ 105.8143905, 56.8010871 ] ] ] ] } },
{ "type": "Feature", "properties": { "zona": 2 }, "geometry": { "type": "MultiPolygon", "coordinates": [ [ [ [ 105.8196035, 56.8007304 ], [ 105.8196194, 56.8013518 ], [ 105.8207723, 56.801322 ], [ 105.8207995, 56.8009201 ], [ 105.8203374, 56.8009003 ], [ 105.8203374, 56.8004836 ], [ 105.8201319, 56.8004764 ], [ 105.8201172, 56.8004064 ], [ 105.820082, 56.8003971 ], [ 105.819706, 56.8003642 ], [ 105.81933, 56.8003617 ], [ 105.8180027, 56.8008107 ], [ 105.8174863, 56.8002551 ], [ 105.8169789, 56.7999227 ], [ 105.817142, 56.7996945 ], [ 105.8185191, 56.7998234 ], [ 105.8187909, 56.7991196 ], [ 105.8160593, 56.7990172 ], [ 105.8160864, 56.7987394 ], [ 105.8184965, 56.7987593 ], [ 105.8185509, 56.7985013 ], [ 105.8159958, 56.7984318 ], [ 105.8149358, 56.7984405 ], [ 105.8114113, 56.7983723 ], [ 105.8080726, 56.798283 ], [ 105.8070714, 56.7981453 ], [ 105.8049966, 56.7980461 ], [ 105.8020973, 56.7988101 ], [ 105.8018254, 56.7987853 ], [ 105.8018707, 56.7984281 ], [ 105.8020701, 56.7983438 ], [ 105.8023712, 56.7980002 ], [ 105.8024597, 56.7977385 ], [ 105.801155, 56.7976343 ], [ 105.8005389, 56.7975797 ], [ 105.8004573, 56.7973862 ], [ 105.8014268, 56.7966817 ], [ 105.8014268, 56.796384 ], [ 105.8017077, 56.7963244 ], [ 105.8017077, 56.7960565 ], [ 105.8020701, 56.7960466 ], [ 105.8023147, 56.7961706 ], [ 105.8066365, 56.7963368 ], [ 105.8067226, 56.796322 ], [ 105.8067316, 56.7959821 ], [ 105.8082085, 56.7959994 ], [ 105.8081994, 56.7963976 ], [ 105.81099, 56.7964869 ], [ 105.8124034, 56.7965316 ], [ 105.8124849, 56.7961247 ], [ 105.8127839, 56.7961297 ], [ 105.8127341, 56.7965564 ], [ 105.8151804, 56.7966482 ], [ 105.8151623, 56.7967945 ], [ 105.8164534, 56.7963083 ], [ 105.8167841, 56.795956 ], [ 105.8178079, 56.7959858 ], [ 105.8196562, 56.795966 ], [ 105.8204852, 56.7957997 ], [ 105.8206846, 56.7958072 ], [ 105.8208386, 56.7959238 ], [ 105.8217537, 56.7959734 ], [ 105.8237107, 56.7960038 ], [ 105.83418, 56.7961805 ], [ 105.8406762, 56.7976814 ], [ 105.8408031, 56.7975921 ], [ 105.8416819, 56.7978699 ], [ 105.8422527, 56.7982272 ], [ 105.8439606, 56.7987531 ], [ 105.8438972, 56.7988473 ], [ 105.8463072, 56.7996064 ], [ 105.8464567, 56.7994948 ], [ 105.8487128, 56.8002637 ], [ 105.848672, 56.8004349 ], [ 105.850629, 56.8008516 ], [ 105.8520741, 56.8011716 ], [ 105.8526382, 56.8011927 ], [ 105.8526812, 56.8010773 ], [ 105.8528148, 56.8010873 ], [ 105.8528058, 56.8011183 ], [ 105.8535329, 56.8012758 ], [ 105.8534649, 56.8015201 ], [ 105.853816, 56.8015424 ], [ 105.8542124, 56.8015747 ], [ 105.8542033, 56.8016082 ], [ 105.853406, 56.8015672 ], [ 105.8528624, 56.801504 ], [ 105.852731, 56.8017545 ], [ 105.8522961, 56.8020819 ], [ 105.8520424, 56.8025482 ], [ 105.8453378, 56.8021514 ], [ 105.8444, 56.8020745 ], [ 105.8440467, 56.8021142 ], [ 105.844015, 56.8021687 ], [ 105.8437477, 56.8021787 ], [ 105.8436797, 56.8019554 ], [ 105.8434668, 56.8019654 ], [ 105.8431044, 56.8024614 ], [ 105.8428779, 56.8027417 ], [ 105.8423886, 56.8030195 ], [ 105.8420081, 56.8028211 ], [ 105.8420806, 56.8024838 ], [ 105.8416819, 56.8024441 ], [ 105.8409073, 56.8024366 ], [ 105.8408529, 56.8026127 ], [ 105.840649, 56.8025879 ], [ 105.8401111, 56.8024862 ], [ 105.8400363, 56.8024949 ], [ 105.8399865, 56.8024875 ], [ 105.8399469, 56.8024552 ], [ 105.8399333, 56.8024056 ], [ 105.8399661, 56.8023746 ], [ 105.8399797, 56.8023566 ], [ 105.8400318, 56.8023535 ], [ 105.8402866, 56.8019331 ], [ 105.840307, 56.8016789 ], [ 105.8402549, 56.8016503 ], [ 105.8402323, 56.8014767 ], [ 105.8401553, 56.8014494 ], [ 105.840364, 56.801292 ], [ 105.8379898, 56.8019654 ], [ 105.8376093, 56.8026003 ], [ 105.8374281, 56.8031956 ], [ 105.8368528, 56.8032849 ], [ 105.8367304, 56.8032824 ], [ 105.8367033, 56.8030493 ], [ 105.8362502, 56.8022035 ], [ 105.8362684, 56.8020571 ], [ 105.83471, 56.802196 ], [ 105.8333056, 56.8024341 ], [ 105.8325853, 56.8024912 ], [ 105.8297947, 56.8030642 ], [ 105.8291152, 56.8031609 ], [ 105.8283995, 56.8033048 ], [ 105.8279646, 56.8029525 ], [ 105.8279193, 56.8028434 ], [ 105.8276491, 56.8030434 ], [ 105.8274311, 56.8031826 ], [ 105.827221, 56.8032741 ], [ 105.826546, 56.803537 ], [ 105.8259956, 56.8036114 ], [ 105.8254407, 56.8036908 ], [ 105.824512, 56.8037106 ], [ 105.8229536, 56.8037007 ], [ 105.8224213, 56.803697 ], [ 105.8219547, 56.8033758 ], [ 105.8216648, 56.8034849 ], [ 105.8201336, 56.8034402 ], [ 105.819744, 56.8031277 ], [ 105.8207316, 56.8025523 ], [ 105.8207905, 56.8023278 ], [ 105.8197395, 56.8024419 ], [ 105.8190146, 56.8025262 ], [ 105.8185254, 56.8025362 ], [ 105.8180542, 56.8024469 ], [ 105.8174744, 56.8021393 ], [ 105.817574, 56.8013059 ], [ 105.818027, 56.8010677 ], [ 105.8191143, 56.8007105 ], [ 105.8196035, 56.8007304 ] ] ] ] } },
{ "type": "Feature", "properties": { "zona": 3 }, "geometry": { "type": "MultiPolygon", "coordinates": [ [ [ [ 105.8264152, 56.8039459 ], [ 105.8300213, 56.8038169 ], [ 105.8300258, 56.8037475 ], [ 105.8292919, 56.8037624 ], [ 105.826943, 56.8038467 ], [ 105.8263178, 56.8038814 ], [ 105.8263088, 56.8038231 ], [ 105.8278219, 56.803554 ], [ 105.8289521, 56.803368 ], [ 105.8299397, 56.8031993 ], [ 105.8309998, 56.8029637 ], [ 105.8309884, 56.8038827 ], [ 105.8309182, 56.8041927 ], [ 105.8308004, 56.8044841 ], [ 105.8263971, 56.8040352 ], [ 105.8264152, 56.8039459 ] ] ] ] } },
{ "type": "Feature", "properties": { "zona": 4 }, "geometry": { "type": "MultiPolygon", "coordinates": [ [ [ [ 105.8228545, 56.8038529 ], [ 105.8235137, 56.803843 ], [ 105.8249633, 56.8039174 ], [ 105.8264164, 56.804127 ], [ 105.8302217, 56.8044941 ], [ 105.8312467, 56.8046392 ], [ 105.8311515, 56.8049021 ], [ 105.8309749, 56.8051798 ], [ 105.829934, 56.8052431 ], [ 105.829361, 56.8051488 ], [ 105.8288196, 56.8050794 ], [ 105.8270325, 56.8048016 ], [ 105.825918, 56.8046379 ], [ 105.8243744, 56.8044035 ], [ 105.8228613, 56.8041505 ], [ 105.8228545, 56.8038529 ] ] ] ] } },
{ "type": "Feature", "properties": { "zona": 5 }, "geometry": { "type": "MultiPolygon", "coordinates": [ [ [ [ 105.8235091, 56.8043663 ], [ 105.8245239, 56.8045201 ], [ 105.8254163, 56.8046466 ], [ 105.8262182, 56.8047656 ], [ 105.8275863, 56.8049715 ], [ 105.827917, 56.8050162 ], [ 105.8294119, 56.8052543 ], [ 105.8299601, 56.8053361 ], [ 105.8307936, 56.8054477 ], [ 105.8310383, 56.8054973 ], [ 105.8329274, 56.8057701 ], [ 105.8325378, 56.8067548 ], [ 105.8322433, 56.806658 ], [ 105.8318628, 56.8065365 ], [ 105.8315275, 56.8065167 ], [ 105.8308888, 56.8064547 ], [ 105.8304494, 56.8063753 ], [ 105.8299737, 56.8062686 ], [ 105.8295071, 56.8061124 ], [ 105.8295025, 56.8060405 ], [ 105.8293259, 56.8060603 ], [ 105.8290405, 56.8058669 ], [ 105.8286237, 56.8057181 ], [ 105.8277766, 56.805408 ], [ 105.8272828, 56.8052295 ], [ 105.8265806, 56.8050831 ], [ 105.8261366, 56.8049715 ], [ 105.8253846, 56.8047979 ], [ 105.8244514, 56.8045796 ], [ 105.8235091, 56.8043663 ] ] ] ] } },
{ "type": "Feature", "properties": { "zona": 6 }, "geometry": { "type": "MultiPolygon", "coordinates": [ [ [ [ 105.8301821, 56.8052741 ], [ 105.8309069, 56.8052468 ], [ 105.8307801, 56.8053659 ], [ 105.8301821, 56.8052741 ] ] ] ] } },
{ "type": "Feature", "properties": { "zona": 7 }, "geometry": { "type": "MultiPolygon", "coordinates": [ [ [ [ 105.8308525, 56.8053609 ], [ 105.8324925, 56.8051724 ], [ 105.833112, 56.8050577 ], [ 105.8334891, 56.8050422 ], [ 105.8336239, 56.8049293 ], [ 105.8336658, 56.8048841 ], [ 105.8336375, 56.8048376 ], [ 105.833403, 56.8048047 ], [ 105.8314098, 56.8050441 ], [ 105.8310394, 56.8050784 ], [ 105.8311991, 56.8047706 ], [ 105.8313146, 56.8045592 ], [ 105.831369, 56.8045046 ], [ 105.831523, 56.804455 ], [ 105.8316906, 56.8045046 ], [ 105.8333328, 56.8047371 ], [ 105.8337439, 56.8047898 ], [ 105.8342875, 56.8048779 ], [ 105.8364802, 56.8045703 ], [ 105.8375221, 56.806361 ], [ 105.835855, 56.8067058 ], [ 105.8325559, 56.8067721 ], [ 105.8329274, 56.8057701 ], [ 105.8323298, 56.8056838 ], [ 105.8323627, 56.8055736 ], [ 105.8308525, 56.8053609 ] ] ] ] } },
{ "type": "Feature", "properties": { "zona": 7 }, "geometry": { "type": "MultiPolygon", "coordinates": [ [ [ [ 105.8290565, 56.8205178 ], [ 105.8287687, 56.8201728 ], [ 105.8288502, 56.8199819 ], [ 105.829122, 56.8196472 ], [ 105.8292285, 56.8196237 ], [ 105.8292647, 56.8194526 ], [ 105.8296271, 56.8188179 ], [ 105.8278224, 56.8186054 ], [ 105.8287971, 56.8173757 ], [ 105.8289245, 56.8169893 ], [ 105.8289569, 56.8166413 ], [ 105.8298899, 56.8156579 ], [ 105.831292, 56.8158786 ], [ 105.8324245, 56.8160571 ], [ 105.8329795, 56.8166001 ], [ 105.8349441, 56.8177937 ], [ 105.8327758, 56.8200414 ], [ 105.8320444, 56.8206556 ], [ 105.831217, 56.8213254 ], [ 105.8290565, 56.8205178 ] ], [ [ 105.8308843, 56.8205621 ], [ 105.8320444, 56.8206556 ], [ 105.8325543, 56.8202274 ], [ 105.8310337, 56.8200935 ], [ 105.8308843, 56.8205621 ] ] ] ] } },
{ "type": "Feature", "properties": { "zona": 8 }, "geometry": { "type": "MultiPolygon", "coordinates": [ [ [ [ 105.8360351, 56.8163423 ], [ 105.8364881, 56.8163323 ], [ 105.8378471, 56.8154397 ], [ 105.838282, 56.8155786 ], [ 105.8456209, 56.8157571 ], [ 105.8418699, 56.816739 ], [ 105.839786, 56.8171456 ], [ 105.838282, 56.8173737 ], [ 105.8358539, 56.8174431 ], [ 105.8348753, 56.817215 ], [ 105.8343317, 56.816977 ], [ 105.8336431, 56.8165307 ], [ 105.8345854, 56.8157769 ], [ 105.8360351, 56.8163423 ] ] ] ] } },
{ "type": "Feature", "properties": { "zona": null }, "geometry": { "type": "MultiPolygon", "coordinates": [ [ [ [ 105.8421417, 56.8142694 ], [ 105.8420421, 56.8138677 ], [ 105.8429028, 56.813456 ], [ 105.8434646, 56.8133668 ], [ 105.8447511, 56.8139321 ], [ 105.8432743, 56.8146512 ], [ 105.8421417, 56.8142694 ] ] ] ] } },
{ "type": "Feature", "properties": { "zona": null }, "geometry": { "type": "MultiPolygon", "coordinates": [ [ [ [ 105.8455847, 56.8154893 ], [ 105.8455484, 56.8139916 ], [ 105.8474149, 56.8131585 ], [ 105.8492994, 56.8144876 ], [ 105.8460014, 56.8156678 ], [ 105.8455847, 56.8154893 ] ] ] ] } },
{ "type": "Feature", "properties": { "zona": null }, "geometry": { "type": "MultiPolygon", "coordinates": [ [ [ [ 105.8470162, 56.8113135 ], [ 105.8490016, 56.8125157 ], [ 105.8507853, 56.8116508 ], [ 105.8522531, 56.8109713 ], [ 105.8534491, 56.8105051 ], [ 105.8548942, 56.8105795 ], [ 105.856747, 56.8109614 ], [ 105.85532, 56.8116632 ], [ 105.8538115, 56.8119136 ], [ 105.8516189, 56.8129155 ], [ 105.8496437, 56.8137238 ], [ 105.8483753, 56.8129204 ], [ 105.8480128, 56.8131684 ], [ 105.8461464, 56.8118393 ], [ 105.8470162, 56.8113135 ] ] ] ] } },
{ "type": "Feature", "properties": { "zona": null }, "geometry": { "type": "MultiPolygon", "coordinates": [ [ [ [ 105.8382322, 56.8076656 ], [ 105.8370906, 56.8075564 ], [ 105.8370362, 56.8069612 ], [ 105.838196, 56.8068521 ], [ 105.8399174, 56.8065743 ], [ 105.8409865, 56.8065743 ], [ 105.8437228, 56.8065545 ], [ 105.8437409, 56.8079235 ], [ 105.8430523, 56.807864 ], [ 105.8421825, 56.8078838 ], [ 105.8407329, 56.8078243 ], [ 105.8406966, 56.8082012 ], [ 105.8388302, 56.8080227 ], [ 105.838196, 56.8079929 ], [ 105.8382322, 56.8076656 ] ] ] ] } },
{ "type": "Feature", "properties": { "zona": null }, "geometry": { "type": "MultiPolygon", "coordinates": [ [ [ [ 105.8467489, 56.8041636 ], [ 105.8475191, 56.8042132 ], [ 105.8482258, 56.8039602 ], [ 105.8484523, 56.8034145 ], [ 105.8485746, 56.8031516 ], [ 105.8487739, 56.8031615 ], [ 105.8488373, 56.8026952 ], [ 105.8497706, 56.8028043 ], [ 105.8505407, 56.8028093 ], [ 105.8506041, 56.802658 ], [ 105.852244, 56.802756 ], [ 105.8524252, 56.8024658 ], [ 105.8525385, 56.8024757 ], [ 105.8526653, 56.802188 ], [ 105.8531002, 56.8019374 ], [ 105.8536257, 56.8019052 ], [ 105.8537979, 56.8019151 ], [ 105.8538092, 56.8018854 ], [ 105.8540063, 56.8018928 ], [ 105.8540267, 56.80193 ], [ 105.8544321, 56.8019796 ], [ 105.8544865, 56.8020528 ], [ 105.8551388, 56.8020826 ], [ 105.8552294, 56.8021111 ], [ 105.8552543, 56.8021359 ], [ 105.855465, 56.802157 ], [ 105.8571276, 56.8023033 ], [ 105.857157, 56.8022091 ], [ 105.8573699, 56.8022562 ], [ 105.8573926, 56.8022215 ], [ 105.8576553, 56.8022686 ], [ 105.8576667, 56.8023045 ], [ 105.8589057, 56.8025092 ], [ 105.858883, 56.8027771 ], [ 105.8581808, 56.8027572 ], [ 105.8574198, 56.8027523 ], [ 105.8567765, 56.802787 ], [ 105.8558818, 56.8028267 ], [ 105.8550301, 56.8028118 ], [ 105.8542871, 56.8028229 ], [ 105.854038, 56.8026989 ], [ 105.8538704, 56.8026964 ], [ 105.8538794, 56.8027932 ], [ 105.8529009, 56.802751 ], [ 105.8528556, 56.802684 ], [ 105.8525385, 56.802684 ], [ 105.8524932, 56.8027783 ], [ 105.8530278, 56.8028267 ], [ 105.8530278, 56.8031243 ], [ 105.8517865, 56.8034765 ], [ 105.8510481, 56.8037171 ], [ 105.8501194, 56.8040991 ], [ 105.8491862, 56.8045306 ], [ 105.8478905, 56.8050366 ], [ 105.8467399, 56.8052995 ], [ 105.8466674, 56.8051953 ], [ 105.846604, 56.8042429 ], [ 105.8467489, 56.8041636 ] ] ] ] } },
{ "type": "Feature", "properties": { "zona": null }, "geometry": { "type": "MultiPolygon", "coordinates": [ [ [ [ 105.8952648, 56.8056715 ], [ 105.8972309, 56.8057807 ], [ 105.8986783, 56.8058972 ], [ 105.9017588, 56.8060163 ], [ 105.9017045, 56.8063635 ], [ 105.9012854, 56.8066884 ], [ 105.9011677, 56.8072092 ], [ 105.9000011, 56.8073853 ], [ 105.8993397, 56.8072812 ], [ 105.8989683, 56.8072564 ], [ 105.8983522, 56.8069339 ], [ 105.8980985, 56.8069091 ], [ 105.8974099, 56.8068087 ], [ 105.8971132, 56.806774 ], [ 105.8963158, 56.8066351 ], [ 105.896334, 56.8065644 ], [ 105.8947303, 56.8063213 ], [ 105.8948934, 56.8060237 ], [ 105.8951833, 56.8060634 ], [ 105.8952377, 56.8059741 ], [ 105.8952648, 56.8056715 ] ] ] ] } },
{ "type": "Feature", "properties": { "zona": null }, "geometry": { "type": "MultiPolygon", "coordinates": [ [ [ [ 105.9010046, 56.8053888 ], [ 105.9037499, 56.8054979 ], [ 105.9036774, 56.8058452 ], [ 105.9010136, 56.8056963 ], [ 105.9010046, 56.8053888 ] ] ] ] } },
{ "type": "Feature", "properties": { "zona": null }, "geometry": { "type": "MultiPolygon", "coordinates": [ [ [ [ 105.8885285, 56.8038808 ], [ 105.8882023, 56.803484 ], [ 105.8880755, 56.802601 ], [ 105.8879848, 56.8021644 ], [ 105.8887097, 56.8020652 ], [ 105.8896701, 56.8014996 ], [ 105.8897426, 56.8012714 ], [ 105.8918264, 56.8007853 ], [ 105.8929862, 56.8004479 ], [ 105.8927959, 56.8002991 ], [ 105.8937019, 56.8000113 ], [ 105.8942456, 56.8000709 ], [ 105.8967734, 56.7991134 ], [ 105.8968368, 56.7989695 ], [ 105.8977066, 56.7987115 ], [ 105.8985152, 56.7990414 ], [ 105.8991585, 56.798972 ], [ 105.9013693, 56.7993193 ], [ 105.9016501, 56.7999146 ], [ 105.9026649, 56.7998253 ], [ 105.9032266, 56.8000535 ], [ 105.9030907, 56.800371 ], [ 105.9033535, 56.8009763 ], [ 105.9036887, 56.8013682 ], [ 105.9045947, 56.8016807 ], [ 105.9050296, 56.8020776 ], [ 105.9050296, 56.8026729 ], [ 105.9058632, 56.8027523 ], [ 105.9059175, 56.8029805 ], [ 105.9047397, 56.8030697 ], [ 105.9055166, 56.8041239 ], [ 105.9054192, 56.8044091 ], [ 105.9054623, 56.8046993 ], [ 105.8985402, 56.8046447 ], [ 105.8946804, 56.8046447 ], [ 105.8920348, 56.8046249 ], [ 105.8907845, 56.8047241 ], [ 105.8901593, 56.8047241 ], [ 105.8888546, 56.8045554 ], [ 105.8879848, 56.8046348 ], [ 105.8878036, 56.8039701 ], [ 105.8885285, 56.8038808 ] ] ] ] } },
{ "type": "Feature", "properties": { "zona": null }, "geometry": { "type": "MultiPolygon", "coordinates": [ [ [ [ 105.9375427, 56.8022897 ], [ 105.9386979, 56.8027324 ], [ 105.9399709, 56.8034319 ], [ 105.9408497, 56.8036303 ], [ 105.9445282, 56.8052474 ], [ 105.9437762, 56.8055947 ], [ 105.9433685, 56.8059121 ], [ 105.9415927, 56.8049895 ], [ 105.9400071, 56.804176 ], [ 105.9399346, 56.8040668 ], [ 105.939169, 56.8036402 ], [ 105.9375654, 56.8028366 ], [ 105.9372664, 56.8024893 ], [ 105.9375427, 56.8022897 ] ] ] ] } },
{ "type": "Feature", "properties": { "zona": null }, "geometry": { "type": "MultiPolygon", "coordinates": [ [ [ [ 105.9449948, 56.8030524 ], [ 105.9450401, 56.8032731 ], [ 105.9446777, 56.8032955 ], [ 105.9434954, 56.8027994 ], [ 105.9426573, 56.8025464 ], [ 105.9412212, 56.8023579 ], [ 105.9400434, 56.8019759 ], [ 105.9395179, 56.8017923 ], [ 105.9397534, 56.8014848 ], [ 105.9411306, 56.8018717 ], [ 105.9420095, 56.8021198 ], [ 105.9435633, 56.8026828 ], [ 105.9440435, 56.8026828 ], [ 105.9449948, 56.8030524 ] ] ] ] } },
{ "type": "Feature", "properties": { "zona": null }, "geometry": { "type": "MultiPolygon", "coordinates": [ [ [ [ 105.94057, 56.8021656 ], [ 105.9404737, 56.8023083 ], [ 105.9396402, 56.8021669 ], [ 105.9389018, 56.801966 ], [ 105.9376231, 56.8015493 ], [ 105.9377228, 56.8014798 ], [ 105.9380897, 56.8011921 ], [ 105.9380761, 56.8010011 ], [ 105.938767, 56.8012305 ], [ 105.9397002, 56.8015108 ], [ 105.9394318, 56.8018023 ], [ 105.94057, 56.8021656 ] ] ] ] } },
{ "type": "Feature", "properties": { "zona": null }, "geometry": { "type": "MultiPolygon", "coordinates": [ [ [ [ 105.9267598, 56.8038858 ], [ 105.9308052, 56.8021991 ], [ 105.9312492, 56.8019685 ], [ 105.9320555, 56.8016286 ], [ 105.9326943, 56.8015121 ], [ 105.9327351, 56.8015989 ], [ 105.9323273, 56.8017006 ], [ 105.9319649, 56.8019213 ], [ 105.9300079, 56.8032508 ], [ 105.92912, 56.803737 ], [ 105.9281777, 56.8041239 ], [ 105.9272717, 56.8043719 ], [ 105.9268413, 56.8040346 ], [ 105.9257541, 56.8042975 ], [ 105.9267598, 56.8038858 ] ] ] ] } },
{ "type": "Feature", "properties": { "zona": null }, "geometry": { "type": "MultiPolygon", "coordinates": [ [ [ [ 105.9379448, 56.8009291 ], [ 105.938024, 56.8011846 ], [ 105.9375484, 56.8015195 ], [ 105.9354373, 56.8009936 ], [ 105.9315935, 56.8010085 ], [ 105.9282683, 56.8021098 ], [ 105.9279829, 56.8019089 ], [ 105.9273894, 56.802219 ], [ 105.9276024, 56.8024447 ], [ 105.9247031, 56.8036948 ], [ 105.9228547, 56.8042405 ], [ 105.9220257, 56.8038659 ], [ 105.9259715, 56.8009167 ], [ 105.927403, 56.7998451 ], [ 105.9274393, 56.7990216 ], [ 105.9281279, 56.7984659 ], [ 105.9302367, 56.7989993 ], [ 105.9306444, 56.7985726 ], [ 105.9326014, 56.7991977 ], [ 105.9325289, 56.7993069 ], [ 105.932683, 56.7993664 ], [ 105.9335142, 56.7995797 ], [ 105.9344225, 56.7998923 ], [ 105.9364068, 56.8004578 ], [ 105.9379448, 56.8009291 ] ] ] ] } },
{ "type": "Feature", "properties": { "zona": null }, "geometry": { "type": "MultiPolygon", "coordinates": [ [ [ [ 105.9254551, 56.7999047 ], [ 105.9220121, 56.8025439 ], [ 105.9186779, 56.8050044 ], [ 105.9121182, 56.8050639 ], [ 105.9086753, 56.804925 ], [ 105.9070354, 56.80493 ], [ 105.9067228, 56.8047836 ], [ 105.9068179, 56.8044538 ], [ 105.9066911, 56.8035881 ], [ 105.9068632, 56.8035683 ], [ 105.9068881, 56.8031739 ], [ 105.9069742, 56.8029445 ], [ 105.9072415, 56.8026989 ], [ 105.9073502, 56.8024683 ], [ 105.9082381, 56.8025675 ], [ 105.9081045, 56.8030251 ], [ 105.90863, 56.8030449 ], [ 105.9089471, 56.8031392 ], [ 105.9105236, 56.8032979 ], [ 105.9116788, 56.8029879 ], [ 105.9127343, 56.8022959 ], [ 105.9140753, 56.8011797 ], [ 105.9157967, 56.7993887 ], [ 105.9160957, 56.7992548 ], [ 105.9177175, 56.7972454 ], [ 105.9190403, 56.7959356 ], [ 105.9199464, 56.7954989 ], [ 105.9208162, 56.7952509 ], [ 105.9260621, 56.796908 ], [ 105.9261255, 56.7970767 ], [ 105.9276839, 56.7975927 ], [ 105.9290701, 56.7980293 ], [ 105.9294869, 56.79794 ], [ 105.9303809, 56.7982171 ], [ 105.930248, 56.7985354 ], [ 105.9299943, 56.7987041 ], [ 105.9278017, 56.7981385 ], [ 105.9254551, 56.7999047 ] ] ] ] } },
{ "type": "Feature", "properties": { "zona": null }, "geometry": { "type": "MultiPolygon", "coordinates": [ [ [ [ 105.9214928, 56.8029271 ], [ 105.9226809, 56.8020312 ], [ 105.9235954, 56.8023542 ], [ 105.9238774, 56.8024819 ], [ 105.9235539, 56.8027238 ], [ 105.9233055, 56.8026419 ], [ 105.9225263, 56.8033165 ], [ 105.9214928, 56.8029271 ] ] ] ] } },
{ "type": "Feature", "properties": { "zona": null }, "geometry": { "type": "MultiPolygon", "coordinates": [ [ [ [ 105.9317407, 56.8016299 ], [ 105.9311948, 56.8018705 ], [ 105.930735, 56.8021384 ], [ 105.9290679, 56.8028403 ], [ 105.9284948, 56.803071 ], [ 105.9279569, 56.8032886 ], [ 105.9264755, 56.8039162 ], [ 105.9256963, 56.8042361 ], [ 105.9252705, 56.8044693 ], [ 105.924446, 56.8047495 ], [ 105.9239114, 56.804938 ], [ 105.9232409, 56.8051017 ], [ 105.9197799, 56.8057863 ], [ 105.9181218, 56.8061632 ], [ 105.9181037, 56.8064162 ], [ 105.9161104, 56.8064063 ], [ 105.9129756, 56.8062922 ], [ 105.9129665, 56.806069 ], [ 105.9126675, 56.8060492 ], [ 105.91274, 56.8053696 ], [ 105.91515, 56.8053349 ], [ 105.9179497, 56.8054986 ], [ 105.9202963, 56.8052406 ], [ 105.9221356, 56.804943 ], [ 105.9232409, 56.8047396 ], [ 105.9239114, 56.8045213 ], [ 105.9248016, 56.8042411 ], [ 105.92501, 56.8041419 ], [ 105.9256736, 56.8038616 ], [ 105.9264347, 56.8035491 ], [ 105.9281335, 56.802805 ], [ 105.9283147, 56.8029501 ], [ 105.9289501, 56.8026667 ], [ 105.9288051, 56.8025278 ], [ 105.9312514, 56.8016646 ], [ 105.9317407, 56.8016299 ] ] ] ] } },
{ "type": "Feature", "properties": { "zona": null }, "geometry": { "type": "MultiPolygon", "coordinates": [ [ [ [ 105.9213564, 56.8101709 ], [ 105.9223349, 56.8096551 ], [ 105.9228785, 56.809546 ], [ 105.9268017, 56.8077753 ], [ 105.925805, 56.807066 ], [ 105.9260587, 56.8070065 ], [ 105.92701, 56.807691 ], [ 105.9272275, 56.8076811 ], [ 105.9305255, 56.8086433 ], [ 105.9282423, 56.8095361 ], [ 105.9298537, 56.8102474 ], [ 105.9243068, 56.8119029 ], [ 105.9234765, 56.8110538 ], [ 105.9226248, 56.8110637 ], [ 105.9220812, 56.8106272 ], [ 105.9213564, 56.8101709 ] ] ] ] } },
{ "type": "Feature", "properties": { "zona": null }, "geometry": { "type": "MultiPolygon", "coordinates": [ [ [ [ 105.9198252, 56.8080084 ], [ 105.919952, 56.8092385 ], [ 105.919191, 56.8096948 ], [ 105.9175601, 56.8089012 ], [ 105.9183393, 56.8085143 ], [ 105.9198252, 56.8080084 ] ] ] ] } },
{ "type": "Feature", "properties": { "zona": null }, "geometry": { "type": "MultiPolygon", "coordinates": [ [ [ [ 105.9139677, 56.8066345 ], [ 105.9186428, 56.8067535 ], [ 105.9199837, 56.8066444 ], [ 105.9202284, 56.8065229 ], [ 105.9211072, 56.8062674 ], [ 105.9211978, 56.8063617 ], [ 105.9201831, 56.8069321 ], [ 105.9195851, 56.8071999 ], [ 105.9186972, 56.807686 ], [ 105.9178093, 56.8082316 ], [ 105.9170573, 56.8088739 ], [ 105.9160516, 56.8094394 ], [ 105.9155985, 56.8096278 ], [ 105.9154966, 56.8095659 ], [ 105.9137774, 56.810223 ], [ 105.912552, 56.8107016 ], [ 105.9096237, 56.8123627 ], [ 105.9131047, 56.8134988 ], [ 105.913033, 56.8139444 ], [ 105.9106645, 56.8132093 ], [ 105.9103614, 56.8136084 ], [ 105.9107799, 56.8145661 ], [ 105.9101876, 56.8161167 ], [ 105.907909, 56.815289 ], [ 105.9061561, 56.8169365 ], [ 105.9059651, 56.8169008 ], [ 105.9050546, 56.8173768 ], [ 105.9056525, 56.8198933 ], [ 105.9050727, 56.8199925 ], [ 105.9031156, 56.8164321 ], [ 105.9030432, 56.8158371 ], [ 105.9033512, 56.8153015 ], [ 105.9039084, 56.8146022 ], [ 105.9041304, 56.814265 ], [ 105.9040942, 56.8139724 ], [ 105.9044566, 56.8128219 ], [ 105.9053264, 56.8129508 ], [ 105.9061418, 56.8105504 ], [ 105.9079584, 56.8105628 ], [ 105.9080218, 56.8102391 ], [ 105.9073015, 56.8102143 ], [ 105.9072902, 56.8103073 ], [ 105.9063728, 56.8102342 ], [ 105.9067579, 56.8091641 ], [ 105.9088871, 56.8092782 ], [ 105.9087602, 56.8099577 ], [ 105.908656, 56.8100085 ], [ 105.9086742, 56.8100866 ], [ 105.9091861, 56.8101561 ], [ 105.9098882, 56.8101685 ], [ 105.9099335, 56.8102503 ], [ 105.9108849, 56.8103049 ], [ 105.9108486, 56.8096898 ], [ 105.9099789, 56.8096898 ], [ 105.9099607, 56.8089359 ], [ 105.9112292, 56.8089855 ], [ 105.9129076, 56.80905 ], [ 105.9129439, 56.8087847 ], [ 105.912518, 56.8087648 ], [ 105.9127173, 56.8081944 ], [ 105.9136959, 56.8080754 ], [ 105.9139677, 56.8066345 ] ] ] ] } },
{ "type": "Feature", "properties": { "zona": null }, "geometry": { "type": "MultiPolygon", "coordinates": [ [ [ [ 105.9069029, 56.8085565 ], [ 105.9074284, 56.806751 ], [ 105.9092087, 56.8065898 ], [ 105.9092586, 56.8064336 ], [ 105.9104726, 56.8064534 ], [ 105.9126109, 56.8065328 ], [ 105.9122847, 56.8087251 ], [ 105.9096753, 56.8086061 ], [ 105.9096934, 56.8087152 ], [ 105.9069029, 56.8085565 ] ] ] ] } },
{ "type": "Feature", "properties": { "zona": null }, "geometry": { "type": "MultiPolygon", "coordinates": [ [ [ [ 105.908203, 56.8060715 ], [ 105.9066537, 56.8060268 ], [ 105.9067443, 56.8053423 ], [ 105.9074329, 56.8053423 ], [ 105.9105859, 56.8053473 ], [ 105.9112835, 56.8054117 ], [ 105.9111386, 56.8062153 ], [ 105.9106946, 56.8062054 ], [ 105.9104862, 56.8060963 ], [ 105.9102869, 56.8060516 ], [ 105.9100876, 56.8061707 ], [ 105.908203, 56.8060715 ] ] ] ] } },
{ "type": "Feature", "properties": { "zona": null }, "geometry": { "type": "MultiPolygon", "coordinates": [ [ [ [ 105.9602457, 56.8183413 ], [ 105.9629638, 56.8189974 ], [ 105.9633126, 56.818852 ], [ 105.9641643, 56.8190057 ], [ 105.964427, 56.8185793 ], [ 105.9650341, 56.8186983 ], [ 105.9653149, 56.8187876 ], [ 105.9644089, 56.8192933 ], [ 105.9648619, 56.8193925 ], [ 105.9654735, 56.8195388 ], [ 105.9660896, 56.8192314 ], [ 105.9664883, 56.8191966 ], [ 105.9671587, 56.8193504 ], [ 105.9690342, 56.819866 ], [ 105.9713174, 56.8200941 ], [ 105.9731114, 56.8203123 ], [ 105.9730027, 56.8206495 ], [ 105.9773154, 56.8212643 ], [ 105.9769783, 56.8219751 ], [ 105.9744064, 56.8218774 ], [ 105.9731546, 56.8221562 ], [ 105.9719897, 56.8223197 ], [ 105.9705666, 56.8222164 ], [ 105.9704873, 56.8224713 ], [ 105.9688349, 56.822375 ], [ 105.9680738, 56.822246 ], [ 105.9670409, 56.822018 ], [ 105.9660624, 56.8218494 ], [ 105.9648212, 56.821542 ], [ 105.9645312, 56.8212445 ], [ 105.9638653, 56.8210982 ], [ 105.9626376, 56.8208007 ], [ 105.9599276, 56.8201294 ], [ 105.9606186, 56.8191707 ], [ 105.9597745, 56.8189933 ], [ 105.9602457, 56.8183413 ] ] ] ] } },
{ "type": "Feature", "properties": { "zona": null }, "geometry": { "type": "MultiPolygon", "coordinates": [ [ [ [ 105.9653376, 56.8170892 ], [ 105.9664294, 56.8173173 ], [ 105.9674577, 56.8173842 ], [ 105.9680693, 56.8173793 ], [ 105.9687307, 56.8173421 ], [ 105.970425, 56.8170346 ], [ 105.9711861, 56.8167966 ], [ 105.9721283, 56.8166578 ], [ 105.9733968, 56.8166181 ], [ 105.9749008, 56.8168264 ], [ 105.9735961, 56.8178677 ], [ 105.9739948, 56.8181157 ], [ 105.9723277, 56.8186809 ], [ 105.9714035, 56.8188099 ], [ 105.9709324, 56.8188495 ], [ 105.9699085, 56.8188297 ], [ 105.9688938, 56.8187454 ], [ 105.9680195, 56.818557 ], [ 105.9665472, 56.8179595 ], [ 105.9668461, 56.8177115 ], [ 105.9653376, 56.8170892 ] ] ] ] } },
{ "type": "Feature", "properties": { "zona": null }, "geometry": { "type": "MultiPolygon", "coordinates": [ [ [ [ 105.9743662, 56.8191123 ], [ 105.9752088, 56.8193256 ], [ 105.9753448, 56.819333 ], [ 105.9756347, 56.8194173 ], [ 105.9757072, 56.819271 ], [ 105.9760288, 56.8193156 ], [ 105.9759246, 56.8194991 ], [ 105.9771478, 56.8197495 ], [ 105.9770843, 56.8198239 ], [ 105.9772384, 56.8198363 ], [ 105.9771206, 56.8200495 ], [ 105.973877, 56.8194842 ], [ 105.9742303, 56.8191421 ], [ 105.9743662, 56.8191123 ] ] ] ] } },
{ "type": "Feature", "properties": { "zona": null }, "geometry": { "type": "MultiPolygon", "coordinates": [ [ [ [ 105.9831028, 56.8194948 ], [ 105.9829791, 56.8200684 ], [ 105.983977, 56.8199891 ], [ 105.9830938, 56.8208394 ], [ 105.9808217, 56.8200941 ], [ 105.9798251, 56.8195884 ], [ 105.9786201, 56.8191991 ], [ 105.9781127, 56.8189438 ], [ 105.9778409, 56.8185322 ], [ 105.9784298, 56.8180115 ], [ 105.9797582, 56.8186109 ], [ 105.9802781, 56.8185272 ], [ 105.9820358, 56.8191818 ], [ 105.9824073, 56.8192214 ], [ 105.9831028, 56.8194948 ] ] ] ] } },
{ "type": "Feature", "properties": { "zona": null }, "geometry": { "type": "MultiPolygon", "coordinates": [ [ [ [ 105.9097795, 56.8007809 ], [ 105.9092744, 56.8005961 ], [ 105.9079516, 56.8003084 ], [ 105.906746, 56.8002377 ], [ 105.9051423, 56.79995 ], [ 105.9044175, 56.799687 ], [ 105.9039781, 56.7995803 ], [ 105.9036383, 56.7993943 ], [ 105.9036111, 56.7991562 ], [ 105.9038376, 56.7990545 ], [ 105.9040913, 56.7990817 ], [ 105.9046259, 56.7992802 ], [ 105.9051151, 56.7992207 ], [ 105.9059306, 56.7986352 ], [ 105.9059125, 56.7985062 ], [ 105.9055455, 56.79835 ], [ 105.9048433, 56.7979158 ], [ 105.9050064, 56.797251 ], [ 105.9049883, 56.7965365 ], [ 105.9054323, 56.7962897 ], [ 105.9064765, 56.7963765 ], [ 105.9073168, 56.7964981 ], [ 105.9089658, 56.7963096 ], [ 105.9099262, 56.7964683 ], [ 105.9105967, 56.7964931 ], [ 105.9115027, 56.7962475 ], [ 105.9117473, 56.7959201 ], [ 105.9121188, 56.7958754 ], [ 105.9125718, 56.7949029 ], [ 105.9142208, 56.7950021 ], [ 105.9135231, 56.796312 ], [ 105.9141166, 56.7970414 ], [ 105.9146783, 56.7972584 ], [ 105.9157435, 56.7952192 ], [ 105.917474, 56.7953631 ], [ 105.9186677, 56.7956459 ], [ 105.9193461, 56.7957882 ], [ 105.9190403, 56.7959356 ], [ 105.9188431, 56.7961309 ], [ 105.9177175, 56.7972454 ], [ 105.9169066, 56.7982501 ], [ 105.9160957, 56.7992548 ], [ 105.9157967, 56.7993887 ], [ 105.9140753, 56.8011797 ], [ 105.9129537, 56.8021133 ], [ 105.9116788, 56.8029879 ], [ 105.9111012, 56.8031429 ], [ 105.9114738, 56.8024329 ], [ 105.9114376, 56.8019071 ], [ 105.9112654, 56.8013961 ], [ 105.9106901, 56.801411 ], [ 105.910502, 56.8014902 ], [ 105.9104251, 56.8015226 ], [ 105.9104568, 56.8018116 ], [ 105.9096957, 56.8022878 ], [ 105.9093945, 56.8024751 ], [ 105.9096278, 56.8025656 ], [ 105.9096187, 56.8026648 ], [ 105.9094466, 56.8027616 ], [ 105.9091068, 56.8028533 ], [ 105.9088169, 56.8027888 ], [ 105.9087172, 56.8027045 ], [ 105.9088622, 56.8021588 ], [ 105.9095281, 56.8013056 ], [ 105.9097365, 56.8010116 ], [ 105.9097795, 56.8007809 ] ] ] ] } },
{ "type": "Feature", "properties": { "zona": null }, "geometry": { "type": "MultiPolygon", "coordinates": [ [ [ [ 105.8877691, 56.8057739 ], [ 105.8866637, 56.8070338 ], [ 105.886401, 56.807004 ], [ 105.8859027, 56.8067163 ], [ 105.8854678, 56.8063691 ], [ 105.8867181, 56.8052877 ], [ 105.8877691, 56.8057739 ] ] ] ] } },
{ "type": "Feature", "properties": { "zona": null }, "geometry": { "type": "MultiPolygon", "coordinates": [ [ [ [ 105.7994092, 56.7902925 ], [ 105.8001068, 56.7903868 ], [ 105.8000071, 56.7902007 ], [ 105.8000977, 56.7900096 ], [ 105.8002971, 56.7900543 ], [ 105.8009222, 56.7888732 ], [ 105.8005326, 56.7884762 ], [ 105.7999347, 56.7883174 ], [ 105.7999528, 56.7881586 ], [ 105.8006051, 56.7882182 ], [ 105.8007139, 56.7879055 ], [ 105.8010763, 56.7879601 ], [ 105.8009222, 56.7884167 ], [ 105.8037491, 56.7889725 ], [ 105.8040752, 56.7891511 ], [ 105.8045226, 56.7894011 ], [ 105.8064955, 56.789787 ], [ 105.8074378, 56.7895984 ], [ 105.8078727, 56.7897076 ], [ 105.8081379, 56.7896785 ], [ 105.80838, 56.7898465 ], [ 105.809012, 56.7900202 ], [ 105.8090935, 56.7902336 ], [ 105.8088489, 56.7904519 ], [ 105.8080357, 56.7906405 ], [ 105.8084956, 56.7914444 ], [ 105.8087334, 56.7918277 ], [ 105.8090596, 56.7923016 ], [ 105.8091932, 56.7925237 ], [ 105.8091162, 56.7924951 ], [ 105.8090924, 56.792412 ], [ 105.8090188, 56.7923314 ], [ 105.8088874, 56.7922359 ], [ 105.8087878, 56.7921428 ], [ 105.8085205, 56.7918302 ], [ 105.8084616, 56.791664 ], [ 105.8083597, 56.7915201 ], [ 105.8082192, 56.7914196 ], [ 105.8080539, 56.7912992 ], [ 105.8078727, 56.7911516 ], [ 105.8076416, 56.7910462 ], [ 105.807354, 56.7909531 ], [ 105.807431, 56.7908836 ], [ 105.8073109, 56.7908489 ], [ 105.8066586, 56.7908489 ], [ 105.8055374, 56.790602 ], [ 105.8051093, 56.7904693 ], [ 105.8047129, 56.790442 ], [ 105.8045407, 56.7905462 ], [ 105.8045022, 56.7907199 ], [ 105.8039246, 56.7914853 ], [ 105.803979, 56.7918625 ], [ 105.8044241, 56.7920888 ], [ 105.8045872, 56.7920938 ], [ 105.804714, 56.7921633 ], [ 105.8047638, 56.7922402 ], [ 105.8055294, 56.792394 ], [ 105.8057288, 56.7924511 ], [ 105.8061365, 56.7925206 ], [ 105.8063539, 56.79259 ], [ 105.8066076, 56.7926595 ], [ 105.8067163, 56.7927538 ], [ 105.8067435, 56.7929274 ], [ 105.8065351, 56.7930912 ], [ 105.8064989, 56.7932252 ], [ 105.8060277, 56.793384 ], [ 105.8049496, 56.7933443 ], [ 105.8028929, 56.7932599 ], [ 105.8025576, 56.7932053 ], [ 105.8024534, 56.793116 ], [ 105.8018917, 56.793121 ], [ 105.8019551, 56.7928977 ], [ 105.8008045, 56.7928282 ], [ 105.7991192, 56.7924709 ], [ 105.7965461, 56.7920492 ], [ 105.7964555, 56.791868 ], [ 105.7974702, 56.7899749 ], [ 105.7994092, 56.7902925 ] ], [ [ 105.802535, 56.7919896 ], [ 105.8022451, 56.792456 ], [ 105.8039665, 56.7927637 ], [ 105.8043289, 56.7927637 ], [ 105.8045101, 56.7925751 ], [ 105.8039665, 56.7923469 ], [ 105.8034954, 56.7921782 ], [ 105.802535, 56.7919896 ] ] ] ] } },
{ "type": "Feature", "properties": { "zona": null }, "geometry": { "type": "MultiPolygon", "coordinates": [ [ [ [ 105.8098082, 56.7929684 ], [ 105.8098354, 56.7933703 ], [ 105.8095364, 56.7933033 ], [ 105.809328, 56.793209 ], [ 105.8091558, 56.7931296 ], [ 105.8090743, 56.7929758 ], [ 105.8090154, 56.7928419 ], [ 105.8090856, 56.792724 ], [ 105.80926, 56.7926483 ], [ 105.8094911, 56.7929684 ], [ 105.8098082, 56.7929684 ] ] ] ] } },
{ "type": "Feature", "properties": { "zona": null }, "geometry": { "type": "MultiPolygon", "coordinates": [ [ [ [ 105.7837257, 56.7897169 ], [ 105.783019, 56.789439 ], [ 105.7829193, 56.7894092 ], [ 105.7826838, 56.7896573 ], [ 105.781225, 56.7892504 ], [ 105.7807901, 56.7891462 ], [ 105.7797754, 56.7886946 ], [ 105.7789962, 56.7884067 ], [ 105.7795942, 56.7880097 ], [ 105.7799022, 56.7881536 ], [ 105.7811254, 56.7885358 ], [ 105.782566, 56.7886648 ], [ 105.7828378, 56.7887045 ], [ 105.7832999, 56.7888683 ], [ 105.7844324, 56.7891908 ], [ 105.783925, 56.7897069 ], [ 105.7837257, 56.7897169 ] ] ] ] } },
{ "type": "Feature", "properties": { "zona": null }, "geometry": { "type": "MultiPolygon", "coordinates": [ [ [ [ 105.7907475, 56.8031628 ], [ 105.791128, 56.803004 ], [ 105.7911733, 56.8029619 ], [ 105.7914225, 56.8029842 ], [ 105.7919208, 56.8027659 ], [ 105.7920204, 56.8028155 ], [ 105.7914315, 56.8030387 ], [ 105.7912743, 56.8030497 ], [ 105.7908245, 56.8033438 ], [ 105.7908562, 56.803391 ], [ 105.7914361, 56.8035398 ], [ 105.7908562, 56.8038672 ], [ 105.7893703, 56.8045418 ], [ 105.7886817, 56.8042144 ], [ 105.7881562, 56.8039465 ], [ 105.7876307, 56.8036291 ], [ 105.788573, 56.8025972 ], [ 105.7896421, 56.8029544 ], [ 105.7907475, 56.8031628 ] ] ] ] } },
{ "type": "Feature", "properties": { "zona": null }, "geometry": { "type": "MultiPolygon", "coordinates": [ [ [ [ 105.8237589, 56.8063945 ], [ 105.8234689, 56.8069699 ], [ 105.8207146, 56.806831 ], [ 105.8193012, 56.806831 ], [ 105.8180327, 56.8064144 ], [ 105.8164018, 56.8061763 ], [ 105.8158945, 56.8056207 ], [ 105.8123791, 56.8049262 ], [ 105.8134301, 56.8039143 ], [ 105.8148253, 56.804331 ], [ 105.8160032, 56.8048717 ], [ 105.8185763, 56.8053826 ], [ 105.8237589, 56.8063945 ] ] ] ] } },
{ "type": "Feature", "properties": { "zona": null }, "geometry": { "type": "MultiPolygon", "coordinates": [ [ [ [ 105.8229615, 56.8071733 ], [ 105.8229344, 56.8076048 ], [ 105.8235459, 56.8076569 ], [ 105.8226943, 56.8084207 ], [ 105.8227486, 56.8082124 ], [ 105.8207372, 56.8082471 ], [ 105.8198312, 56.8081876 ], [ 105.8198221, 56.8080735 ], [ 105.8193329, 56.8079991 ], [ 105.8176386, 56.808014 ], [ 105.8154369, 56.8079694 ], [ 105.8154007, 56.8075726 ], [ 105.8156136, 56.8069538 ], [ 105.8158809, 56.8065508 ], [ 105.816053, 56.8064466 ], [ 105.8164426, 56.8064516 ], [ 105.817249, 56.8065656 ], [ 105.8184993, 56.8068484 ], [ 105.8196455, 56.8070542 ], [ 105.8217837, 56.8071336 ], [ 105.8229615, 56.8071733 ] ] ] ] } },
{ "type": "Feature", "properties": { "zona": null }, "geometry": { "type": "MultiPolygon", "coordinates": [ [ [ [ 105.8022473, 56.7876375 ], [ 105.8023742, 56.7872504 ], [ 105.8052735, 56.7874192 ], [ 105.8052372, 56.7878956 ], [ 105.8022473, 56.7876375 ] ] ] ] } },
{ "type": "Feature", "properties": { "zona": null }, "geometry": { "type": "MultiPolygon", "coordinates": [ [ [ [ 105.7712066, 56.7909078 ], [ 105.7704817, 56.7915232 ], [ 105.7695938, 56.7913048 ], [ 105.7693401, 56.7909872 ], [ 105.7687603, 56.789965 ], [ 105.7692314, 56.7895978 ], [ 105.7686697, 56.7876326 ], [ 105.7674918, 56.7864117 ], [ 105.7656073, 56.7839699 ], [ 105.7654508, 56.7838363 ], [ 105.7649912, 56.7834438 ], [ 105.7612583, 56.7830169 ], [ 105.7611677, 56.7827836 ], [ 105.7602707, 56.7826447 ], [ 105.7601257, 56.782605 ], [ 105.760316, 56.7823866 ], [ 105.7601439, 56.7823568 ], [ 105.7611677, 56.780287 ], [ 105.7640308, 56.7809819 ], [ 105.7661871, 56.7816272 ], [ 105.7664952, 56.7818654 ], [ 105.7674918, 56.7821037 ], [ 105.767695, 56.7823542 ], [ 105.7686515, 56.7826893 ], [ 105.7688327, 56.7828829 ], [ 105.7695213, 56.7835331 ], [ 105.7716233, 56.786233 ], [ 105.7728012, 56.7876921 ], [ 105.7737616, 56.7891114 ], [ 105.7732542, 56.7893397 ], [ 105.773218, 56.7899749 ], [ 105.772022, 56.791017 ], [ 105.7712066, 56.7909078 ] ] ] ] } },
{ "type": "Feature", "properties": { "zona": null }, "geometry": { "type": "MultiPolygon", "coordinates": [ [ [ [ 105.7672653, 56.7870916 ], [ 105.7675371, 56.7878757 ], [ 105.7665948, 56.7880643 ], [ 105.7665767, 56.7876971 ], [ 105.76587, 56.7869824 ], [ 105.765417, 56.7870519 ], [ 105.7646378, 56.7860792 ], [ 105.7645019, 56.7859353 ], [ 105.7649821, 56.7858707 ], [ 105.7650727, 56.7861586 ], [ 105.7658338, 56.7862182 ], [ 105.7662687, 56.7867244 ], [ 105.7666673, 56.7871313 ], [ 105.7672653, 56.7870916 ] ] ] ] } },
{ "type": "Feature", "properties": { "zona": null }, "geometry": { "type": "MultiPolygon", "coordinates": [ [ [ [ 105.7650727, 56.7839252 ], [ 105.7649277, 56.784491 ], [ 105.7651271, 56.7846697 ], [ 105.7647465, 56.7848881 ], [ 105.7639764, 56.7851858 ], [ 105.7632969, 56.7849228 ], [ 105.7633331, 56.7845903 ], [ 105.7625358, 56.7844761 ], [ 105.7623183, 56.7842925 ], [ 105.7614395, 56.7841386 ], [ 105.7614168, 56.7840108 ], [ 105.761512, 56.7838458 ], [ 105.761666, 56.7838508 ], [ 105.7616207, 56.7835728 ], [ 105.7621281, 56.783553 ], [ 105.7621032, 56.7833917 ], [ 105.762452, 56.7834264 ], [ 105.762418, 56.7835406 ], [ 105.7624905, 56.7835927 ], [ 105.762409, 56.7839699 ], [ 105.7632878, 56.7839302 ], [ 105.7634147, 56.7838259 ], [ 105.7636593, 56.7836324 ], [ 105.7646922, 56.7837713 ], [ 105.7650727, 56.7839252 ] ] ] ] } },
{ "type": "Feature", "properties": { "zona": null }, "geometry": { "type": "MultiPolygon", "coordinates": [ [ [ [ 105.7590883, 56.7830628 ], [ 105.7593058, 56.783311 ], [ 105.7580011, 56.7837577 ], [ 105.7572944, 56.783847 ], [ 105.7564427, 56.7838719 ], [ 105.7557179, 56.7838309 ], [ 105.7554189, 56.7837664 ], [ 105.7562524, 56.7837689 ], [ 105.7562343, 56.7837329 ], [ 105.7558221, 56.7837068 ], [ 105.7554823, 56.7836138 ], [ 105.7555027, 56.7835232 ], [ 105.7558628, 56.7835393 ], [ 105.7558085, 56.7834711 ], [ 105.7560078, 56.7830132 ], [ 105.7564065, 56.7829834 ], [ 105.7565333, 56.7826558 ], [ 105.7590883, 56.7830628 ] ] ] ] } },
{ "type": "Feature", "properties": { "zona": null }, "geometry": { "type": "MultiPolygon", "coordinates": [ [ [ [ 105.7608732, 56.7837019 ], [ 105.7605652, 56.7841783 ], [ 105.7594326, 56.7840741 ], [ 105.7582729, 56.7840195 ], [ 105.7582457, 56.7838508 ], [ 105.7593783, 56.7833991 ], [ 105.7596863, 56.7835033 ], [ 105.7608732, 56.7837019 ] ] ] ] } },
{ "type": "Feature", "properties": { "zona": null }, "geometry": { "type": "MultiPolygon", "coordinates": [ [ [ [ 105.7550293, 56.7832452 ], [ 105.7549931, 56.7835331 ], [ 105.7545763, 56.7835133 ], [ 105.7544041, 56.7836001 ], [ 105.7533758, 56.7834487 ], [ 105.7534528, 56.7831559 ], [ 105.7533033, 56.7833867 ], [ 105.7528412, 56.7833445 ], [ 105.7530405, 56.7829127 ], [ 105.7527472, 56.7828742 ], [ 105.7526793, 56.7829822 ], [ 105.7523338, 56.7829375 ], [ 105.7524743, 56.7826025 ], [ 105.7533169, 56.7827042 ], [ 105.7536657, 56.7827154 ], [ 105.7537382, 56.782224 ], [ 105.7539647, 56.7822513 ], [ 105.7539919, 56.7824027 ], [ 105.7548617, 56.7823828 ], [ 105.7548118, 56.7826931 ], [ 105.754454, 56.7826484 ], [ 105.7538288, 56.7826521 ], [ 105.7537155, 56.7829673 ], [ 105.7537744, 56.7830219 ], [ 105.7550293, 56.7832452 ] ] ] ] } },
{ "type": "Feature", "properties": { "zona": null }, "geometry": { "type": "MultiPolygon", "coordinates": [ [ [ [ 105.7607826, 56.7897652 ], [ 105.7602571, 56.7902317 ], [ 105.7594054, 56.7901722 ], [ 105.7593692, 56.7900034 ], [ 105.7597316, 56.7900729 ], [ 105.7598947, 56.7896064 ], [ 105.7607826, 56.7897652 ] ] ] ] } },
{ "type": "Feature", "properties": { "zona": null }, "geometry": { "type": "MultiPolygon", "coordinates": [ [ [ [ 105.755129, 56.7889315 ], [ 105.7584269, 56.7903012 ], [ 105.7580373, 56.7908061 ], [ 105.7577565, 56.7909302 ], [ 105.757684, 56.791213 ], [ 105.7565877, 56.7915852 ], [ 105.7561437, 56.7916559 ], [ 105.7556545, 56.7918693 ], [ 105.754531, 56.7914227 ], [ 105.7549659, 56.7910158 ], [ 105.7543679, 56.7908073 ], [ 105.754984, 56.7903409 ], [ 105.7559988, 56.7899935 ], [ 105.7545853, 56.7892789 ], [ 105.755129, 56.7889315 ] ] ] ] } },
{ "type": "Feature", "properties": { "zona": null }, "geometry": { "type": "MultiPolygon", "coordinates": [ [ [ [ 105.7678225, 56.7800487 ], [ 105.7678135, 56.780153 ], [ 105.7672698, 56.7800487 ], [ 105.7668168, 56.779597 ], [ 105.7662732, 56.7791205 ], [ 105.76505, 56.778495 ], [ 105.764289, 56.7782568 ], [ 105.7630024, 56.7780582 ], [ 105.7623229, 56.7778447 ], [ 105.7605924, 56.7776412 ], [ 105.7567598, 56.7771895 ], [ 105.755129, 56.7769711 ], [ 105.7537518, 56.7768718 ], [ 105.753027, 56.7767725 ], [ 105.7516498, 56.7763158 ], [ 105.7509612, 56.7759584 ], [ 105.7503813, 56.7754619 ], [ 105.7502364, 56.7750251 ], [ 105.750925, 56.7747669 ], [ 105.7532806, 56.7749258 ], [ 105.755129, 56.7750251 ], [ 105.7569773, 56.7750251 ], [ 105.759043, 56.7753229 ], [ 105.7604111, 56.7756257 ], [ 105.7630386, 56.7760725 ], [ 105.7634917, 56.7763878 ], [ 105.7637816, 56.7763183 ], [ 105.7642165, 56.7758069 ], [ 105.7650319, 56.775941 ], [ 105.7651678, 56.7760763 ], [ 105.7676775, 56.7767353 ], [ 105.7677772, 56.7774402 ], [ 105.7683299, 56.7777082 ], [ 105.7699517, 56.7781748 ], [ 105.7690275, 56.7784181 ], [ 105.7691997, 56.7785521 ], [ 105.7692631, 56.7788202 ], [ 105.7690185, 56.7789393 ], [ 105.7678225, 56.7800487 ] ], [ [ 105.767442, 56.7794828 ], [ 105.7675734, 56.7796739 ], [ 105.7678225, 56.7800487 ], [ 105.7689168, 56.7790336 ], [ 105.768792, 56.7788499 ], [ 105.7686017, 56.7787184 ], [ 105.7681487, 56.7784007 ], [ 105.7663185, 56.7776859 ], [ 105.7652856, 56.7773483 ], [ 105.764144, 56.7769016 ], [ 105.7629662, 56.7766335 ], [ 105.7620239, 56.7764945 ], [ 105.7614259, 56.7763158 ], [ 105.7607373, 56.7762761 ], [ 105.7589615, 56.7759087 ], [ 105.756479, 56.7756406 ], [ 105.7552286, 56.7755215 ], [ 105.7545582, 56.7755116 ], [ 105.7542139, 56.7754644 ], [ 105.753489, 56.7754396 ], [ 105.7527098, 56.7754197 ], [ 105.7520303, 56.7754247 ], [ 105.751831, 56.775488 ], [ 105.7516135, 56.7756729 ], [ 105.7518491, 56.7757337 ], [ 105.7520167, 56.7757784 ], [ 105.7522568, 56.7757772 ], [ 105.7526374, 56.7758516 ], [ 105.7534709, 56.7758417 ], [ 105.7541686, 56.7759708 ], [ 105.7545446, 56.7760254 ], [ 105.7548843, 56.7760924 ], [ 105.7551154, 56.7761445 ], [ 105.7553283, 56.7761172 ], [ 105.7554325, 56.7761023 ], [ 105.7555457, 56.7762239 ], [ 105.7556952, 56.7763059 ], [ 105.7558085, 56.7763158 ], [ 105.7561392, 56.7762364 ], [ 105.7563476, 56.776214 ], [ 105.7573623, 56.7763505 ], [ 105.7580872, 56.7764995 ], [ 105.7595595, 56.7767948 ], [ 105.7604791, 56.7769611 ], [ 105.7611677, 56.7770927 ], [ 105.7617022, 56.7771696 ], [ 105.7620782, 56.7772391 ], [ 105.7623365, 56.7773334 ], [ 105.762486, 56.7773483 ], [ 105.7627215, 56.7773682 ], [ 105.762871, 56.7774178 ], [ 105.7630749, 56.7774178 ], [ 105.7635732, 56.7775047 ], [ 105.764289, 56.7776784 ], [ 105.7648507, 56.7779688 ], [ 105.7651995, 56.7781451 ], [ 105.765494, 56.7782841 ], [ 105.7659561, 56.7784454 ], [ 105.7662958, 56.7785968 ], [ 105.7667171, 56.7788847 ], [ 105.7673106, 56.7794382 ], [ 105.767442, 56.7794828 ] ] ] ] } },
{ "type": "Feature", "properties": { "zona": null }, "geometry": { "type": "MultiPolygon", "coordinates": [ [ [ [ 105.7307158, 56.784455 ], [ 105.7306977, 56.7846337 ], [ 105.7302809, 56.7846138 ], [ 105.7303897, 56.7844352 ], [ 105.7307158, 56.784455 ] ] ] ] } },
{ "type": "Feature", "properties": { "zona": null }, "geometry": { "type": "MultiPolygon", "coordinates": [ [ [ [ 105.732392, 56.7832887 ], [ 105.7324464, 56.7840332 ], [ 105.7310783, 56.7838843 ], [ 105.7301541, 56.7837354 ], [ 105.7295199, 56.7837503 ], [ 105.7286138, 56.7837651 ], [ 105.7282514, 56.7837354 ], [ 105.7281971, 56.7833879 ], [ 105.729094, 56.7833333 ], [ 105.7302538, 56.7832043 ], [ 105.7310783, 56.7832142 ], [ 105.7311145, 56.7831596 ], [ 105.7316853, 56.7831745 ], [ 105.732392, 56.7832887 ] ] ] ] } },
{ "type": "Feature", "properties": { "zona": null }, "geometry": { "type": "MultiPolygon", "coordinates": [ [ [ [ 105.7261585, 56.7846734 ], [ 105.7242921, 56.7845295 ], [ 105.7222716, 56.7848471 ], [ 105.7222444, 56.7848074 ], [ 105.722335, 56.7845741 ], [ 105.7226612, 56.7843309 ], [ 105.7233226, 56.7841572 ], [ 105.7238481, 56.7838197 ], [ 105.7242558, 56.7834872 ], [ 105.7245004, 56.7831646 ], [ 105.7251437, 56.7835219 ], [ 105.725633, 56.7837949 ], [ 105.7262038, 56.7839835 ], [ 105.7278075, 56.7839786 ], [ 105.7290397, 56.7840083 ], [ 105.7291484, 56.7843111 ], [ 105.7274451, 56.7844501 ], [ 105.7261585, 56.7846734 ] ] ] ] } },
{ "type": "Feature", "properties": { "zona": null }, "geometry": { "type": "MultiPolygon", "coordinates": [ [ [ [ 105.722036, 56.7802758 ], [ 105.7212387, 56.781348 ], [ 105.7201152, 56.7811296 ], [ 105.7194629, 56.7807722 ], [ 105.7192454, 56.7805538 ], [ 105.719934, 56.7796802 ], [ 105.722036, 56.7802758 ] ] ] ] } },
{ "type": "Feature", "properties": { "zona": null }, "geometry": { "type": "MultiPolygon", "coordinates": [ [ [ [ 105.7113267, 56.7784193 ], [ 105.7109099, 56.7788859 ], [ 105.7106381, 56.7789157 ], [ 105.7091703, 56.7785484 ], [ 105.7096052, 56.778052 ], [ 105.7113267, 56.7784193 ] ] ] ] } },
{ "type": "Feature", "properties": { "zona": null }, "geometry": { "type": "MultiPolygon", "coordinates": [ [ [ [ 105.7043321, 56.7778336 ], [ 105.704912, 56.7773372 ], [ 105.705963, 56.777496 ], [ 105.7055462, 56.7780917 ], [ 105.7043321, 56.7778336 ] ] ] ] } },
{ "type": "Feature", "properties": { "zona": null }, "geometry": { "type": "MultiPolygon", "coordinates": [ [ [ [ 105.703118, 56.7785385 ], [ 105.7032811, 56.7784094 ], [ 105.7032086, 56.778052 ], [ 105.703571, 56.7776747 ], [ 105.7038972, 56.7774067 ], [ 105.7040784, 56.7776648 ], [ 105.7040784, 56.7780321 ], [ 105.7036254, 56.7786576 ], [ 105.703118, 56.7785385 ] ] ] ] } },
{ "type": "Feature", "properties": { "zona": null }, "geometry": { "type": "MultiPolygon", "coordinates": [ [ [ [ 105.7216283, 56.777357 ], [ 105.7216283, 56.7776052 ], [ 105.721882, 56.7776499 ], [ 105.7219454, 56.7779974 ], [ 105.7216102, 56.7779924 ], [ 105.7215468, 56.7777541 ], [ 105.7214109, 56.7777492 ], [ 105.7213656, 56.7776152 ], [ 105.7210847, 56.7775059 ], [ 105.7211572, 56.7773272 ], [ 105.7216283, 56.777357 ] ] ] ] } },
{ "type": "Feature", "properties": { "zona": null }, "geometry": { "type": "MultiPolygon", "coordinates": [ [ [ [ 105.7213927, 56.7783796 ], [ 105.7213746, 56.778263 ], [ 105.7216102, 56.7779924 ], [ 105.7219454, 56.7779974 ], [ 105.7219545, 56.7783746 ], [ 105.7213927, 56.7783796 ] ] ] ] } },
{ "type": "Feature", "properties": { "zona": null }, "geometry": { "type": "MultiPolygon", "coordinates": [ [ [ [ 105.7212614, 56.7767638 ], [ 105.7212523, 56.7768134 ], [ 105.72113, 56.7767936 ], [ 105.7210485, 56.7769624 ], [ 105.720523, 56.7768929 ], [ 105.7206498, 56.7766744 ], [ 105.7212614, 56.7767638 ] ] ] ] } },
{ "type": "Feature", "properties": { "zona": null }, "geometry": { "type": "MultiPolygon", "coordinates": [ [ [ [ 105.7199431, 56.7769227 ], [ 105.7192545, 56.7783126 ], [ 105.7170438, 56.7779353 ], [ 105.716858, 56.7777939 ], [ 105.7164594, 56.7778336 ], [ 105.7156621, 56.7776549 ], [ 105.7137775, 56.7774265 ], [ 105.7120379, 56.7772081 ], [ 105.7082416, 56.776662 ], [ 105.706647, 56.7762649 ], [ 105.7043638, 56.7753912 ], [ 105.7021168, 56.774577 ], [ 105.7005132, 56.7742245 ], [ 105.6991632, 56.7737182 ], [ 105.6981303, 56.7733111 ], [ 105.6962457, 56.7725763 ], [ 105.6968437, 56.7720699 ], [ 105.6982571, 56.7726756 ], [ 105.7008756, 56.7735543 ], [ 105.7020806, 56.7739614 ], [ 105.7038111, 56.7745075 ], [ 105.7045178, 56.7747359 ], [ 105.7071906, 56.7754309 ], [ 105.7091839, 56.7757288 ], [ 105.7113131, 56.7760862 ], [ 105.7118567, 56.7760465 ], [ 105.7133698, 56.7762103 ], [ 105.7141671, 56.7760167 ], [ 105.7148466, 56.7755997 ], [ 105.7161513, 56.7757983 ], [ 105.715952, 56.7760564 ], [ 105.716858, 56.776245 ], [ 105.7172975, 56.776049 ], [ 105.718874, 56.7763468 ], [ 105.7186792, 56.776667 ], [ 105.7199431, 56.7769227 ] ] ] ] } },
{ "type": "Feature", "properties": { "zona": null }, "geometry": { "type": "MultiPolygon", "coordinates": [ [ [ [ 105.698982, 56.772338 ], [ 105.6985244, 56.772683 ], [ 105.6968165, 56.7719532 ], [ 105.697179, 56.7718092 ], [ 105.69794, 56.771983 ], [ 105.698982, 56.772338 ] ] ] ] } },
{ "type": "Feature", "properties": { "zona": null }, "geometry": { "type": "MultiPolygon", "coordinates": [ [ [ [ 105.6967758, 56.7720277 ], [ 105.6963816, 56.7723901 ], [ 105.6955979, 56.7715808 ], [ 105.6967758, 56.7720277 ] ] ] ] } },
{ "type": "Feature", "properties": { "zona": null }, "geometry": { "type": "MultiPolygon", "coordinates": [ [ [ [ 105.6728293, 56.7590052 ], [ 105.6724306, 56.7594025 ], [ 105.6714158, 56.7592535 ], [ 105.6716333, 56.7590548 ], [ 105.6712346, 56.7589555 ], [ 105.6714158, 56.7586774 ], [ 105.6728293, 56.7590052 ] ] ] ] } },
{ "type": "Feature", "properties": { "zona": null }, "geometry": { "type": "MultiPolygon", "coordinates": [ [ [ [ 105.6698665, 56.7573463 ], [ 105.6698303, 56.7574457 ], [ 105.6706457, 56.7575947 ], [ 105.6710444, 56.7576741 ], [ 105.6709447, 56.7580069 ], [ 105.6707454, 56.7581112 ], [ 105.6705008, 56.7580119 ], [ 105.6702652, 56.7581857 ], [ 105.6702924, 56.7583794 ], [ 105.6686751, 56.7581025 ], [ 105.6683081, 56.7580069 ], [ 105.6681201, 56.757956 ], [ 105.6683988, 56.7573463 ], [ 105.6686887, 56.757283 ], [ 105.6690511, 56.7571278 ], [ 105.6698665, 56.7573463 ] ] ] ] } },
{ "type": "Feature", "properties": { "zona": null }, "geometry": { "type": "MultiPolygon", "coordinates": [ [ [ [ 105.668965, 56.7640024 ], [ 105.6685664, 56.7645884 ], [ 105.6673885, 56.7645288 ], [ 105.6672617, 56.7650552 ], [ 105.6667724, 56.7650254 ], [ 105.6656308, 56.7651545 ], [ 105.6651597, 56.7644791 ], [ 105.6656852, 56.7643798 ], [ 105.6654677, 56.7640223 ], [ 105.6660476, 56.7638237 ], [ 105.667008, 56.7637839 ], [ 105.6680227, 56.763774 ], [ 105.668965, 56.7640024 ] ] ] ] } },
{ "type": "Feature", "properties": { "zona": null }, "geometry": { "type": "MultiPolygon", "coordinates": [ [ [ [ 105.6634201, 56.7657007 ], [ 105.6638187, 56.7664158 ], [ 105.662804, 56.7672798 ], [ 105.6624053, 56.7670216 ], [ 105.6621154, 56.766674 ], [ 105.6622422, 56.7664853 ], [ 105.6620429, 56.7659391 ], [ 105.6634201, 56.7657007 ] ] ] ] } },
{ "type": "Feature", "properties": { "zona": null }, "geometry": { "type": "MultiPolygon", "coordinates": [ [ [ [ 105.6578027, 56.7646976 ], [ 105.6574946, 56.764797 ], [ 105.6575309, 56.7649012 ], [ 105.6572047, 56.764936 ], [ 105.6570688, 56.7650701 ], [ 105.6568695, 56.7651396 ], [ 105.6568966, 56.7649956 ], [ 105.6566339, 56.7646827 ], [ 105.6571503, 56.7645586 ], [ 105.6575037, 56.7646132 ], [ 105.6578027, 56.7646976 ] ] ] ] } },
{ "type": "Feature", "properties": { "zona": null }, "geometry": { "type": "MultiPolygon", "coordinates": [ [ [ [ 105.6561446, 56.7646877 ], [ 105.6559181, 56.7643997 ], [ 105.6563621, 56.7642557 ], [ 105.6566067, 56.7645834 ], [ 105.6561446, 56.7646877 ] ] ] ] } },
{ "type": "Feature", "properties": { "zona": null }, "geometry": { "type": "MultiPolygon", "coordinates": [ [ [ [ 105.6549215, 56.7644394 ], [ 105.6557007, 56.7655815 ], [ 105.6528376, 56.7665151 ], [ 105.6518047, 56.7657107 ], [ 105.6529554, 56.7652042 ], [ 105.6543597, 56.7645586 ], [ 105.6549215, 56.7644394 ] ] ] ] } },
{ "type": "Feature", "properties": { "zona": null }, "geometry": { "type": "MultiPolygon", "coordinates": [ [ [ [ 105.6535443, 56.7636598 ], [ 105.6537618, 56.7640024 ], [ 105.6520403, 56.7647821 ], [ 105.65185, 56.764653 ], [ 105.652004, 56.7645586 ], [ 105.6516507, 56.7643302 ], [ 105.652294, 56.7640471 ], [ 105.6535443, 56.7636598 ] ] ] ] } },
{ "type": "Feature", "properties": { "zona": null }, "geometry": { "type": "MultiPolygon", "coordinates": [ [ [ [ 105.6486925, 56.7660111 ], [ 105.6489371, 56.7661451 ], [ 105.6473516, 56.7668701 ], [ 105.6472881, 56.7667609 ], [ 105.6476868, 56.7664182 ], [ 105.6486925, 56.7660111 ] ] ] ] } },
{ "type": "Feature", "properties": { "zona": null }, "geometry": { "type": "MultiPolygon", "coordinates": [ [ [ [ 105.6537663, 56.7615219 ], [ 105.6540562, 56.7618596 ], [ 105.653277, 56.7619788 ], [ 105.6533676, 56.7623264 ], [ 105.6529509, 56.7625251 ], [ 105.6532951, 56.7628826 ], [ 105.6528965, 56.7630018 ], [ 105.6522079, 56.7625747 ], [ 105.6518817, 56.7627734 ], [ 105.6513925, 56.7622966 ], [ 105.6510119, 56.7623959 ], [ 105.6506133, 56.7621675 ], [ 105.6519361, 56.7613729 ], [ 105.6522623, 56.7616808 ], [ 105.652824, 56.761512 ], [ 105.6530052, 56.7616212 ], [ 105.6537663, 56.7615219 ] ] ] ] } },
{ "type": "Feature", "properties": { "zona": null }, "geometry": { "type": "MultiPolygon", "coordinates": [ [ [ [ 105.6463368, 56.7632998 ], [ 105.6478453, 56.7622072 ], [ 105.6491908, 56.7613555 ], [ 105.649782, 56.7610116 ], [ 105.6500697, 56.7609458 ], [ 105.6509395, 56.761512 ], [ 105.6494717, 56.7625548 ], [ 105.648475, 56.7632402 ], [ 105.6475328, 56.7637467 ], [ 105.6469167, 56.7634487 ], [ 105.6463368, 56.7632998 ] ], [ [ 105.6499213, 56.7622354 ], [ 105.6504858, 56.7618343 ], [ 105.6495215, 56.7613456 ], [ 105.6488692, 56.7616734 ], [ 105.6499213, 56.7622354 ] ], [ [ 105.6506564, 56.7617131 ], [ 105.6509395, 56.761512 ], [ 105.6506653, 56.7613335 ], [ 105.6506699, 56.7614635 ], [ 105.6505748, 56.7615008 ], [ 105.6504321, 56.7615902 ], [ 105.6506564, 56.7617131 ] ] ] ] } },
{ "type": "Feature", "properties": { "zona": null }, "geometry": { "type": "MultiPolygon", "coordinates": [ [ [ [ 105.6351812, 56.7825739 ], [ 105.6357973, 56.7809757 ], [ 105.6338947, 56.7808764 ], [ 105.6345651, 56.7782456 ], [ 105.6350725, 56.7776102 ], [ 105.636051, 56.7763294 ], [ 105.6373738, 56.7755848 ], [ 105.6376094, 56.7756344 ], [ 105.6377725, 56.7758429 ], [ 105.6386604, 56.7756642 ], [ 105.6390228, 56.7753664 ], [ 105.6379356, 56.7749791 ], [ 105.6382618, 56.7745522 ], [ 105.6389413, 56.7748252 ], [ 105.6397839, 56.7742146 ], [ 105.6431181, 56.7755848 ], [ 105.638153, 56.7830306 ], [ 105.6351812, 56.7825739 ] ] ] ] } },
{ "type": "Feature", "properties": { "zona": null }, "geometry": { "type": "MultiPolygon", "coordinates": [ [ [ [ 105.6430637, 56.7713251 ], [ 105.6424114, 56.7716032 ], [ 105.6424386, 56.7717571 ], [ 105.6421215, 56.7719706 ], [ 105.6427013, 56.7725663 ], [ 105.6414691, 56.7732366 ], [ 105.6404725, 56.7739565 ], [ 105.6390047, 56.7732118 ], [ 105.6396571, 56.7725812 ], [ 105.6406265, 56.771911 ], [ 105.6423027, 56.7708386 ], [ 105.6430637, 56.7713251 ] ] ] ] } },
{ "type": "Feature", "properties": { "zona": null }, "geometry": { "type": "MultiPolygon", "coordinates": [ [ [ [ 105.6339128, 56.7733855 ], [ 105.6337497, 56.7735742 ], [ 105.6338222, 56.7736536 ], [ 105.6334598, 56.7740508 ], [ 105.6334417, 56.7743189 ], [ 105.6332197, 56.7743784 ], [ 105.6330566, 56.7748178 ], [ 105.6323635, 56.775205 ], [ 105.6316024, 56.7753391 ], [ 105.6312581, 56.7754532 ], [ 105.6310407, 56.7753738 ], [ 105.630488, 56.775483 ], [ 105.6301074, 56.7753937 ], [ 105.6297178, 56.7751454 ], [ 105.6295095, 56.7749667 ], [ 105.629437, 56.7745894 ], [ 105.6296363, 56.77451 ], [ 105.6298175, 56.7746291 ], [ 105.62989, 56.7744504 ], [ 105.6297586, 56.7743635 ], [ 105.6299081, 56.7743065 ], [ 105.6299126, 56.7740607 ], [ 105.6302207, 56.773743 ], [ 105.6302388, 56.7735245 ], [ 105.6306375, 56.773604 ], [ 105.6306012, 56.7734153 ], [ 105.6308912, 56.7730876 ], [ 105.6315073, 56.772611 ], [ 105.6324858, 56.7720153 ], [ 105.6336818, 56.7713698 ], [ 105.6341891, 56.7715784 ], [ 105.6340351, 56.7721816 ], [ 105.6341755, 56.7724571 ], [ 105.6340895, 56.7725192 ], [ 105.6342254, 56.7725937 ], [ 105.6341937, 56.772971 ], [ 105.6340238, 56.772997 ], [ 105.6339445, 56.7726967 ], [ 105.634017, 56.7726532 ], [ 105.6340207, 56.7725502 ], [ 105.6339264, 56.7725465 ], [ 105.6338399, 56.7723693 ], [ 105.6336455, 56.7728096 ], [ 105.6323771, 56.773733 ], [ 105.631471, 56.7741302 ], [ 105.631163, 56.7743685 ], [ 105.6311403, 56.7748079 ], [ 105.6313759, 56.7744752 ], [ 105.6323725, 56.7741823 ], [ 105.6321913, 56.7745001 ], [ 105.6324858, 56.7742469 ], [ 105.6326942, 56.7742791 ], [ 105.6328301, 56.7744355 ], [ 105.6330068, 56.7743288 ], [ 105.632898, 56.7740905 ], [ 105.6329162, 56.7738721 ], [ 105.6330339, 56.7736486 ], [ 105.6332242, 56.7734451 ], [ 105.6334417, 56.7734054 ], [ 105.6338222, 56.7733259 ], [ 105.6339128, 56.7733855 ] ] ] ] } },
{ "type": "Feature", "properties": { "zona": null }, "geometry": { "type": "MultiPolygon", "coordinates": [ [ [ [ 105.6274845, 56.7823841 ], [ 105.6271764, 56.7842007 ], [ 105.6258174, 56.7840617 ], [ 105.6259805, 56.782801 ], [ 105.6274845, 56.7823841 ] ] ] ] } },
{ "type": "Feature", "properties": { "zona": null }, "geometry": { "type": "MultiPolygon", "coordinates": [ [ [ [ 105.6263429, 56.7898384 ], [ 105.6261435, 56.7921509 ], [ 105.6255818, 56.7926372 ], [ 105.6251265, 56.7927761 ], [ 105.6243496, 56.7928952 ], [ 105.6234798, 56.7932128 ], [ 105.6221932, 56.7931334 ], [ 105.6192033, 56.7921707 ], [ 105.622755, 56.7908408 ], [ 105.6231174, 56.7908905 ], [ 105.6236066, 56.7904637 ], [ 105.6246939, 56.790156 ], [ 105.62531, 56.7897789 ], [ 105.6263429, 56.7898384 ] ] ] ] } },
{ "type": "Feature", "properties": { "zona": null }, "geometry": { "type": "MultiPolygon", "coordinates": [ [ [ [ 105.6263497, 56.7942994 ], [ 105.6262953, 56.7946269 ], [ 105.6257154, 56.7952819 ], [ 105.6246373, 56.795654 ], [ 105.6238399, 56.7957135 ], [ 105.6235863, 56.7955548 ], [ 105.6234685, 56.7955473 ], [ 105.6235228, 56.795659 ], [ 105.6230743, 56.7957111 ], [ 105.6227572, 56.7954679 ], [ 105.6229883, 56.7952546 ], [ 105.6234594, 56.7951876 ], [ 105.6236134, 56.7952124 ], [ 105.6239124, 56.7951975 ], [ 105.6246735, 56.7950387 ], [ 105.6255524, 56.7946765 ], [ 105.6259691, 56.794421 ], [ 105.6263497, 56.7942994 ] ] ] ] } },
{ "type": "Feature", "properties": { "zona": null }, "geometry": { "type": "MultiPolygon", "coordinates": [ [ [ [ 105.6217017, 56.7947063 ], [ 105.6211173, 56.7946095 ], [ 105.6205963, 56.7945971 ], [ 105.6204038, 56.7945736 ], [ 105.6200119, 56.7943937 ], [ 105.6200301, 56.7942473 ], [ 105.6204921, 56.7940414 ], [ 105.6205148, 56.7939074 ], [ 105.6209135, 56.7937487 ], [ 105.6212306, 56.7937536 ], [ 105.6215386, 56.793838 ], [ 105.6217923, 56.7938256 ], [ 105.6221955, 56.7938826 ], [ 105.6227436, 56.793895 ], [ 105.6231785, 56.7941183 ], [ 105.623405, 56.7941779 ], [ 105.6239124, 56.7942101 ], [ 105.6242386, 56.7941233 ], [ 105.6245965, 56.7941233 ], [ 105.6251356, 56.7940464 ], [ 105.6252624, 56.7941258 ], [ 105.6241027, 56.7945624 ], [ 105.6233597, 56.7947187 ], [ 105.6225081, 56.7947906 ], [ 105.6217017, 56.7947063 ] ] ] ] } },
{ "type": "Feature", "properties": { "zona": null }, "geometry": { "type": "MultiPolygon", "coordinates": [ [ [ [ 105.6192984, 56.7943466 ], [ 105.6179213, 56.7945649 ], [ 105.6170152, 56.7944756 ], [ 105.6156924, 56.7942771 ], [ 105.6123039, 56.7930465 ], [ 105.6111804, 56.7930366 ], [ 105.6108587, 56.7928629 ], [ 105.6105099, 56.7925553 ], [ 105.6098394, 56.7924213 ], [ 105.6097398, 56.7924858 ], [ 105.6103332, 56.7927389 ], [ 105.6107455, 56.7930068 ], [ 105.6101022, 56.7932897 ], [ 105.6094408, 56.7929771 ], [ 105.6090784, 56.792719 ], [ 105.6083717, 56.7921434 ], [ 105.6083535, 56.7919251 ], [ 105.608879, 56.7916571 ], [ 105.6096764, 56.7915777 ], [ 105.6119324, 56.7915455 ], [ 105.6125032, 56.7916795 ], [ 105.6126391, 56.7918184 ], [ 105.6129924, 56.7918556 ], [ 105.6149767, 56.7923494 ], [ 105.6156018, 56.7924312 ], [ 105.618175, 56.7928481 ], [ 105.6187186, 56.7931061 ], [ 105.6188454, 56.7937015 ], [ 105.6192984, 56.7943466 ] ] ] ] } },
{ "type": "Feature", "properties": { "zona": null }, "geometry": { "type": "MultiPolygon", "coordinates": [ [ [ [ 105.6215499, 56.7963164 ], [ 105.6220936, 56.7966438 ], [ 105.6222748, 56.7972392 ], [ 105.6220754, 56.7980033 ], [ 105.6152439, 56.798301 ], [ 105.6152802, 56.7980926 ], [ 105.6142654, 56.797785 ], [ 105.6141929, 56.7969713 ], [ 105.6108587, 56.7967034 ], [ 105.6108859, 56.7965793 ], [ 105.6101656, 56.7964156 ], [ 105.6100025, 56.7962866 ], [ 105.6101566, 56.7960336 ], [ 105.6106096, 56.795592 ], [ 105.610895, 56.7956862 ], [ 105.6116742, 56.7959194 ], [ 105.6126164, 56.7960881 ], [ 105.613758, 56.7961576 ], [ 105.6150265, 56.7961874 ], [ 105.6215499, 56.7963164 ] ] ] ] } },
{ "type": "Feature", "properties": { "zona": null }, "geometry": { "type": "MultiPolygon", "coordinates": [ [ [ [ 105.6156924, 56.7950065 ], [ 105.6152349, 56.7949718 ], [ 105.6150627, 56.7950313 ], [ 105.6149585, 56.7950958 ], [ 105.614501, 56.7951132 ], [ 105.6143424, 56.7950635 ], [ 105.6142111, 56.7950809 ], [ 105.6137535, 56.7950561 ], [ 105.6126663, 56.7947882 ], [ 105.6116424, 56.7944111 ], [ 105.6115768, 56.7944173 ], [ 105.6113344, 56.7942573 ], [ 105.6107002, 56.7940501 ], [ 105.6103106, 56.7938243 ], [ 105.6101883, 56.7935266 ], [ 105.610981, 56.7931743 ], [ 105.6111532, 56.7931693 ], [ 105.6110943, 56.7932711 ], [ 105.6115292, 56.7933306 ], [ 105.6117919, 56.7933877 ], [ 105.6118554, 56.7934472 ], [ 105.6120366, 56.7934298 ], [ 105.6121408, 56.7934981 ], [ 105.6124941, 56.7935378 ], [ 105.6128112, 56.7937164 ], [ 105.6132914, 56.7938305 ], [ 105.6133277, 56.7939744 ], [ 105.6140253, 56.7940687 ], [ 105.6143968, 56.7942771 ], [ 105.6144149, 56.7943615 ], [ 105.6146777, 56.7944408 ], [ 105.6149495, 56.7947683 ], [ 105.6153481, 56.7948676 ], [ 105.6156924, 56.7950065 ] ] ] ] } },
{ "type": "Feature", "properties": { "zona": null }, "geometry": { "type": "MultiPolygon", "coordinates": [ [ [ [ 105.6147728, 56.7851523 ], [ 105.6163312, 56.7867405 ], [ 105.6162225, 56.7878323 ], [ 105.6127433, 56.787872 ], [ 105.6127206, 56.7896561 ], [ 105.6126663, 56.790393 ], [ 105.6100569, 56.7904972 ], [ 105.6090602, 56.7905071 ], [ 105.6074837, 56.7903384 ], [ 105.6062878, 56.7901796 ], [ 105.6053636, 56.7900506 ], [ 105.6032616, 56.7900407 ], [ 105.6033341, 56.7895246 ], [ 105.6041495, 56.7894849 ], [ 105.604367, 56.7888 ], [ 105.6052005, 56.7887901 ], [ 105.6062153, 56.7889291 ], [ 105.6069764, 56.7890283 ], [ 105.6077374, 56.7892864 ], [ 105.6086435, 56.7895742 ], [ 105.6100025, 56.7896933 ], [ 105.6103831, 56.7894799 ], [ 105.6104374, 56.7891623 ], [ 105.6102698, 56.789006 ], [ 105.609255, 56.788676 ], [ 105.6077556, 56.788279 ], [ 105.6067952, 56.7880407 ], [ 105.6058166, 56.7879812 ], [ 105.6043307, 56.7879117 ], [ 105.6042764, 56.7878174 ], [ 105.604675, 56.7876636 ], [ 105.6055177, 56.7876934 ], [ 105.6061428, 56.7877281 ], [ 105.6066321, 56.7877777 ], [ 105.6068858, 56.7877628 ], [ 105.6076831, 56.7879018 ], [ 105.6080999, 56.7879068 ], [ 105.6083853, 56.7878025 ], [ 105.6098983, 56.7877876 ], [ 105.611493, 56.7877082 ], [ 105.6119958, 56.7874998 ], [ 105.6147728, 56.7851523 ] ] ] ] } },
{ "type": "Feature", "properties": { "zona": null }, "geometry": { "type": "MultiPolygon", "coordinates": [ [ [ [ 105.5959952, 56.793802 ], [ 105.5957597, 56.7944272 ], [ 105.5920812, 56.7933157 ], [ 105.592806, 56.7926607 ], [ 105.5959952, 56.793802 ] ] ] ] } },
{ "type": "Feature", "properties": { "zona": null }, "geometry": { "type": "MultiPolygon", "coordinates": [ [ [ [ 105.5899248, 56.7920851 ], [ 105.5894899, 56.7921844 ], [ 105.5892, 56.792492 ], [ 105.5883302, 56.7921248 ], [ 105.5886926, 56.7918767 ], [ 105.5899248, 56.7920851 ] ] ] ] } },
{ "type": "Feature", "properties": { "zona": null }, "geometry": { "type": "MultiPolygon", "coordinates": [ [ [ [ 105.5977711, 56.7942585 ], [ 105.5970643, 56.7947745 ], [ 105.5957597, 56.7944272 ], [ 105.5959952, 56.793802 ], [ 105.5961221, 56.7937449 ], [ 105.5977711, 56.7942585 ] ] ] ] } },
{ "type": "Feature", "properties": { "zona": null }, "geometry": { "type": "MultiPolygon", "coordinates": [ [ [ [ 105.5825904, 56.8001924 ], [ 105.5835327, 56.8012243 ], [ 105.5835327, 56.8015418 ], [ 105.5830072, 56.8013235 ], [ 105.5823911, 56.8013037 ], [ 105.5817931, 56.8013235 ], [ 105.58057, 56.801455 ], [ 105.5794556, 56.8014823 ], [ 105.5795643, 56.8012045 ], [ 105.5793106, 56.8012045 ], [ 105.5794012, 56.8008969 ], [ 105.5809777, 56.8006687 ], [ 105.5807784, 56.8002123 ], [ 105.5825904, 56.8001924 ] ] ] ] } },
{ "type": "Feature", "properties": { "zona": null }, "geometry": { "type": "MultiPolygon", "coordinates": [ [ [ [ 105.5904186, 56.8009242 ], [ 105.5900743, 56.8012863 ], [ 105.5887968, 56.8009242 ], [ 105.5891139, 56.8005918 ], [ 105.5904186, 56.8009242 ] ] ] ] } },
{ "type": "Feature", "properties": { "zona": null }, "geometry": { "type": "MultiPolygon", "coordinates": [ [ [ [ 105.6034111, 56.8087667 ], [ 105.6028313, 56.8040644 ], [ 105.6047521, 56.8040644 ], [ 105.606093, 56.8068223 ], [ 105.6059843, 56.8087468 ], [ 105.6034111, 56.8087667 ] ] ] ] } },
{ "type": "Feature", "properties": { "zona": null }, "geometry": { "type": "MultiPolygon", "coordinates": [ [ [ [ 105.6007293, 56.8098975 ], [ 105.600693, 56.8085286 ], [ 105.5995695, 56.8085683 ], [ 105.5996783, 56.8056319 ], [ 105.598736, 56.8039651 ], [ 105.6022152, 56.8039255 ], [ 105.6024688, 56.8048382 ], [ 105.6026501, 56.8065247 ], [ 105.60294, 56.8098975 ], [ 105.6007293, 56.8098975 ] ] ] ] } },
{ "type": "Feature", "properties": { "zona": null }, "geometry": { "type": "MultiPolygon", "coordinates": [ [ [ [ 105.6159506, 56.805493 ], [ 105.6156245, 56.8053243 ], [ 105.6164218, 56.8045306 ], [ 105.6173097, 56.8038957 ], [ 105.6178714, 56.8035683 ], [ 105.6187412, 56.8036576 ], [ 105.6159506, 56.805493 ] ] ] ] } },
{ "type": "Feature", "properties": { "zona": null }, "geometry": { "type": "MultiPolygon", "coordinates": [ [ [ [ 105.615697, 56.8065942 ], [ 105.616458, 56.805612 ], [ 105.6174003, 56.804987 ], [ 105.6181614, 56.8044513 ], [ 105.6188635, 56.803918 ], [ 105.6191535, 56.8037246 ], [ 105.619457, 56.8036725 ], [ 105.6196926, 56.8044116 ], [ 105.6186869, 56.805235 ], [ 105.6184513, 56.805235 ], [ 105.6182701, 56.8051656 ], [ 105.6180164, 56.8052648 ], [ 105.617962, 56.805741 ], [ 105.6173641, 56.8060188 ], [ 105.617056, 56.8063164 ], [ 105.6169654, 56.8067132 ], [ 105.6167661, 56.8072291 ], [ 105.615697, 56.8065942 ] ] ] ] } },
{ "type": "Feature", "properties": { "zona": null }, "geometry": { "type": "MultiPolygon", "coordinates": [ [ [ [ 105.6272897, 56.8067058 ], [ 105.6284856, 56.8075589 ], [ 105.6249702, 56.8090271 ], [ 105.6237743, 56.8082335 ], [ 105.6254776, 56.8074052 ], [ 105.6272897, 56.8067058 ] ] ] ] } },
{ "type": "Feature", "properties": { "zona": null }, "geometry": { "type": "MultiPolygon", "coordinates": [ [ [ [ 105.6221978, 56.8100736 ], [ 105.6194253, 56.8088237 ], [ 105.6188635, 56.8079904 ], [ 105.6223427, 56.8070083 ], [ 105.6237743, 56.8082335 ], [ 105.6248066, 56.8089185 ], [ 105.6221978, 56.8100736 ] ] ] ] } },
{ "type": "Feature", "properties": { "zona": null }, "geometry": { "type": "MultiPolygon", "coordinates": [ [ [ [ 105.6333782, 56.8076234 ], [ 105.6342661, 56.8082484 ], [ 105.6335776, 56.8096074 ], [ 105.6313306, 56.8106886 ], [ 105.628087, 56.8108969 ], [ 105.6296001, 56.8098355 ], [ 105.6295185, 56.8096173 ], [ 105.6333782, 56.8076234 ] ] ] ] } },
{ "type": "Feature", "properties": { "zona": null }, "geometry": { "type": "MultiPolygon", "coordinates": [ [ [ [ 105.5752833, 56.7971363 ], [ 105.576298, 56.7974141 ], [ 105.5765517, 56.797553 ], [ 105.5758269, 56.7982476 ], [ 105.575247, 56.7985652 ], [ 105.5744135, 56.7985255 ], [ 105.5740873, 56.7984064 ], [ 105.5751745, 56.797434 ], [ 105.5752833, 56.7971363 ] ] ] ] } },
{ "type": "Feature", "properties": { "zona": null }, "geometry": { "type": "MultiPolygon", "coordinates": [ [ [ [ 105.5770727, 56.7940675 ], [ 105.5792562, 56.7946241 ], [ 105.5789772, 56.7948948 ], [ 105.5788621, 56.7948514 ], [ 105.5780059, 56.795814 ], [ 105.5781146, 56.7958735 ], [ 105.5776435, 56.796335 ], [ 105.5778972, 56.7964144 ], [ 105.5773354, 56.7969006 ], [ 105.5751066, 56.7961564 ], [ 105.5761032, 56.7954518 ], [ 105.5758042, 56.7952732 ], [ 105.5770727, 56.7940675 ] ] ] ] } },
{ "type": "Feature", "properties": { "zona": null }, "geometry": { "type": "MultiPolygon", "coordinates": [ [ [ [ 105.5788123, 56.7950549 ], [ 105.5793287, 56.7945537 ], [ 105.5803072, 56.794772 ], [ 105.5797817, 56.7953079 ], [ 105.5795099, 56.7952062 ], [ 105.5794465, 56.7952384 ], [ 105.5788123, 56.7950549 ] ] ] ] } },
{ "type": "Feature", "properties": { "zona": null }, "geometry": { "type": "MultiPolygon", "coordinates": [ [ [ [ 105.5739151, 56.7864924 ], [ 105.5770863, 56.7891623 ], [ 105.5764158, 56.789341 ], [ 105.5757499, 56.7895543 ], [ 105.5753693, 56.7894948 ], [ 105.5752606, 56.789331 ], [ 105.5751519, 56.7893707 ], [ 105.5750432, 56.7892367 ], [ 105.5752923, 56.7890233 ], [ 105.5743183, 56.7881152 ], [ 105.5737566, 56.7883931 ], [ 105.5729502, 56.787738 ], [ 105.573444, 56.7875445 ], [ 105.5730816, 56.7871077 ], [ 105.5733353, 56.7869986 ], [ 105.5730997, 56.7867206 ], [ 105.5739151, 56.7864924 ] ] ] ] } },
{ "type": "Feature", "properties": { "zona": null }, "geometry": { "type": "MultiPolygon", "coordinates": [ [ [ [ 105.6789181, 56.7639397 ], [ 105.6791491, 56.7637125 ], [ 105.6799311, 56.7638927 ], [ 105.6801784, 56.7637131 ], [ 105.6806875, 56.7638986 ], [ 105.6801277, 56.764301 ], [ 105.6789181, 56.7639397 ] ] ] ] } }
]
}
