{
"type": "FeatureCollection",
"name": "Resort",
"crs": { "type": "name", "properties": { "name": "urn:ogc:def:crs:OGC:1.3:CRS84" } },
"features": [
{ "type": "Feature", "properties": { "id": null }, "geometry": { "type": "MultiPolygon", "coordinates": [ [ [ [ 105.571029426353519, 56.799190271021118 ], [ 105.572161970211482, 56.798842983868028 ], [ 105.573294514069474, 56.798495693498268 ], [ 105.573142288432763, 56.798291596526902 ], [ 105.574586687793243, 56.795924772715615 ], [ 105.573959026810144, 56.79551862908486 ], [ 105.57287773792973, 56.796054647568674 ], [ 105.571657445923734, 56.797947412458633 ], [ 105.571147210914759, 56.798738797094856 ], [ 105.571029426353519, 56.799190271021118 ] ] ] ] } },
{ "type": "Feature", "properties": { "id": null }, "geometry": { "type": "MultiPolygon", "coordinates": [ [ [ [ 105.612666268747986, 56.790392992443756 ], [ 105.61668465317689, 56.790324354048806 ], [ 105.612666268747986, 56.790392992443756 ], [ 105.616684653176904, 56.790357903881478 ], [ 105.618603988363759, 56.7907213584785 ], [ 105.619508526192917, 56.788860337444611 ], [ 105.620252233257389, 56.788870917900816 ], [ 105.620290867390594, 56.789003173351539 ], [ 105.620532330723222, 56.789003173351539 ], [ 105.620773794055836, 56.789061365602109 ], [ 105.620889696455464, 56.788860337444611 ], [ 105.62352647604763, 56.788844466754696 ], [ 105.623603744314096, 56.788759822961843 ], [ 105.623912817379804, 56.788029762319958 ], [ 105.624158505492062, 56.787600581993907 ], [ 105.624270183112117, 56.787405496298604 ], [ 105.624270183112117, 56.787405496298604 ], [ 105.624473012311483, 56.786913482706787 ], [ 105.624852036950713, 56.78606328137284 ], [ 105.625199150761105, 56.785358647914563 ], [ 105.625168523071963, 56.785056658095044 ], [ 105.625658566098409, 56.783921378322816 ], [ 105.62580149531442, 56.783160777582232 ], [ 105.625821913773891, 56.782562352925709 ], [ 105.625872959922447, 56.781756981311744 ], [ 105.626015889138486, 56.780588043144988 ], [ 105.625954633760188, 56.779816188412461 ], [ 105.626036307597928, 56.77958127295102 ], [ 105.625199150761105, 56.779570086463785 ], [ 105.622678574523704, 56.780560736271028 ], [ 105.6191632510033, 56.781939907342 ], [ 105.616551807684658, 56.783012856273409 ], [ 105.616582560879706, 56.78441352352629 ], [ 105.616460050123109, 56.785990581707736 ], [ 105.61633118067239, 56.786740498478807 ], [ 105.616222456462054, 56.787832313833164 ], [ 105.61274328173036, 56.78787201561088 ], [ 105.612666268747986, 56.790392992443756 ] ] ] ] } },
{ "type": "Feature", "properties": { "id": null }, "geometry": { "type": "MultiPolygon", "coordinates": [ [ [ [ 105.693085423766107, 56.764006453737565 ], [ 105.694174220342703, 56.765206000620225 ], [ 105.694534805586088, 56.765170710173237 ], [ 105.69484387865181, 56.765029548053612 ], [ 105.694875199999984, 56.7646869 ], [ 105.695127269709573, 56.764185511365525 ], [ 105.695433546601066, 56.763760248104788 ], [ 105.695698986573731, 56.763693100833819 ], [ 105.696025681924695, 56.763044004356537 ], [ 105.696025681924695, 56.762820175383105 ], [ 105.695596894276548, 56.762652302777376 ], [ 105.694800574358609, 56.762417279868394 ], [ 105.694371786710462, 56.762204638825985 ], [ 105.693922580602916, 56.762081530303625 ], [ 105.693452956035941, 56.762059146892575 ], [ 105.693126260684977, 56.762103913701345 ], [ 105.692758728415171, 56.762159872137275 ], [ 105.692003245416061, 56.762383705047029 ], [ 105.693085423766107, 56.764006453737565 ] ] ] ] } }
]
}
